{"type":"FeatureCollection","features":[{"type":"Feature","properties":{"airport_id":"AZ_AIR_07","name_az":"Füzuli Beynəlxalq Hava Limanı","name_en":"Fuzuli International Airport","iata":"FZL","official_verified":true,"operational_status":"officially listed international airport","type":"international_airport","verification_status":"OFFICIAL_VERIFIED"},"geometry":{"type":"Point","coordinates":[47.20131785924117,39.59087938817948]}},{"type":"Feature","properties":{"airport_id":"AZ_AIR_03","name_az":"Gəncə Beynəlxalq Hava Limanı","name_en":"Ganja International Airport","iata":"GNJ","official_verified":true,"operational_status":"officially listed international airport","type":"international_airport","verification_status":"OFFICIAL_VERIFIED"},"geometry":{"type":"Point","coordinates":[46.3167142560253,40.73665496012292]}},{"type":"Feature","properties":{"airport_id":"AZ_AIR_01","name_az":"Heydər Əliyev Beynəlxalq Aeroportu","name_en":"Heydar Aliyev International Airport","iata":"GYD","official_verified":true,"operational_status":"officially listed international airport","type":"international_airport","verification_status":"OFFICIAL_VERIFIED"},"geometry":{"type":"Point","coordinates":[50.04418755580813,40.46859626621024]}},{"type":"Feature","properties":{"airport_id":"AZ_AIR_09","name_az":"Laçın Beynəlxalq Hava Limanı","name_en":"Lachin International Airport","iata":"LHL","official_verified":true,"operational_status":"officially listed international airport","type":"international_airport","verification_status":"OFFICIAL_VERIFIED"},"geometry":{"type":"Point","coordinates":[46.36173802608324,39.88528054750647]}},{"type":"Feature","properties":{"airport_id":"AZ_AIR_05","name_az":"Lənkəran Beynəlxalq Hava Limanı","name_en":"Lankaran International Airport","iata":"LLK","official_verified":true,"operational_status":"officially listed international airport","type":"international_airport","verification_status":"OFFICIAL_VERIFIED"},"geometry":{"type":"Point","coordinates":[48.8118457382013,38.752763620772136]}},{"type":"Feature","properties":{"airport_id":"AZ_AIR_02","name_az":"Naxçıvan Beynəlxalq Hava Limanı","name_en":"Nakhchivan International Airport","iata":"NAJ","official_verified":true,"operational_status":"officially listed international airport","type":"international_airport","verification_status":"OFFICIAL_VERIFIED"},"geometry":{"type":"Point","coordinates":[45.459032331789615,39.18673201129014]}},{"type":"Feature","properties":{"airport_id":"AZ_AIR_04","name_az":"Qəbələ Beynəlxalq Aeroportu","name_en":"Qabala International Airport","iata":"GBB","official_verified":true,"operational_status":"officially listed international airport","type":"international_airport","verification_status":"OFFICIAL_VERIFIED"},"geometry":{"type":"Point","coordinates":[47.72177929418567,40.81456009141525]}},{"type":"Feature","properties":{"airport_id":"AZ_AIR_06","name_az":"Zaqatala Beynəlxalq Hava Limanı","name_en":"Zagatala International Airport","iata":"ZTU","official_verified":true,"operational_status":"officially listed international airport","type":"international_airport","verification_status":"OFFICIAL_VERIFIED"},"geometry":{"type":"Point","coordinates":[46.663718100000004,41.5625584]}},{"type":"Feature","properties":{"airport_id":"AZ_AIR_08","name_az":"Zəngilan Beynəlxalq Hava Limanı","name_en":"Zangilan International Airport","iata":"ZZE","official_verified":true,"operational_status":"officially listed international airport","type":"international_airport","verification_status":"OFFICIAL_VERIFIED"},"geometry":{"type":"Point","coordinates":[46.74114437793846,39.10901744611611]}}]}