{"type":"FeatureCollection","features":[{"type":"Feature","properties":{"coastal_distance_km":217.333,"nearest_rail_station_km":3.791,"landcover_class":"built_up","poi_id":"OSM_cultural_11083609919","nearest_bus_terminal_km":1.517,"nearest_river_distance_m":772.9,"access_mode_status":"ROUTABLE_ROAD","thesis_subtype":"ARCHITECTURAL_MONUMENT","terrain_context":"URBAN","rayon_id":"AZE_ADM2_54616110B84154267491992","slope_deg":1.281,"inside_protected_area":false,"elevation_zone":"200_500_M","osm_route_status":"OK","label":"20 Yanvar abidəsi","osm_route_distance_km":4.352,"verification_status":"OSM_ONLY","nearest_airport_km":8.41,"source_role":"PHASE3C_VALIDATION","nearest_river":"Gəncəçay","elevation_m":379.1,"nearest_protected_area":"Türyançay Qoruğu","osm_drive_time_min":3.7,"name_az":"20 Yanvar abidəsi","display_rank":811,"source_primary":"OSM Geofabrik Azerbaijan snapshot","rayon":"Gəncə şəhəri","thesis_group":"HISTORICAL_CULTURAL","icon_id":"cultural_monument"},"geometry":{"type":"Point","coordinates":[46.3887422,40.6843827]}},{"type":"Feature","properties":{"coastal_distance_km":150.339,"nearest_rail_station_km":4.759,"landcover_class":"built_up","poi_id":"OSM_natural_11049926605","nearest_bus_terminal_km":1.825,"nearest_river_distance_m":688.3,"access_mode_status":"ROUTABLE_ROAD","thesis_subtype":"CLIMATIC_HEALTH","terrain_context":"URBAN","rayon_id":"AZE_ADM2_54616110B63924922129682","slope_deg":1.361,"inside_protected_area":false,"elevation_zone":"200_500_M","osm_route_status":"OK","label":"Alqayev Harun bulağı","osm_route_distance_km":5.042,"verification_status":"OSM_ONLY","nearest_airport_km":27.208,"source_role":"PHASE3C_VALIDATION","nearest_river":"Balakən çay","elevation_m":379.56,"nearest_protected_area":"Türyançay Qoruğu","osm_drive_time_min":7.4,"name_az":"Alqayev Harun bulağı","display_rank":22,"source_primary":"OSM Geofabrik Azerbaijan snapshot","rayon":"Balakən rayonu","thesis_group":"NATURAL_RESOURCES","icon_id":"natural_climatic"},"geometry":{"type":"Point","coordinates":[46.414454500000005,41.720861400000004]}},{"type":"Feature","properties":{"coastal_distance_km":199.921,"nearest_rail_station_km":7.996,"landcover_class":"built_up","poi_id":"OSM_cultural_11158720366","nearest_bus_terminal_km":0.571,"nearest_river_distance_m":861.7,"access_mode_status":"ROUTABLE_ROAD","thesis_subtype":"ARCHITECTURAL_MONUMENT","terrain_context":"URBAN","rayon_id":"AZE_ADM2_54616110B75141866412524","slope_deg":0.664,"inside_protected_area":false,"elevation_zone":"0_200_M","osm_route_status":"OK","label":"Ana Fəryadı abidəsi","osm_route_distance_km":14.148,"verification_status":"OSM_ONLY","nearest_airport_km":42.146,"source_role":"PHASE3C_VALIDATION","elevation_m":162.11,"nearest_protected_area":"Türyançay Qoruğu","osm_drive_time_min":15.1,"name_az":"Ana Fəryadı abidəsi","display_rank":831,"source_primary":"OSM Geofabrik Azerbaijan snapshot","rayon":"Goranboy rayonu","thesis_group":"HISTORICAL_CULTURAL","icon_id":"cultural_monument"},"geometry":{"type":"Point","coordinates":[46.783418100000006,40.6033198]}},{"type":"Feature","properties":{"coastal_distance_km":171.942,"nearest_rail_station_km":19.509,"landcover_class":"tree_cover","poi_id":"OSM_food_beverage_4417937990","nearest_bus_terminal_km":4.748,"nearest_river_distance_m":300.5,"access_mode_status":"ROUTABLE_ROAD","thesis_subtype":"RESTAURANT","terrain_context":"LAKE_SHORE","rayon_id":"AZE_ADM2_54616110B16521863868797","slope_deg":1.659,"inside_protected_area":false,"elevation_zone":"0_200_M","osm_route_status":"OK","label":"Ana Kür Şadlıq Sarayı","osm_route_distance_km":1.043,"verification_status":"OSM_ONLY","nearest_airport_km":58.327,"source_role":"PHASE3C_VALIDATION","nearest_river":"Kür","elevation_m":28.86,"nearest_protected_area":"Türyançay Qoruğu","osm_drive_time_min":1.1,"name_az":"Ana Kür Şadlıq Sarayı","display_rank":4103,"source_primary":"OSM Geofabrik Azerbaijan snapshot","rayon":"Mingəçevir şəhəri","thesis_group":"FOOD_BEVERAGE","icon_id":"food_restaurant"},"geometry":{"type":"Point","coordinates":[47.032972300000004,40.7719341]}},{"type":"Feature","properties":{"coastal_distance_km":21.362,"nearest_rail_station_km":177.613,"landcover_class":"tree_cover","poi_id":"OSM_accommodation_3587342066","nearest_bus_terminal_km":142.026,"nearest_river_distance_m":2855.5,"access_mode_status":"ROUTABLE_ROAD","thesis_subtype":"GUESTHOUSE","terrain_context":"FOREST","rayon_id":"AZE_ADM2_54616110B86237771899826","slope_deg":0.155,"inside_protected_area":false,"elevation_zone":"0_200_M","osm_route_status":"OK","label":"Azəri Binə Xocavar","osm_route_distance_km":6.739,"verification_status":"OSM_ONLY","nearest_airport_km":37.59,"source_role":"PHASE3C_VALIDATION","nearest_river":"Viləşçay","elevation_m":1.76,"nearest_protected_area":"Qızıl Ağac Dövlət Təbiət Qoruqu","osm_drive_time_min":5.3,"name_az":"Azəri Binə Xocavar","display_rank":2241,"source_primary":"OSM Geofabrik Azerbaijan snapshot","rayon":"Masallı rayonu","thesis_group":"ACCOMMODATION","icon_id":"accommodation_guesthouse"},"geometry":{"type":"Point","coordinates":[48.6432956,39.0647408]}},{"type":"Feature","properties":{"coastal_distance_km":247.232,"nearest_rail_station_km":7.99,"landcover_class":"grassland","poi_id":"OSM_natural_11964433155","nearest_bus_terminal_km":16.615,"nearest_river_distance_m":900.4,"access_mode_status":"ROUTABLE_ROAD","thesis_subtype":"LANDSCAPE_SCENERY","terrain_context":"FOOTHILL","rayon_id":"AZE_ADM2_54616110B36354954300290","slope_deg":2.712,"inside_protected_area":false,"elevation_zone":"200_500_M","osm_route_status":"OK","label":"Ağ Təpə Ağstafa","osm_route_distance_km":19.596,"verification_status":"OSM_ONLY","nearest_airport_km":81.133,"source_role":"PHASE3C_VALIDATION","elevation_m":293.07,"nearest_protected_area":"Türyançay Qoruğu","osm_drive_time_min":23.0,"name_az":"Ağ Təpə Ağstafa","display_rank":44,"source_primary":"OSM Geofabrik Azerbaijan snapshot","rayon":"Ağstafa rayonu","thesis_group":"NATURAL_RESOURCES","icon_id":"natural_viewpoint"},"geometry":{"type":"Point","coordinates":[45.528786800000006,41.157299800000004]}},{"type":"Feature","properties":{"coastal_distance_km":188.18,"nearest_rail_station_km":2.572,"landcover_class":"shrubland","poi_id":"OSM_cultural_10700276683","nearest_bus_terminal_km":68.806,"nearest_river_distance_m":1286.0,"access_mode_status":"ROUTABLE_ROAD","thesis_subtype":"MOSQUE_RELIGIOUS","terrain_context":"FOOTHILL","rayon_id":"AZE_ADM2_54616110B71765796178707","slope_deg":0.729,"inside_protected_area":false,"elevation_zone":"200_500_M","osm_route_status":"OK","label":"Ağdam Cümə Məscidi","osm_route_distance_km":15.641,"verification_status":"OSM_ONLY","nearest_airport_km":50.161,"source_role":"PHASE3C_VALIDATION","elevation_m":367.53,"nearest_protected_area":"Ağ Göl Milli Parkı","osm_drive_time_min":17.2,"name_az":"Ağdam Cümə Məscidi","display_rank":757,"source_primary":"OSM Geofabrik Azerbaijan snapshot","rayon":"Ağdam rayonu","thesis_group":"HISTORICAL_CULTURAL","icon_id":"cultural_mosque"},"geometry":{"type":"Point","coordinates":[46.9316242,39.993265300000004]}},{"type":"Feature","properties":{"coastal_distance_km":3.173,"nearest_rail_station_km":94.025,"landcover_class":"herbaceous_wetland","poi_id":"OSM_natural_11827412","nearest_bus_terminal_km":45.833,"nearest_river_distance_m":1155.0,"access_mode_status":"ROUTABLE_ROAD","thesis_subtype":"COASTAL_WATER","terrain_context":"LAKE_SHORE","rayon_id":"AZE_ADM2_54616110B33183266084070","slope_deg":0.093,"inside_protected_area":false,"elevation_zone":"BELOW_SEA_LEVEL","osm_route_status":"UNREACHABLE","label":"Ağzıbirçala gölü","verification_status":"OSM_ONLY","nearest_airport_km":120.767,"source_role":"PHASE3C_VALIDATION","elevation_m":-24.55,"name_az":"Ağzıbirçala gölü","display_rank":30,"source_primary":"OSM Geofabrik Azerbaijan snapshot","rayon":"Şabran rayonu","thesis_group":"NATURAL_RESOURCES","icon_id":"natural_waterfall"},"geometry":{"type":"Point","coordinates":[49.08753117632859,41.27798199328115]}},{"type":"Feature","properties":{"coastal_distance_km":199.824,"nearest_rail_station_km":121.11,"poi_id":"OSM_natural_10555164045","nearest_bus_terminal_km":42.768,"nearest_river_distance_m":8247.7,"access_mode_status":"ROUTABLE_ROAD","thesis_subtype":"LANDSCAPE_SCENERY","terrain_context":"LOWLAND","rayon_id":"AZE_ADM2_54616110B64107713492867","slope_deg":0.0,"inside_protected_area":false,"elevation_zone":"0_200_M","osm_route_status":"OK","label":"Bartaz","osm_route_distance_km":42.97,"verification_status":"OSM_ONLY","nearest_airport_km":25.999,"source_role":"PHASE3C_VALIDATION","nearest_river":"Aras","elevation_m":0.0,"nearest_protected_area":"Սև լիճ արգելավայր","osm_drive_time_min":39.9,"name_az":"Bartaz","display_rank":17,"source_primary":"OSM Geofabrik Azerbaijan snapshot","rayon":"Zəngilan rayonu","thesis_group":"NATURAL_RESOURCES","icon_id":"natural_viewpoint"},"geometry":{"type":"Point","coordinates":[46.5079286,38.961486]}},{"type":"Feature","properties":{"coastal_distance_km":268.518,"nearest_rail_station_km":113.731,"landcover_class":"tree_cover","poi_id":"OSM_food_beverage_10012960343","nearest_bus_terminal_km":72.092,"nearest_river_distance_m":7358.0,"access_mode_status":"ROUTABLE_ROAD","thesis_subtype":"RESTAURANT","terrain_context":"FOREST","rayon_id":"AZE_ADM2_54616110B68105682916253","slope_deg":8.044,"inside_protected_area":false,"elevation_zone":"1000_2000_M","osm_route_status":"OK","label":"Batabat restoranı","osm_route_distance_km":19.141,"verification_status":"OSM_ONLY","nearest_airport_km":46.92,"source_role":"PHASE3C_VALIDATION","elevation_m":1986.11,"nearest_protected_area":"Սև լիճ արգելավայր","osm_drive_time_min":14.4,"name_az":"Batabat restoranı","display_rank":2465,"source_primary":"OSM Geofabrik Azerbaijan snapshot","rayon":"Şahbuz rayonu","thesis_group":"FOOD_BEVERAGE","icon_id":"food_restaurant"},"geometry":{"type":"Point","coordinates":[45.779537600000005,39.528372000000005]}},{"type":"Feature","properties":{"coastal_distance_km":90.619,"nearest_rail_station_km":46.327,"landcover_class":"bare_or_sparse_vegetation","poi_id":"OSM_natural_1912476552","nearest_bus_terminal_km":54.136,"nearest_river_distance_m":4079.4,"access_mode_status":"NO_ROUTABLE_ACCESS","official_status":"official Azerbaijan.travel regional/destination content matched","thesis_subtype":"LANDSCAPE_SCENERY","terrain_context":"LOWLAND","rayon_id":"AZE_ADM2_54616110B21517829058101","semantic_source_url":"https://azerbaijan.travel/trip-to-gusar;https://azerbaijan.travel/storage/pages/231/9654583b-e287-43be-93dc-4442fc8cbbe4.pdf","slope_deg":84.252,"inside_protected_area":false,"elevation_zone":"0_200_M","osm_route_status":"UNREACHABLE","label":"Bazardüzü","verification_status":"CROSS_VERIFIED","nearest_airport_km":46.544,"source_role":"PHASE3C_VALIDATION","nearest_river":"Bumçay","elevation_m":0.0,"nearest_protected_area":"Türyançay Qoruğu","source_secondary":"https://azerbaijan.travel/trip-to-gusar;https://azerbaijan.travel/storage/pages/231/9654583b-e287-43be-93dc-4442fc8cbbe4.pdf","name_az":"Bazardüzü","official_evidence_source":"official Azerbaijan.travel regional/destination content matched","display_rank":1,"source_primary":"OSM Geofabrik Azerbaijan snapshot","rayon":"Qusar rayonu","thesis_group":"NATURAL_RESOURCES","icon_id":"natural_viewpoint"},"geometry":{"type":"Point","coordinates":[47.8581573,41.2207625]}},{"type":"Feature","properties":{"coastal_distance_km":186.221,"nearest_rail_station_km":25.152,"landcover_class":"tree_cover","poi_id":"OSM_natural_12064946834","nearest_bus_terminal_km":90.493,"nearest_river_distance_m":1426.5,"access_mode_status":"ROUTABLE_ROAD","thesis_subtype":"LANDSCAPE_SCENERY","terrain_context":"FOREST","rayon_id":"AZE_ADM2_54616110B87325868620163","slope_deg":19.383,"inside_protected_area":false,"elevation_zone":"1000_2000_M","osm_route_status":"OK","label":"Bovurxan Dağı","osm_route_distance_km":22.14,"verification_status":"OSM_ONLY","nearest_airport_km":37.956,"source_role":"PHASE3C_VALIDATION","nearest_river":"Xançay","elevation_m":1363.58,"nearest_protected_area":"Սև լիճ արգելավայր","osm_drive_time_min":20.0,"name_az":"Bovurxan Dağı","display_rank":48,"source_primary":"OSM Geofabrik Azerbaijan snapshot","rayon":"Xocalı rayonu","thesis_group":"NATURAL_RESOURCES","icon_id":"natural_viewpoint"},"geometry":{"type":"Point","coordinates":[46.8397706,39.787966600000004]}},{"type":"Feature","properties":{"coastal_distance_km":261.309,"nearest_rail_station_km":38.024,"landcover_class":"tree_cover","poi_id":"OSM_natural_11934446142","nearest_bus_terminal_km":4.932,"nearest_river_distance_m":1833.3,"access_mode_status":"GRAPH_DISCONNECTED","thesis_subtype":"CLIMATIC_HEALTH","terrain_context":"FOREST","rayon_id":"AZE_ADM2_54616110B46799199998097","slope_deg":11.195,"inside_protected_area":false,"elevation_zone":"1000_2000_M","osm_route_status":"UNREACHABLE","label":"Bulaq","verification_status":"OSM_ONLY","nearest_airport_km":43.717,"source_role":"PHASE3C_VALIDATION","nearest_river":"Gədəbəyçay","elevation_m":1724.89,"nearest_protected_area":"Սև լիճ արգելավայր","name_az":"Bulaq","display_rank":37,"source_primary":"OSM Geofabrik Azerbaijan snapshot","rayon":"Gədəbəy rayonu","thesis_group":"NATURAL_RESOURCES","icon_id":"natural_climatic"},"geometry":{"type":"Point","coordinates":[45.8593654,40.5533025]}},{"type":"Feature","properties":{"coastal_distance_km":1.446,"nearest_rail_station_km":200.346,"landcover_class":"built_up","poi_id":"OSM_cultural_10050568200","nearest_bus_terminal_km":166.603,"nearest_river_distance_m":728.7,"access_mode_status":"ROUTABLE_ROAD","thesis_subtype":"MOSQUE_RELIGIOUS","terrain_context":"URBAN","rayon_id":"AZE_ADM2_54616110B92317303093203","slope_deg":0.196,"inside_protected_area":false,"elevation_zone":"BELOW_SEA_LEVEL","osm_route_status":"OK","label":"Böyük Bazar məscidi","osm_route_distance_km":1.254,"verification_status":"OSM_ONLY","nearest_airport_km":3.062,"source_role":"PHASE3C_VALIDATION","nearest_river":"Lənkəran","elevation_m":-16.41,"nearest_protected_area":"Qızıl Ağac Dövlət Təbiət Qoruqu","osm_drive_time_min":1.4,"name_az":"Böyük Bazar məscidi","display_rank":700,"source_primary":"OSM Geofabrik Azerbaijan snapshot","rayon":"Lənkəran şəhəri","thesis_group":"HISTORICAL_CULTURAL","icon_id":"cultural_mosque"},"geometry":{"type":"Point","coordinates":[48.8470419,38.751577100000006]}},{"type":"Feature","properties":{"coastal_distance_km":8.881,"nearest_rail_station_km":53.589,"landcover_class":"grassland","poi_id":"OSM_natural_12145758961","nearest_bus_terminal_km":50.609,"nearest_river_distance_m":5041.9,"access_mode_status":"ROUTABLE_ROAD","thesis_subtype":"LANDSCAPE_SCENERY","terrain_context":"MOUNTAIN","rayon_id":"AZE_ADM2_54616110B9592293002412","slope_deg":15.932,"inside_protected_area":false,"elevation_zone":"500_1000_M","osm_route_status":"OK","label":"Bəybeyim Dağı","osm_route_distance_km":33.045,"verification_status":"OSM_ONLY","nearest_airport_km":84.036,"source_role":"PHASE3C_VALIDATION","nearest_river":"Taxtakörpü-Ceyranbatan kanalı","elevation_m":855.91,"osm_drive_time_min":40.2,"name_az":"Bəybeyim Dağı","display_rank":123,"source_primary":"OSM Geofabrik Azerbaijan snapshot","rayon":"Siyəzən rayonu","thesis_group":"NATURAL_RESOURCES","icon_id":"natural_viewpoint"},"geometry":{"type":"Point","coordinates":[49.222210700000005,40.894114300000005]}},{"type":"Feature","properties":{"coastal_distance_km":239.151,"nearest_rail_station_km":27.509,"landcover_class":"grassland","poi_id":"OSM_natural_6701029614","nearest_bus_terminal_km":13.385,"nearest_river_distance_m":4362.7,"access_mode_status":"ROUTABLE_ROAD","official_status":"official Azerbaijan.travel regional/destination content matched","thesis_subtype":"LANDSCAPE_SCENERY","terrain_context":"HIGH_MOUNTAIN","rayon_id":"AZE_ADM2_54616110B13615645655589","semantic_source_url":"https://azerbaijan.travel/regional-maps","slope_deg":5.326,"inside_protected_area":false,"elevation_zone":"2000_3000_M","osm_route_status":"OK","label":"Cavad Xan yüksəkliyi \\ Göygöl rayonu","osm_route_distance_km":19.138,"verification_status":"OFFICIAL_VERIFIED","nearest_airport_km":29.338,"source_role":"PHASE3C_VALIDATION","nearest_river":"Kürəkçay","elevation_m":2061.64,"nearest_protected_area":"Türyançay Qoruğu","osm_drive_time_min":21.4,"source_secondary":"https://azerbaijan.travel/regional-maps","name_az":"Cavad Xan yüksəkliyi \\ Göygöl rayonu","official_evidence_source":"official Azerbaijan.travel regional/destination content matched","display_rank":8,"source_primary":"OSM Geofabrik Azerbaijan snapshot","rayon":"Göygöl rayonu","thesis_group":"NATURAL_RESOURCES","icon_id":"natural_viewpoint"},"geometry":{"type":"Point","coordinates":[46.292945800000005,40.4730908]}},{"type":"Feature","properties":{"coastal_distance_km":41.965,"nearest_rail_station_km":89.066,"landcover_class":"built_up","poi_id":"OSM_cultural_11077516114","nearest_bus_terminal_km":3.204,"nearest_river_distance_m":407.2,"access_mode_status":"GRAPH_DISCONNECTED","thesis_subtype":"ARCHITECTURAL_MONUMENT","terrain_context":"URBAN","rayon_id":"AZE_ADM2_54616110B21517829058101","slope_deg":4.217,"inside_protected_area":false,"elevation_zone":"500_1000_M","osm_route_status":"UNREACHABLE","label":"Ceyran Abidəsi","verification_status":"OSM_ONLY","nearest_airport_km":88.195,"source_role":"PHASE3C_VALIDATION","nearest_river":"Qusarçay","elevation_m":710.58,"nearest_protected_area":"Türyançay Qoruğu","name_az":"Ceyran Abidəsi","display_rank":808,"source_primary":"OSM Geofabrik Azerbaijan snapshot","rayon":"Qusar rayonu","thesis_group":"HISTORICAL_CULTURAL","icon_id":"cultural_monument"},"geometry":{"type":"Point","coordinates":[48.4105548,41.4140515]}},{"type":"Feature","properties":{"coastal_distance_km":38.751,"nearest_rail_station_km":91.24,"landcover_class":"built_up","poi_id":"OSM_cultural_5933384088","nearest_bus_terminal_km":3.46,"nearest_river_distance_m":2206.6,"access_mode_status":"GRAPH_DISCONNECTED","official_status":"official Azerbaijan.travel regional/destination content matched","thesis_subtype":"OTHER_CULTURAL","terrain_context":"LAKE_SHORE","heritage_source_url":"https://azerbaijan.travel/storage/pages/231/9654583b-e287-43be-93dc-4442fc8cbbe4.pdf","rayon_id":"AZE_ADM2_54616110B77048085748362","semantic_source_url":"https://azerbaijan.travel/storage/pages/231/9654583b-e287-43be-93dc-4442fc8cbbe4.pdf","slope_deg":3.138,"inside_protected_area":false,"elevation_zone":"500_1000_M","osm_route_status":"UNREACHABLE","label":"Cümə Məscidi","verification_status":"OFFICIAL_VERIFIED","nearest_airport_km":90.119,"source_role":"PHASE3C_VALIDATION","elevation_m":599.22,"nearest_protected_area":"Türyançay Qoruğu","source_secondary":"https://azerbaijan.travel/storage/pages/231/9654583b-e287-43be-93dc-4442fc8cbbe4.pdf","name_az":"Cümə Məscidi","official_evidence_source":"official Azerbaijan.travel regional/destination content matched","display_rank":13,"source_primary":"OSM Geofabrik Azerbaijan snapshot","rayon":"Quba rayonu","thesis_group":"HISTORICAL_CULTURAL","icon_id":"cultural_historic"},"geometry":{"type":"Point","coordinates":[48.51212030000001,41.363195000000005]}},{"type":"Feature","properties":{"coastal_distance_km":106.013,"nearest_rail_station_km":82.301,"landcover_class":"cropland","poi_id":"OSM_food_beverage_8375249203","nearest_bus_terminal_km":97.627,"nearest_river_distance_m":391.4,"access_mode_status":"ROUTABLE_ROAD","thesis_subtype":"RESTAURANT","terrain_context":"RIVER_VALLEY","rayon_id":"AZE_ADM2_54616110B20470092766685","slope_deg":0.145,"inside_protected_area":false,"elevation_zone":"0_200_M","osm_route_status":"OK","label":"Emil Şadlıq Sarayı","osm_route_distance_km":26.283,"verification_status":"OSM_ONLY","nearest_airport_km":61.306,"source_role":"PHASE3C_VALIDATION","nearest_river":"Yuxarı Qarabağ Kanalı","elevation_m":17.98,"nearest_protected_area":"پارک جنگلی آزاد","osm_drive_time_min":22.5,"name_az":"Emil Şadlıq Sarayı","display_rank":4687,"source_primary":"OSM Geofabrik Azerbaijan snapshot","rayon":"Beyləqan rayonu","thesis_group":"FOOD_BEVERAGE","icon_id":"food_restaurant"},"geometry":{"type":"Point","coordinates":[47.8780693,39.768189]}},{"type":"Feature","properties":{"coastal_distance_km":203.794,"nearest_rail_station_km":18.444,"landcover_class":"grassland","poi_id":"OSM_natural_12139856301","nearest_bus_terminal_km":63.517,"nearest_river_distance_m":258.3,"access_mode_status":"ROUTABLE_ROAD","thesis_subtype":"LANDSCAPE_SCENERY","terrain_context":"RIVER_VALLEY","rayon_id":"AZE_ADM2_54616110B71765796178707","slope_deg":6.899,"inside_protected_area":false,"elevation_zone":"500_1000_M","osm_route_status":"OK","label":"Güzxran təpəsi","osm_route_distance_km":37.057,"verification_status":"OSM_ONLY","nearest_airport_km":36.913,"source_role":"PHASE3C_VALIDATION","nearest_river":"Xaçınçay","elevation_m":616.55,"nearest_protected_area":"Սև լիճ արգելավայր","osm_drive_time_min":45.1,"name_az":"Güzxran təpəsi","display_rank":112,"source_primary":"OSM Geofabrik Azerbaijan snapshot","rayon":"Ağdam rayonu","thesis_group":"NATURAL_RESOURCES","icon_id":"natural_viewpoint"},"geometry":{"type":"Point","coordinates":[46.750761100000005,40.0298527]}},{"type":"Feature","properties":{"coastal_distance_km":5.79,"nearest_rail_station_km":74.554,"landcover_class":"built_up","poi_id":"OSM_cultural_11251839988","nearest_bus_terminal_km":57.057,"nearest_river_distance_m":821.0,"access_mode_status":"ROUTABLE_ROAD","thesis_subtype":"MUSEUM","terrain_context":"URBAN","rayon_id":"AZE_ADM2_54616110B9592293002412","slope_deg":2.722,"inside_protected_area":false,"elevation_zone":"0_200_M","osm_route_status":"OK","label":"Heydər Əliyev Mərkəzi","osm_route_distance_km":9.142,"verification_status":"OSM_ONLY","nearest_airport_km":103.543,"source_role":"PHASE3C_VALIDATION","nearest_river":"Samur-Abşeron kanalı","elevation_m":61.45,"osm_drive_time_min":11.1,"name_az":"Heydər Əliyev Mərkəzi","display_rank":847,"source_primary":"OSM Geofabrik Azerbaijan snapshot","rayon":"Siyəzən rayonu","thesis_group":"HISTORICAL_CULTURAL","icon_id":"cultural_museum"},"geometry":{"type":"Point","coordinates":[49.1124165,41.0748059]}},{"type":"Feature","properties":{"coastal_distance_km":270.969,"nearest_rail_station_km":54.417,"landcover_class":"grassland","poi_id":"OSM_natural_11863196031","nearest_bus_terminal_km":22.203,"nearest_river_distance_m":2923.2,"access_mode_status":"NO_ROUTABLE_ACCESS","thesis_subtype":"LANDSCAPE_SCENERY","terrain_context":"HIGH_MOUNTAIN","rayon_id":"AZE_ADM2_54616110B88384638285498","slope_deg":6.493,"inside_protected_area":false,"elevation_zone":"2000_3000_M","osm_route_status":"UNREACHABLE","label":"Həsənnənə","verification_status":"OSM_ONLY","nearest_airport_km":53.111,"source_role":"PHASE3C_VALIDATION","nearest_river":"Şəmkirçay","elevation_m":2617.42,"nearest_protected_area":"Սև լիճ արգելավայր","name_az":"Həsənnənə","display_rank":34,"source_primary":"OSM Geofabrik Azerbaijan snapshot","rayon":"Daşkəsən rayonu","thesis_group":"NATURAL_RESOURCES","icon_id":"natural_viewpoint"},"geometry":{"type":"Point","coordinates":[45.8894241,40.386597900000005]}},{"type":"Feature","properties":{"coastal_distance_km":234.28,"nearest_rail_station_km":78.65,"landcover_class":"grassland","poi_id":"OSM_natural_11836974103","nearest_bus_terminal_km":78.739,"nearest_river_distance_m":11998.1,"access_mode_status":"ROUTABLE_ROAD","thesis_subtype":"LANDSCAPE_SCENERY","terrain_context":"ALPINE","rayon_id":"AZE_ADM2_54616110B46945931752574","slope_deg":82.418,"inside_protected_area":false,"elevation_zone":"OVER_3000_M","osm_route_status":"OK","label":"Kiçik İşıqlı","osm_route_distance_km":38.603,"verification_status":"OSM_ONLY","nearest_airport_km":34.46,"source_role":"PHASE3C_VALIDATION","elevation_m":3399.7,"nearest_protected_area":"Սև լիճ արգելավայր","osm_drive_time_min":57.2,"name_az":"Kiçik İşıqlı","display_rank":33,"source_primary":"OSM Geofabrik Azerbaijan snapshot","rayon":"Laçın rayonu","thesis_group":"NATURAL_RESOURCES","icon_id":"natural_viewpoint"},"geometry":{"type":"Point","coordinates":[46.1966364,39.6022897]}},{"type":"Feature","properties":{"coastal_distance_km":130.465,"nearest_rail_station_km":24.842,"landcover_class":"built_up","poi_id":"OSM_cultural_10837440946","nearest_bus_terminal_km":36.346,"nearest_river_distance_m":105.9,"access_mode_status":"ROUTABLE_ROAD","thesis_subtype":"MOSQUE_RELIGIOUS","terrain_context":"URBAN","rayon_id":"AZE_ADM2_54616110B99657283459996","slope_deg":0.615,"inside_protected_area":false,"elevation_zone":"200_500_M","osm_route_status":"OK","label":"Kərimli kənd Məscidi","osm_route_distance_km":16.244,"verification_status":"OSM_ONLY","nearest_airport_km":27.122,"source_role":"PHASE3C_VALIDATION","elevation_m":409.06,"nearest_protected_area":"Türyançay Qoruğu","osm_drive_time_min":21.4,"name_az":"Kərimli kənd Məscidi","display_rank":787,"source_primary":"OSM Geofabrik Azerbaijan snapshot","rayon":"Oğuz rayonu","thesis_group":"HISTORICAL_CULTURAL","icon_id":"cultural_mosque"},"geometry":{"type":"Point","coordinates":[47.4824059,40.9778164]}},{"type":"Feature","properties":{"coastal_distance_km":205.954,"nearest_rail_station_km":53.407,"landcover_class":"tree_cover","poi_id":"OSM_cultural_10702671044","nearest_bus_terminal_km":92.882,"nearest_river_distance_m":1162.8,"access_mode_status":"ROUTABLE_ROAD","thesis_subtype":"ARCHITECTURAL_MONUMENT","terrain_context":"FOREST","rayon_id":"AZE_ADM2_54616110B46945931752574","slope_deg":7.89,"inside_protected_area":false,"elevation_zone":"1000_2000_M","osm_route_status":"OK","label":"Laçın Dəmir Yumruq Abdidəsi","osm_route_distance_km":31.367,"verification_status":"OSM_ONLY","nearest_airport_km":31.556,"source_role":"PHASE3C_VALIDATION","nearest_river":"Həkəri","elevation_m":1062.02,"nearest_protected_area":"Սև լիճ արգելավայր","osm_drive_time_min":45.2,"name_az":"Laçın Dəmir Yumruq Abdidəsi","display_rank":758,"source_primary":"OSM Geofabrik Azerbaijan snapshot","rayon":"Laçın rayonu","thesis_group":"HISTORICAL_CULTURAL","icon_id":"cultural_monument"},"geometry":{"type":"Point","coordinates":[46.542728600000004,39.6377706]}},{"type":"Feature","properties":{"coastal_distance_km":243.56,"nearest_rail_station_km":58.687,"landcover_class":"grassland","poi_id":"OSM_natural_11450080443","nearest_bus_terminal_km":51.211,"nearest_river_distance_m":1516.9,"access_mode_status":"ROUTABLE_ROAD","thesis_subtype":"LANDSCAPE_SCENERY","terrain_context":"MOUNTAIN","rayon_id":"AZE_ADM2_54616110B37358032697149","slope_deg":37.173,"inside_protected_area":false,"elevation_zone":"1000_2000_M","osm_route_status":"UNREACHABLE","label":"Laçın qaya","verification_status":"OSM_ONLY","nearest_airport_km":27.822,"source_role":"PHASE3C_VALIDATION","nearest_river":"Tərtər çayı","elevation_m":1731.82,"nearest_protected_area":"Սև լիճ արգելավայր","name_az":"Laçın qaya","display_rank":28,"source_primary":"OSM Geofabrik Azerbaijan snapshot","rayon":"Kəlbəcər rayonu","thesis_group":"NATURAL_RESOURCES","icon_id":"natural_viewpoint"},"geometry":{"type":"Point","coordinates":[46.297259200000006,40.1308859]}},{"type":"Feature","properties":{"coastal_distance_km":128.519,"nearest_rail_station_km":22.002,"landcover_class":"shrubland","poi_id":"OSM_food_beverage_13877904288","nearest_bus_terminal_km":25.631,"nearest_river_distance_m":1428.0,"access_mode_status":"ROUTABLE_ROAD","thesis_subtype":"CAFE_TEAHOUSE","terrain_context":"LOWLAND","rayon_id":"AZE_ADM2_54616110B8701125158325","slope_deg":0.477,"inside_protected_area":false,"elevation_zone":"BELOW_SEA_LEVEL","osm_route_status":"OK","label":"Müsüslü Kafe","osm_route_distance_km":29.453,"verification_status":"OSM_ONLY","nearest_airport_km":43.583,"source_role":"PHASE3C_VALIDATION","elevation_m":-2.39,"nearest_protected_area":"Türyançay Qoruğu","osm_drive_time_min":33.9,"name_az":"Müsüslü Kafe","display_rank":3670,"source_primary":"OSM Geofabrik Azerbaijan snapshot","rayon":"Ucar rayonu","thesis_group":"FOOD_BEVERAGE","icon_id":"food_cafe"},"geometry":{"type":"Point","coordinates":[47.895328000000006,40.445028300000004]}},{"type":"Feature","properties":{"coastal_distance_km":17.225,"nearest_rail_station_km":66.887,"landcover_class":"built_up","poi_id":"OSM_cultural_11343316225","nearest_bus_terminal_km":28.667,"nearest_river_distance_m":740.8,"access_mode_status":"ROUTABLE_ROAD","thesis_subtype":"MOSQUE_RELIGIOUS","terrain_context":"URBAN","rayon_id":"AZE_ADM2_54616110B48173541517146","slope_deg":0.086,"inside_protected_area":false,"elevation_zone":"0_200_M","osm_route_status":"UNREACHABLE","label":"Məscid \\ Qızılburun","verification_status":"OSM_ONLY","nearest_airport_km":87.235,"source_role":"PHASE3C_VALIDATION","nearest_river":"Pirsaat kanalı","elevation_m":16.02,"name_az":"Məscid \\ Qızılburun","display_rank":864,"source_primary":"OSM Geofabrik Azerbaijan snapshot","rayon":"Hacıqabul rayonu","thesis_group":"HISTORICAL_CULTURAL","icon_id":"cultural_mosque"},"geometry":{"type":"Point","coordinates":[49.2228779,39.9984352]}},{"type":"Feature","properties":{"coastal_distance_km":186.783,"nearest_rail_station_km":37.277,"landcover_class":"tree_cover","poi_id":"OSM_natural_12147753524","nearest_bus_terminal_km":101.697,"nearest_river_distance_m":2488.7,"access_mode_status":"ROUTABLE_ROAD","thesis_subtype":"LANDSCAPE_SCENERY","terrain_context":"FOREST","rayon_id":"AZE_ADM2_54616110B49912296290484","slope_deg":10.173,"inside_protected_area":false,"elevation_zone":"1000_2000_M","osm_route_status":"OK","label":"Nəbi","osm_route_distance_km":41.582,"verification_status":"OSM_ONLY","nearest_airport_km":36.874,"source_role":"PHASE3C_VALIDATION","nearest_river":"Quruçay","elevation_m":1565.33,"nearest_protected_area":"Սև լիճ արգելավայր","osm_drive_time_min":41.8,"name_az":"Nəbi","display_rank":131,"source_primary":"OSM Geofabrik Azerbaijan snapshot","rayon":"Şuşa rayonu","thesis_group":"NATURAL_RESOURCES","icon_id":"natural_viewpoint"},"geometry":{"type":"Point","coordinates":[46.7896343,39.6856864]}},{"type":"Feature","properties":{"coastal_distance_km":277.277,"nearest_rail_station_km":17.37,"landcover_class":"tree_cover","poi_id":"OSM_natural_11973647126","nearest_bus_terminal_km":18.699,"nearest_river_distance_m":3723.0,"access_mode_status":"ROUTABLE_ROAD","thesis_subtype":"LANDSCAPE_SCENERY","terrain_context":"FOREST","rayon_id":"AZE_ADM2_54616110B43488292017990","slope_deg":11.724,"inside_protected_area":false,"elevation_zone":"1000_2000_M","osm_route_status":"OK","label":"Odundağ","osm_route_distance_km":21.112,"verification_status":"OSM_ONLY","nearest_airport_km":107.628,"source_role":"PHASE3C_VALIDATION","nearest_river":"Əskipara","elevation_m":1207.9,"nearest_protected_area":"Türyançay Qoruğu","osm_drive_time_min":31.7,"name_az":"Odundağ","display_rank":47,"source_primary":"OSM Geofabrik Azerbaijan snapshot","rayon":"Qazax rayonu","thesis_group":"NATURAL_RESOURCES","icon_id":"natural_viewpoint"},"geometry":{"type":"Point","coordinates":[45.1295681,41.0951352]}},{"type":"Feature","properties":{"coastal_distance_km":190.429,"nearest_rail_station_km":33.148,"landcover_class":"tree_cover","poi_id":"OSM_natural_12187284566","nearest_bus_terminal_km":96.026,"nearest_river_distance_m":1018.8,"access_mode_status":"ROUTABLE_ROAD","thesis_subtype":"LANDSCAPE_SCENERY","terrain_context":"FOREST","rayon_id":"AZE_ADM2_54616110B73470411147872","slope_deg":13.975,"inside_protected_area":false,"elevation_zone":"1000_2000_M","osm_route_status":"OK","label":"Pənahabad dağı","osm_route_distance_km":3.765,"verification_status":"OSM_ONLY","nearest_airport_km":38.291,"source_role":"PHASE3C_VALIDATION","nearest_river":"Daşaltı çayı","elevation_m":1485.93,"nearest_protected_area":"Սև լիճ արգելավայր","osm_drive_time_min":5.3,"name_az":"Pənahabad dağı","display_rank":162,"source_primary":"OSM Geofabrik Azerbaijan snapshot","rayon":"Şuşa şəhəri","thesis_group":"NATURAL_RESOURCES","icon_id":"natural_viewpoint"},"geometry":{"type":"Point","coordinates":[46.7653229,39.736766700000004]}},{"type":"Feature","properties":{"coastal_distance_km":101.243,"nearest_rail_station_km":46.776,"landcover_class":"shrubland","poi_id":"OSM_cultural_11244490968","nearest_bus_terminal_km":28.469,"nearest_river_distance_m":370.1,"access_mode_status":"ROUTABLE_ROAD","thesis_subtype":"MOSQUE_RELIGIOUS","terrain_context":"RIVER_VALLEY","rayon_id":"AZE_ADM2_54616110B12323901372431","slope_deg":0.662,"inside_protected_area":false,"elevation_zone":"0_200_M","osm_route_status":"UNREACHABLE","label":"Qasımbəyli Məscidi","verification_status":"OSM_ONLY","nearest_airport_km":51.16,"source_role":"PHASE3C_VALIDATION","nearest_river":"Girdimançay","elevation_m":65.89,"nearest_protected_area":"Türyançay Qoruğu","name_az":"Qasımbəyli Məscidi","display_rank":845,"source_primary":"OSM Geofabrik Azerbaijan snapshot","rayon":"Ağsu rayonu","thesis_group":"HISTORICAL_CULTURAL","icon_id":"cultural_mosque"},"geometry":{"type":"Point","coordinates":[48.200867800000005,40.533152]}},{"type":"Feature","properties":{"coastal_distance_km":9.486,"nearest_rail_station_km":43.704,"landcover_class":"bare_or_sparse_vegetation","poi_id":"OSM_cultural_3597718893","nearest_bus_terminal_km":9.403,"nearest_river_distance_m":156.3,"access_mode_status":"ROUTABLE_ROAD","official_status":"official Azerbaijan.travel regional/destination content matched","thesis_subtype":"ARCHAEOLOGICAL_SITE","terrain_context":"RIVER_VALLEY","heritage_source_url":"https://whc.unesco.org/en/statesparties/az","rayon_id":"AZE_ADM2_54616110B88432173472444","semantic_source_url":"https://azerbaijan.travel/heritage-sites","slope_deg":1.221,"inside_protected_area":false,"elevation_zone":"0_200_M","osm_route_status":"OK","label":"Qaval Daşı \\ Qobustan 2","osm_route_distance_km":29.581,"verification_status":"OFFICIAL_VERIFIED","nearest_airport_km":65.849,"source_role":"PHASE3C_VALIDATION","elevation_m":47.79,"osm_drive_time_min":44.0,"source_secondary":"https://azerbaijan.travel/heritage-sites","name_az":"Qaval Daşı \\ Qobustan 2","official_evidence_source":"official Azerbaijan.travel regional/destination content matched","display_rank":11,"source_primary":"OSM Geofabrik Azerbaijan snapshot","rayon":"Abşeron rayonu","thesis_group":"HISTORICAL_CULTURAL","icon_id":"cultural_archaeology"},"geometry":{"type":"Point","coordinates":[49.3631255,40.1857032]}},{"type":"Feature","properties":{"coastal_distance_km":4.73,"nearest_rail_station_km":48.662,"landcover_class":"grassland","poi_id":"OSM_cultural_244398416","nearest_bus_terminal_km":10.367,"nearest_river_distance_m":3240.1,"access_mode_status":"ROUTABLE_ROAD","official_status":"official Azerbaijan.travel regional/destination content matched","thesis_subtype":"OTHER_CULTURAL","terrain_context":"LOWLAND","heritage_source_url":"https://whc.unesco.org/en/statesparties/az","rayon_id":"AZE_ADM2_54616110B61947743987915","semantic_source_url":"https://azerbaijan.travel/heritage-sites","slope_deg":11.331,"inside_protected_area":true,"elevation_zone":"0_200_M","osm_route_status":"OK","label":"Qobustan Dövlət Qoruğu","osm_route_distance_km":50.838,"verification_status":"OFFICIAL_VERIFIED","nearest_airport_km":69.07,"source_role":"PHASE3C_VALIDATION","elevation_m":122.48,"nearest_protected_area":"Qobustan Dövlət Qoruğu","osm_drive_time_min":38.7,"source_secondary":"https://azerbaijan.travel/heritage-sites","name_az":"Qobustan Dövlət Qoruğu","official_evidence_source":"official Azerbaijan.travel regional/destination content matched","display_rank":10,"source_primary":"OSM Geofabrik Azerbaijan snapshot","rayon":"Bakı şəhəri","thesis_group":"HISTORICAL_CULTURAL","icon_id":"cultural_historic"},"geometry":{"type":"Point","coordinates":[49.378801200000005,40.1117402]}},{"type":"Feature","properties":{"coastal_distance_km":52.741,"nearest_rail_station_km":63.765,"landcover_class":"built_up","poi_id":"OSM_cultural_7668072238","nearest_bus_terminal_km":25.29,"nearest_river_distance_m":7019.0,"access_mode_status":"ROUTABLE_ROAD","official_status":"official Azerbaijan.travel regional/destination content matched","thesis_subtype":"MOSQUE_RELIGIOUS","terrain_context":"LAKE_SHORE","heritage_source_url":"https://azerbaijan.travel/heritage-sites","rayon_id":"AZE_ADM2_54616110B43271825035432","semantic_source_url":"https://azerbaijan.travel/heritage-sites","slope_deg":4.254,"inside_protected_area":false,"elevation_zone":"500_1000_M","osm_route_status":"OK","label":"Qobustan Mərəzə Cümə məscidi","osm_route_distance_km":1.447,"verification_status":"OFFICIAL_VERIFIED","nearest_airport_km":94.768,"source_role":"PHASE3C_VALIDATION","nearest_river":"Ceyrankeçməz","elevation_m":777.56,"osm_drive_time_min":1.7,"source_secondary":"https://azerbaijan.travel/heritage-sites","name_az":"Qobustan Mərəzə Cümə məscidi","official_evidence_source":"official Azerbaijan.travel regional/destination content matched","display_rank":14,"source_primary":"OSM Geofabrik Azerbaijan snapshot","rayon":"Qobustan rayonu","thesis_group":"HISTORICAL_CULTURAL","icon_id":"cultural_mosque"},"geometry":{"type":"Point","coordinates":[48.929353000000006,40.5335739]}},{"type":"Feature","properties":{"coastal_distance_km":295.825,"nearest_rail_station_km":159.379,"landcover_class":"built_up","poi_id":"OSM_accommodation_3298027368","nearest_bus_terminal_km":61.544,"nearest_river_distance_m":1440.5,"access_mode_status":"ROUTABLE_ROAD","thesis_subtype":"HOTEL_RESORT","terrain_context":"URBAN","rayon_id":"AZE_ADM2_54616110B79262118902245","slope_deg":0.666,"inside_protected_area":false,"elevation_zone":"500_1000_M","osm_route_status":"OK","label":"Qrand Naxçıvan Oteli","osm_route_distance_km":2.253,"verification_status":"OSM_ONLY","nearest_airport_km":3.963,"source_role":"PHASE3C_VALIDATION","nearest_river":"Naxçıvan çayı","elevation_m":874.7,"nearest_protected_area":"Սև լիճ արգելավայր","osm_drive_time_min":1.6,"name_az":"Qrand Naxçıvan Oteli","display_rank":2233,"source_primary":"OSM Geofabrik Azerbaijan snapshot","rayon":"Naxçıvan şəhəri","thesis_group":"ACCOMMODATION","icon_id":"accommodation_resort"},"geometry":{"type":"Point","coordinates":[45.4162046,39.199511900000005]}},{"type":"Feature","properties":{"coastal_distance_km":75.437,"nearest_rail_station_km":59.057,"landcover_class":"built_up","poi_id":"OSM_cultural_10961258489","nearest_bus_terminal_km":18.804,"nearest_river_distance_m":110.0,"access_mode_status":"ROUTABLE_ROAD","thesis_subtype":"ARCHAEOLOGICAL_SITE","terrain_context":"URBAN","rayon_id":"AZE_ADM2_54616110B45290451128830","slope_deg":11.229,"inside_protected_area":false,"elevation_zone":"1000_2000_M","osm_route_status":"UNREACHABLE","label":"Qədim Xarabalıq","verification_status":"OSM_ONLY","nearest_airport_km":56.67,"source_role":"PHASE3C_VALIDATION","elevation_m":1112.03,"nearest_protected_area":"Türyançay Qoruğu","name_az":"Qədim Xarabalıq","display_rank":797,"source_primary":"OSM Geofabrik Azerbaijan snapshot","rayon":"İsmayıllı rayonu","thesis_group":"HISTORICAL_CULTURAL","icon_id":"cultural_archaeology"},"geometry":{"type":"Point","coordinates":[48.3888703,40.7569822]}},{"type":"Feature","properties":{"coastal_distance_km":2.139,"nearest_rail_station_km":3.014,"landcover_class":"built_up","poi_id":"OSM_accommodation_10243018956","nearest_bus_terminal_km":0.139,"nearest_river_distance_m":3530.4,"access_mode_status":"ROUTABLE_ROAD","thesis_subtype":"HOTEL_RESORT","terrain_context":"LAKE_SHORE","rayon_id":"AZE_ADM2_54616110B75219613739908","slope_deg":0.268,"inside_protected_area":false,"elevation_zone":"BELOW_SEA_LEVEL","osm_route_status":"OK","label":"Sülh Plaza Sumqayıt","osm_route_distance_km":4.897,"verification_status":"OSM_ONLY","nearest_airport_km":34.644,"source_role":"PHASE3C_VALIDATION","elevation_m":-10.35,"osm_drive_time_min":3.8,"name_az":"Sülh Plaza Sumqayıt","display_rank":2103,"source_primary":"OSM Geofabrik Azerbaijan snapshot","rayon":"Sumqayıt şəhəri","thesis_group":"ACCOMMODATION","icon_id":"accommodation_resort"},"geometry":{"type":"Point","coordinates":[49.6649703,40.5852577]}},{"type":"Feature","properties":{"coastal_distance_km":213.278,"nearest_rail_station_km":26.406,"landcover_class":"tree_cover","poi_id":"OSM_natural_12245012003","nearest_bus_terminal_km":44.314,"nearest_river_distance_m":1251.9,"access_mode_status":"ROUTABLE_ROAD","thesis_subtype":"LANDSCAPE_SCENERY","terrain_context":"FOREST","rayon_id":"AZE_ADM2_54616110B79809370995070","slope_deg":3.946,"inside_protected_area":false,"elevation_zone":"500_1000_M","osm_route_status":"OK","label":"Tağ dağı","osm_route_distance_km":19.634,"verification_status":"OSM_ONLY","nearest_airport_km":48.237,"source_role":"PHASE3C_VALIDATION","nearest_river":"Farfar çayı","elevation_m":998.7,"nearest_protected_area":"Ağ Göl Milli Parkı","osm_drive_time_min":23.2,"name_az":"Tağ dağı","display_rank":172,"source_primary":"OSM Geofabrik Azerbaijan snapshot","rayon":"Tərtər rayonu","thesis_group":"NATURAL_RESOURCES","icon_id":"natural_viewpoint"},"geometry":{"type":"Point","coordinates":[46.747103,40.2030979]}},{"type":"Feature","properties":{"coastal_distance_km":251.387,"nearest_rail_station_km":2.343,"landcover_class":"tree_cover","poi_id":"OSM_cultural_10164838","nearest_bus_terminal_km":1.745,"nearest_river_distance_m":246.7,"access_mode_status":"ROUTABLE_ROAD","thesis_subtype":"ARCHITECTURAL_MONUMENT","terrain_context":"LAKE_SHORE","rayon_id":"AZE_ADM2_54616110B84187356839814","slope_deg":6.851,"inside_protected_area":false,"elevation_zone":"200_500_M","osm_route_status":"UNREACHABLE","label":"Tovuz Qalası","verification_status":"OSM_ONLY","nearest_airport_km":63.206,"source_role":"PHASE3C_VALIDATION","nearest_river":"Tovuzçay","elevation_m":387.3,"nearest_protected_area":"Türyançay Qoruğu","name_az":"Tovuz Qalası","display_rank":715,"source_primary":"OSM Geofabrik Azerbaijan snapshot","rayon":"Tovuz rayonu","thesis_group":"HISTORICAL_CULTURAL","icon_id":"cultural_monument"},"geometry":{"type":"Point","coordinates":[45.64246191418697,40.98556013076503]}},{"type":"Feature","properties":{"coastal_distance_km":102.575,"nearest_rail_station_km":28.517,"landcover_class":"tree_cover","poi_id":"OSM_accommodation_4478364290","nearest_bus_terminal_km":36.076,"nearest_river_distance_m":77.1,"access_mode_status":"ROUTABLE_ROAD","official_status":"official Azerbaijan.travel regional/destination content matched","thesis_subtype":"HOTEL_RESORT","terrain_context":"LAKE_SHORE","rayon_id":"AZE_ADM2_54616110B33746839775993","semantic_source_url":"https://azerbaijan.travel/trip-to-gabala","slope_deg":15.985,"inside_protected_area":false,"elevation_zone":"1000_2000_M","osm_route_status":"OK","label":"Tufan Dağ Xizək - Durca","osm_route_distance_km":13.578,"verification_status":"OFFICIAL_VERIFIED","nearest_airport_km":28.021,"source_role":"PHASE3C_VALIDATION","elevation_m":1257.68,"nearest_protected_area":"Türyançay Qoruğu","osm_drive_time_min":16.2,"source_secondary":"https://azerbaijan.travel/trip-to-gabala","name_az":"Tufan Dağ Xizək - Durca","official_evidence_source":"official Azerbaijan.travel regional/destination content matched","display_rank":15,"source_primary":"OSM Geofabrik Azerbaijan snapshot","rayon":"Qəbələ rayonu","thesis_group":"ACCOMMODATION","icon_id":"accommodation_resort"},"geometry":{"type":"Point","coordinates":[47.8882325,41.0330353]}},{"type":"Feature","properties":{"coastal_distance_km":38.734,"nearest_rail_station_km":85.796,"landcover_class":"built_up","poi_id":"OSM_accommodation_12950347500","nearest_bus_terminal_km":49.348,"nearest_river_distance_m":2859.0,"access_mode_status":"ROUTABLE_ROAD","thesis_subtype":"MOTEL","terrain_context":"URBAN","rayon_id":"AZE_ADM2_54616110B48173541517146","slope_deg":0.727,"inside_protected_area":false,"elevation_zone":"0_200_M","osm_route_status":"OK","label":"Təbəssüm Motel","osm_route_distance_km":21.182,"verification_status":"OSM_ONLY","nearest_airport_km":107.903,"source_role":"PHASE3C_VALIDATION","nearest_river":"Bash Shirvan Canal","elevation_m":8.5,"osm_drive_time_min":25.4,"name_az":"Təbəssüm Motel","display_rank":2161,"source_primary":"OSM Geofabrik Azerbaijan snapshot","rayon":"Hacıqabul rayonu","thesis_group":"ACCOMMODATION","icon_id":"accommodation_motel"},"geometry":{"type":"Point","coordinates":[48.959599000000004,39.965464100000005]}},{"type":"Feature","properties":{"coastal_distance_km":251.788,"nearest_rail_station_km":1.294,"landcover_class":"tree_cover","poi_id":"OSM_natural_11833691826","nearest_bus_terminal_km":0.654,"nearest_river_distance_m":1356.2,"access_mode_status":"ROUTABLE_ROAD","thesis_subtype":"CLIMATIC_HEALTH","terrain_context":"FOREST","rayon_id":"AZE_ADM2_54616110B84187356839814","slope_deg":0.857,"inside_protected_area":false,"elevation_zone":"200_500_M","osm_route_status":"UNREACHABLE","label":"Vüqar Bulağı","verification_status":"OSM_ONLY","nearest_airport_km":64.306,"source_role":"PHASE3C_VALIDATION","nearest_river":"Tovuzçay","elevation_m":418.12,"nearest_protected_area":"Türyançay Qoruğu","name_az":"Vüqar Bulağı","display_rank":32,"source_primary":"OSM Geofabrik Azerbaijan snapshot","rayon":"Tovuz rayonu","thesis_group":"NATURAL_RESOURCES","icon_id":"natural_climatic"},"geometry":{"type":"Point","coordinates":[45.6321377,40.992126400000004]}},{"type":"Feature","properties":{"coastal_distance_km":124.015,"nearest_rail_station_km":19.823,"landcover_class":"grassland","poi_id":"OSM_cultural_11222943762","nearest_bus_terminal_km":6.229,"nearest_river_distance_m":2845.4,"access_mode_status":"GRAPH_DISCONNECTED","thesis_subtype":"OTHER_CULTURAL","terrain_context":"HIGH_MOUNTAIN","rayon_id":"AZE_ADM2_54616110B25010354244926","slope_deg":13.669,"inside_protected_area":false,"elevation_zone":"2000_3000_M","osm_route_status":"UNREACHABLE","label":"Xan Yaylağı","verification_status":"OSM_ONLY","nearest_airport_km":59.949,"source_role":"PHASE3C_VALIDATION","nearest_river":"Kişçay","elevation_m":2033.78,"nearest_protected_area":"Türyançay Qoruğu","name_az":"Xan Yaylağı","display_rank":841,"source_primary":"OSM Geofabrik Azerbaijan snapshot","rayon":"Şəki rayonu","thesis_group":"HISTORICAL_CULTURAL","icon_id":"cultural_historic"},"geometry":{"type":"Point","coordinates":[47.229970800000004,41.231526]}},{"type":"Feature","properties":{"coastal_distance_km":81.498,"nearest_rail_station_km":48.62,"landcover_class":"bare_or_sparse_vegetation","poi_id":"OSM_natural_4462238246","nearest_bus_terminal_km":38.037,"nearest_river_distance_m":13434.3,"access_mode_status":"TRAIL_HIKING_ACCESS","official_status":"official Azerbaijan.travel regional/destination content matched","thesis_subtype":"LANDSCAPE_SCENERY","terrain_context":"ALPINE","rayon_id":"AZE_ADM2_54616110B77048085748362","semantic_source_url":"https://azerbaijan.travel/trip-to-guba;https://azerbaijan.travel/storage/pages/231/9654583b-e287-43be-93dc-4442fc8cbbe4.pdf","slope_deg":11.187,"inside_protected_area":false,"elevation_zone":"OVER_3000_M","osm_route_status":"UNREACHABLE","label":"Xınalıq zirvəsi","verification_status":"CROSS_VERIFIED","nearest_airport_km":47.637,"source_role":"PHASE3C_VALIDATION","elevation_m":3645.53,"nearest_protected_area":"Türyançay Qoruğu","source_secondary":"https://azerbaijan.travel/trip-to-guba;https://azerbaijan.travel/storage/pages/231/9654583b-e287-43be-93dc-4442fc8cbbe4.pdf","name_az":"Xınalıq zirvəsi","official_evidence_source":"official Azerbaijan.travel regional/destination content matched","display_rank":2,"source_primary":"OSM Geofabrik Azerbaijan snapshot","rayon":"Quba rayonu","thesis_group":"NATURAL_RESOURCES","icon_id":"natural_viewpoint"},"geometry":{"type":"Point","coordinates":[48.108502,41.127764]}},{"type":"Feature","properties":{"coastal_distance_km":0.561,"nearest_rail_station_km":199.565,"landcover_class":"built_up","poi_id":"OSM_accommodation_1393047798","nearest_bus_terminal_km":165.878,"nearest_river_distance_m":714.8,"access_mode_status":"ROUTABLE_ROAD","thesis_subtype":"HOTEL_RESORT","terrain_context":"COASTAL","rayon_id":"AZE_ADM2_54616110B92317303093203","slope_deg":0.278,"inside_protected_area":false,"elevation_zone":"BELOW_SEA_LEVEL","osm_route_status":"OK","label":"Xəzər Otel","osm_route_distance_km":2.294,"verification_status":"OSM_ONLY","nearest_airport_km":3.808,"source_role":"PHASE3C_VALIDATION","nearest_river":"Lənkəran","elevation_m":-17.99,"nearest_protected_area":"Qızıl Ağac Dövlət Təbiət Qoruqu","osm_drive_time_min":2.6,"name_az":"Xəzər Otel","display_rank":2177,"source_primary":"OSM Geofabrik Azerbaijan snapshot","rayon":"Lənkəran şəhəri","thesis_group":"ACCOMMODATION","icon_id":"accommodation_resort"},"geometry":{"type":"Point","coordinates":[48.8554169,38.756272100000004]}},{"type":"Feature","properties":{"coastal_distance_km":187.704,"nearest_rail_station_km":104.631,"landcover_class":"tree_cover","poi_id":"OSM_cultural_10096218228","nearest_bus_terminal_km":58.625,"nearest_river_distance_m":745.9,"access_mode_status":"ROUTABLE_ROAD","thesis_subtype":"MOSQUE_RELIGIOUS","terrain_context":"FOREST","rayon_id":"AZE_ADM2_54616110B64107713492867","slope_deg":3.996,"inside_protected_area":false,"elevation_zone":"200_500_M","osm_route_status":"OK","label":"Zəngilan məscidi","osm_route_distance_km":1.298,"verification_status":"OSM_ONLY","nearest_airport_km":7.798,"source_role":"PHASE3C_VALIDATION","nearest_river":"Oxçuçay","elevation_m":428.15,"nearest_protected_area":"Սև լիճ արգելավայր","osm_drive_time_min":1.9,"name_az":"Zəngilan məscidi","display_rank":705,"source_primary":"OSM Geofabrik Azerbaijan snapshot","rayon":"Zəngilan rayonu","thesis_group":"HISTORICAL_CULTURAL","icon_id":"cultural_mosque"},"geometry":{"type":"Point","coordinates":[46.6582342,39.0814553]}},{"type":"Feature","properties":{"coastal_distance_km":116.715,"nearest_rail_station_km":22.533,"landcover_class":"bare_or_sparse_vegetation","poi_id":"OSM_natural_11413103430","nearest_bus_terminal_km":16.355,"nearest_river_distance_m":7429.1,"access_mode_status":"ROUTABLE_ROAD","thesis_subtype":"LANDSCAPE_SCENERY","terrain_context":"ALPINE","rayon_id":"AZE_ADM2_54616110B25010354244926","slope_deg":1.949,"inside_protected_area":false,"elevation_zone":"OVER_3000_M","osm_route_status":"OK","label":"Çaxıldağ","osm_route_distance_km":51.307,"verification_status":"OSM_ONLY","nearest_airport_km":52.926,"source_role":"PHASE3C_VALIDATION","nearest_river":"Şinçay","elevation_m":3419.57,"nearest_protected_area":"Türyançay Qoruğu","osm_drive_time_min":48.7,"name_az":"Çaxıldağ","display_rank":27,"source_primary":"OSM Geofabrik Azerbaijan snapshot","rayon":"Şəki rayonu","thesis_group":"NATURAL_RESOURCES","icon_id":"natural_viewpoint"},"geometry":{"type":"Point","coordinates":[47.225418100000006,41.3423103]}},{"type":"Feature","properties":{"coastal_distance_km":124.374,"nearest_rail_station_km":7.652,"landcover_class":"tree_cover","poi_id":"OSM_cultural_6005243587","nearest_bus_terminal_km":27.898,"nearest_river_distance_m":238.8,"access_mode_status":"ROUTABLE_ROAD","official_status":"official Azerbaijan.travel regional/destination content matched","thesis_subtype":"MUSEUM","terrain_context":"LAKE_SHORE","heritage_source_url":"https://whc.unesco.org/en/tentativelists/action%3Dlisttentative%26order%3Dstates%26state%3Daz","rayon_id":"AZE_ADM2_54616110B33746839775993","semantic_source_url":"https://azerbaijan.travel/trip-to-gabala;https://azerbaijan.travel/regional-maps","slope_deg":3.171,"inside_protected_area":false,"elevation_zone":"200_500_M","osm_route_status":"OK","label":"Çuxur Qəbələ muzeyi","osm_route_distance_km":12.68,"verification_status":"CROSS_VERIFIED","nearest_airport_km":8.567,"source_role":"PHASE3C_VALIDATION","elevation_m":383.18,"nearest_protected_area":"Türyançay Qoruğu","osm_drive_time_min":12.1,"source_secondary":"https://azerbaijan.travel/trip-to-gabala;https://azerbaijan.travel/regional-maps","name_az":"Çuxur Qəbələ muzeyi","official_evidence_source":"official Azerbaijan.travel regional/destination content matched","display_rank":4,"source_primary":"OSM Geofabrik Azerbaijan snapshot","rayon":"Qəbələ rayonu","thesis_group":"HISTORICAL_CULTURAL","icon_id":"cultural_museum"},"geometry":{"type":"Point","coordinates":[47.7060692,40.8907827]}},{"type":"Feature","properties":{"coastal_distance_km":192.318,"nearest_rail_station_km":31.109,"landcover_class":"tree_cover","poi_id":"OSM_cultural_10702671061","nearest_bus_terminal_km":92.989,"nearest_river_distance_m":1069.2,"access_mode_status":"ROUTABLE_ROAD","thesis_subtype":"MOSQUE_RELIGIOUS","terrain_context":"FOREST","rayon_id":"AZE_ADM2_54616110B87325868620163","slope_deg":7.47,"inside_protected_area":false,"elevation_zone":"1000_2000_M","osm_route_status":"OK","label":"Çöl Qala Məscidi","osm_route_distance_km":19.531,"verification_status":"OSM_ONLY","nearest_airport_km":36.15,"source_role":"PHASE3C_VALIDATION","nearest_river":"Qarqarçay","elevation_m":1297.72,"nearest_protected_area":"Սև լիճ արգելավայր","osm_drive_time_min":16.2,"name_az":"Çöl Qala Məscidi","display_rank":761,"source_primary":"OSM Geofabrik Azerbaijan snapshot","rayon":"Xocalı rayonu","thesis_group":"HISTORICAL_CULTURAL","icon_id":"cultural_mosque"},"geometry":{"type":"Point","coordinates":[46.7537414,39.7642602]}},{"type":"Feature","properties":{"coastal_distance_km":1.065,"nearest_rail_station_km":5.484,"landcover_class":"built_up","poi_id":"OSM_cultural_10110102981","nearest_bus_terminal_km":2.337,"nearest_river_distance_m":1292.4,"access_mode_status":"ROUTABLE_ROAD","thesis_subtype":"MOSQUE_RELIGIOUS","terrain_context":"LAKE_SHORE","rayon_id":"AZE_ADM2_54616110B75219613739908","slope_deg":0.458,"inside_protected_area":false,"elevation_zone":"BELOW_SEA_LEVEL","osm_route_status":"UNREACHABLE","label":"İmam Sadıq Məscidi \\ Kottec","verification_status":"OSM_ONLY","nearest_airport_km":36.551,"source_role":"PHASE3C_VALIDATION","elevation_m":-16.12,"name_az":"İmam Sadıq Məscidi \\ Kottec","display_rank":708,"source_primary":"OSM Geofabrik Azerbaijan snapshot","rayon":"Sumqayıt şəhəri","thesis_group":"HISTORICAL_CULTURAL","icon_id":"cultural_mosque"},"geometry":{"type":"Point","coordinates":[49.6515405,40.6050042]}},{"type":"Feature","properties":{"coastal_distance_km":9.904,"nearest_rail_station_km":4.416,"landcover_class":"built_up","poi_id":"OSM_natural_10540422117","nearest_bus_terminal_km":8.172,"nearest_river_distance_m":6786.5,"access_mode_status":"ROUTABLE_ROAD","thesis_subtype":"CLIMATIC_HEALTH","terrain_context":"URBAN","rayon_id":"AZE_ADM2_54616110B88432173472444","slope_deg":1.559,"inside_protected_area":false,"elevation_zone":"0_200_M","osm_route_status":"OK","label":"Şəhid Bulağı","osm_route_distance_km":79.339,"verification_status":"OSM_ONLY","nearest_airport_km":24.357,"source_role":"PHASE3C_VALIDATION","elevation_m":60.39,"osm_drive_time_min":71.5,"name_az":"Şəhid Bulağı","display_rank":16,"source_primary":"OSM Geofabrik Azerbaijan snapshot","rayon":"Abşeron rayonu","thesis_group":"NATURAL_RESOURCES","icon_id":"natural_climatic"},"geometry":{"type":"Point","coordinates":[49.7577506,40.4852654]}},{"type":"Feature","properties":{"coastal_distance_km":2.338,"nearest_rail_station_km":33.739,"landcover_class":"built_up","poi_id":"OSM_natural_11390440775","nearest_bus_terminal_km":30.603,"nearest_river_distance_m":499.3,"access_mode_status":"ROUTABLE_ROAD","thesis_subtype":"CLIMATIC_HEALTH","terrain_context":"URBAN","rayon_id":"AZE_ADM2_54616110B97026515433008","slope_deg":0.238,"inside_protected_area":false,"elevation_zone":"BELOW_SEA_LEVEL","osm_route_status":"OK","label":"Şəhid Bulağı \\ Şorabad","osm_route_distance_km":25.554,"verification_status":"OSM_ONLY","nearest_airport_km":62.37,"source_role":"PHASE3C_VALIDATION","elevation_m":-19.63,"osm_drive_time_min":38.3,"name_az":"Şəhid Bulağı \\ Şorabad","display_rank":26,"source_primary":"OSM Geofabrik Azerbaijan snapshot","rayon":"Xızı rayonu","thesis_group":"NATURAL_RESOURCES","icon_id":"natural_climatic"},"geometry":{"type":"Point","coordinates":[49.465658100000006,40.816773000000005]}},{"type":"Feature","properties":{"coastal_distance_km":1.687,"nearest_rail_station_km":26.541,"landcover_class":"grassland","poi_id":"OSM_natural_10744206299","nearest_bus_terminal_km":37.118,"nearest_river_distance_m":4081.6,"access_mode_status":"ROUTABLE_ROAD","thesis_subtype":"CLIMATIC_HEALTH","terrain_context":"LOWLAND","rayon_id":"AZE_ADM2_54616110B61947743987915","slope_deg":1.066,"inside_protected_area":false,"elevation_zone":"0_200_M","osm_route_status":"OK","label":"Şəhidlər Bulağı \\ Qoşaqışlaq Zirə","osm_route_distance_km":58.013,"verification_status":"OSM_ONLY","nearest_airport_km":19.473,"source_role":"PHASE3C_VALIDATION","nearest_river":"Samur-Abşeron kanalı","elevation_m":9.72,"nearest_protected_area":"Şah Dili Qoruğu","osm_drive_time_min":39.2,"name_az":"Şəhidlər Bulağı \\ Qoşaqışlaq Zirə","display_rank":20,"source_primary":"OSM Geofabrik Azerbaijan snapshot","rayon":"Bakı şəhəri","thesis_group":"NATURAL_RESOURCES","icon_id":"natural_climatic"},"geometry":{"type":"Point","coordinates":[50.266721200000006,40.4255051]}},{"type":"Feature","properties":{"coastal_distance_km":128.626,"nearest_rail_station_km":15.629,"landcover_class":"built_up","poi_id":"OSM_cultural_5088734123","nearest_bus_terminal_km":1.959,"nearest_river_distance_m":294.0,"access_mode_status":"ROUTABLE_ROAD","official_status":"official Azerbaijan.travel regional/destination content matched","thesis_subtype":"CASTLE_PALACE_FORTRESS","terrain_context":"URBAN","heritage_source_url":"https://azerbaijan.travel/storage/pages/235/2f3b9f69-4a57-49a6-b2d2-4a4dcbd7a4a9.pdf","rayon_id":"AZE_ADM2_54616110B24616396985677","semantic_source_url":"https://azerbaijan.travel/storage/pages/235/2f3b9f69-4a57-49a6-b2d2-4a4dcbd7a4a9.pdf","slope_deg":5.547,"inside_protected_area":false,"elevation_zone":"500_1000_M","osm_route_status":"OK","label":"Şəkixanovlar Ev Muzeyi","osm_route_distance_km":0.928,"verification_status":"OFFICIAL_VERIFIED","nearest_airport_km":59.478,"source_role":"PHASE3C_VALIDATION","elevation_m":682.55,"nearest_protected_area":"Türyançay Qoruğu","osm_drive_time_min":1.4,"source_secondary":"https://azerbaijan.travel/storage/pages/235/2f3b9f69-4a57-49a6-b2d2-4a4dcbd7a4a9.pdf","name_az":"Şəkixanovlar Ev Muzeyi","official_evidence_source":"official Azerbaijan.travel regional/destination content matched","display_rank":12,"source_primary":"OSM Geofabrik Azerbaijan snapshot","rayon":"Şəki şəhəri","thesis_group":"HISTORICAL_CULTURAL","icon_id":"cultural_castle"},"geometry":{"type":"Point","coordinates":[47.190308800000004,41.202646]}},{"type":"Feature","properties":{"coastal_distance_km":220.531,"nearest_rail_station_km":11.121,"poi_id":"OSM_natural_109340","nearest_bus_terminal_km":38.178,"nearest_river_distance_m":594.4,"access_mode_status":"LOCAL_4X4_OR_TRAIL_REVIEW","thesis_subtype":"COASTAL_WATER","terrain_context":"LAKE_SHORE","rayon_id":"AZE_ADM2_54616110B57585842497805","slope_deg":0.0,"inside_protected_area":false,"elevation_zone":"0_200_M","osm_route_status":"UNREACHABLE","label":"Şəmkir su anbarı","verification_status":"OSM_ONLY","nearest_airport_km":32.324,"source_role":"PHASE3C_VALIDATION","nearest_river":"Kür","elevation_m":0.0,"nearest_protected_area":"Türyançay Qoruğu","name_az":"Şəmkir su anbarı","display_rank":21,"source_primary":"OSM Geofabrik Azerbaijan snapshot","rayon":"Şəmkir rayonu","thesis_group":"NATURAL_RESOURCES","icon_id":"natural_waterfall"},"geometry":{"type":"Point","coordinates":[46.07649830177731,40.96350353371681]}}]}
