{"type":"FeatureCollection","features":[{"type":"Feature","properties":{"terminal_id":"OSM_BUS_13383717902","name":"594/595 son dayancaq, Sumqayıt Avtovağzalı","official_city":"Sumqayıt","official_verified":true,"operational_status":"AYNA avtovağzal/avtostansiya listesi ile isim/adres eşleşmesi","type":"avtovağzal/avtostansiya","verification_status":"OFFICIAL_VERIFIED"},"geometry":{"type":"Point","coordinates":[49.6638413,40.5861656]}},{"type":"Feature","properties":{"terminal_id":"OSM_BUS_6005085168","name":"A. Bakıxanov dayanacağı","official_city":"Bakı","official_verified":true,"operational_status":"AYNA avtovağzal/avtostansiya listesi ile isim/adres eşleşmesi","type":"avtovağzal/avtostansiya","verification_status":"OFFICIAL_VERIFIED"},"geometry":{"type":"Point","coordinates":[49.8321308,40.3880761]}},{"type":"Feature","properties":{"terminal_id":"OSM_BUS_11244672104","name":"Avtovağzal","official_city":"İsmayıllı","official_verified":true,"operational_status":"AYNA avtovağzal/avtostansiya listesi ile isim/adres eşleşmesi","type":"avtovağzal/avtostansiya","verification_status":"OFFICIAL_VERIFIED"},"geometry":{"type":"Point","coordinates":[48.1700211,40.788441600000006]}},{"type":"Feature","properties":{"terminal_id":"OSM_BUS_12128487414","name":"Avtovağzal","official_city":"Qazax","official_verified":true,"operational_status":"AYNA avtovağzal/avtostansiya listesi ile isim/adres eşleşmesi","type":"avtovağzal/avtostansiya","verification_status":"OFFICIAL_VERIFIED"},"geometry":{"type":"Point","coordinates":[45.352043900000005,41.0900893]}},{"type":"Feature","properties":{"terminal_id":"OSM_BUS_7891455714","name":"Avtovağzal Balakən","official_city":"Balakən","official_verified":true,"operational_status":"AYNA avtovağzal/avtostansiya listesi ile isim/adres eşleşmesi","type":"avtovağzal/avtostansiya","verification_status":"OFFICIAL_VERIFIED"},"geometry":{"type":"Point","coordinates":[46.424179200000005,41.706127]}},{"type":"Feature","properties":{"terminal_id":"OSM_BUS_8603671586","name":"Avtovağzal Göyçay","official_city":"Göyçay","official_verified":true,"operational_status":"AYNA avtovağzal/avtostansiya listesi ile isim/adres eşleşmesi","type":"avtovağzal/avtostansiya","verification_status":"OFFICIAL_VERIFIED"},"geometry":{"type":"Point","coordinates":[47.734388700000004,40.6404796]}},{"type":"Feature","properties":{"terminal_id":"OSM_BUS_3223619164","name":"Avtovağzal Mingəçevir","official_city":"Mingəçevir","official_verified":true,"operational_status":"AYNA avtovağzal/avtostansiya listesi ile isim/adres eşleşmesi","type":"avtovağzal/avtostansiya","verification_status":"OFFICIAL_VERIFIED"},"geometry":{"type":"Point","coordinates":[47.085262400000005,40.756212600000005]}},{"type":"Feature","properties":{"terminal_id":"OSM_BUS_4312301392","name":"Avtovağzal Qusar","official_city":"Qusar","official_verified":true,"operational_status":"AYNA avtovağzal/avtostansiya listesi ile isim/adres eşleşmesi","type":"avtovağzal/avtostansiya","verification_status":"OFFICIAL_VERIFIED"},"geometry":{"type":"Point","coordinates":[48.4415556,41.4310187]}},{"type":"Feature","properties":{"terminal_id":"OSM_BUS_4826403023","name":"Avtovağzal Xudat","official_city":"Xudat","official_verified":true,"operational_status":"AYNA avtovağzal/avtostansiya listesi ile isim/adres eşleşmesi","type":"avtovağzal/avtostansiya","verification_status":"OFFICIAL_VERIFIED"},"geometry":{"type":"Point","coordinates":[48.6867834,41.622921500000004]}},{"type":"Feature","properties":{"terminal_id":"OSM_BUS_None","name":"Bakı Beynəlxalq və Şəhərlərarası Avtovağzalı","official_city":"Bakı","official_verified":true,"operational_status":"AYNA avtovağzal/avtostansiya listesi ile isim/adres eşleşmesi","type":"avtovağzal/avtostansiya","verification_status":"OFFICIAL_VERIFIED"},"geometry":{"type":"Point","coordinates":[49.79715152909929,40.416737191083506]}},{"type":"Feature","properties":{"terminal_id":"OSM_BUS_6746735286","name":"Bakı Taxi","official_city":"Bakı","official_verified":true,"operational_status":"AYNA avtovağzal/avtostansiya listesi ile isim/adres eşleşmesi","type":"avtovağzal/avtostansiya","verification_status":"OFFICIAL_VERIFIED"},"geometry":{"type":"Point","coordinates":[48.6542594,40.6222967]}},{"type":"Feature","properties":{"terminal_id":"OSM_BUS_11234364073","name":"Goranboy Avtovağzalı","official_city":"Goranboy","official_verified":true,"operational_status":"AYNA avtovağzal/avtostansiya listesi ile isim/adres eşleşmesi","type":"avtovağzal/avtostansiya","verification_status":"OFFICIAL_VERIFIED"},"geometry":{"type":"Point","coordinates":[46.777105600000006,40.6015097]}},{"type":"Feature","properties":{"terminal_id":"OSM_BUS_3763809709","name":"Göygöl Avtovağzal","official_city":"Göygöl","official_verified":true,"operational_status":"AYNA avtovağzal/avtostansiya listesi ile isim/adres eşleşmesi","type":"avtovağzal/avtostansiya","verification_status":"OFFICIAL_VERIFIED"},"geometry":{"type":"Point","coordinates":[46.320984200000005,40.591705100000006]}},{"type":"Feature","properties":{"terminal_id":"OSM_BUS_11813198969","name":"Mərkəzi Avtovağzal Bakı - Giriş 1","official_city":"Bakı","official_verified":true,"operational_status":"AYNA avtovağzal/avtostansiya listesi ile isim/adres eşleşmesi","type":"avtovağzal/avtostansiya","verification_status":"OFFICIAL_VERIFIED"},"geometry":{"type":"Point","coordinates":[49.7979746,40.4183996]}},{"type":"Feature","properties":{"terminal_id":"OSM_BUS_12305008200","name":"Mərkəzi Avtovağzal Bakı - Giriş 2","official_city":"Bakı","official_verified":true,"operational_status":"AYNA avtovağzal/avtostansiya listesi ile isim/adres eşleşmesi","type":"avtovağzal/avtostansiya","verification_status":"OFFICIAL_VERIFIED"},"geometry":{"type":"Point","coordinates":[49.7985594,40.417917200000005]}},{"type":"Feature","properties":{"terminal_id":"OSM_BUS_6174449373","name":"Ordubad avtovağzali","official_city":"Ordubad","official_verified":true,"operational_status":"AYNA avtovağzal/avtostansiya listesi ile isim/adres eşleşmesi","type":"avtovağzal/avtostansiya","verification_status":"OFFICIAL_VERIFIED"},"geometry":{"type":"Point","coordinates":[46.0197172,38.906518600000005]}},{"type":"Feature","properties":{"terminal_id":"OSM_BUS_5071559721","name":"Quba Şəhər Avtovağzalı","official_city":"Quba","official_verified":true,"operational_status":"AYNA avtovağzal/avtostansiya listesi ile isim/adres eşleşmesi","type":"avtovağzal/avtostansiya","verification_status":"OFFICIAL_VERIFIED"},"geometry":{"type":"Point","coordinates":[48.5529522,41.371437400000005]}},{"type":"Feature","properties":{"terminal_id":"OSM_BUS_2825707806","name":"Tovuz Avtovağzalı","official_city":"Tovuz","official_verified":true,"operational_status":"AYNA avtovağzal/avtostansiya listesi ile isim/adres eşleşmesi","type":"avtovağzal/avtostansiya","verification_status":"OFFICIAL_VERIFIED"},"geometry":{"type":"Point","coordinates":[45.6245911,40.993532200000004]}},{"type":"Feature","properties":{"terminal_id":"OSM_BUS_5084218522","name":"Təzə Bazar Şəki / New Bazar Bus Stop ( 4,5,8,10,11,14,15,24 )","official_city":"Şəki","official_verified":true,"operational_status":"AYNA avtovağzal/avtostansiya listesi ile isim/adres eşleşmesi","type":"avtovağzal/avtostansiya","verification_status":"OFFICIAL_VERIFIED"},"geometry":{"type":"Point","coordinates":[47.1669859,41.2017925]}},{"type":"Feature","properties":{"terminal_id":"OSM_BUS_5613861924","name":"Umbakı yolu","official_city":"Bakı","official_verified":true,"operational_status":"AYNA avtovağzal/avtostansiya listesi ile isim/adres eşleşmesi","type":"avtovağzal/avtostansiya","verification_status":"OFFICIAL_VERIFIED"},"geometry":{"type":"Point","coordinates":[49.4720184,40.1717378]}},{"type":"Feature","properties":{"terminal_id":"OSM_BUS_12323738059","name":"Yeni Avtovağzal","official_city":"Gədəbəy","official_verified":true,"operational_status":"AYNA avtovağzal/avtostansiya listesi ile isim/adres eşleşmesi","type":"avtovağzal/avtostansiya","verification_status":"OFFICIAL_VERIFIED"},"geometry":{"type":"Point","coordinates":[45.8102645,40.577189700000005]}},{"type":"Feature","properties":{"terminal_id":"OSM_BUS_4464632490","name":"Yeni Yevlax  avtovoğzalı","official_city":"Yevlax","official_verified":true,"operational_status":"AYNA avtovağzal/avtostansiya listesi ile isim/adres eşleşmesi","type":"avtovağzal/avtostansiya","verification_status":"OFFICIAL_VERIFIED"},"geometry":{"type":"Point","coordinates":[46.4065978,40.682980400000005]}},{"type":"Feature","properties":{"terminal_id":"OSM_BUS_4945291521","name":"Zaqatala Avtovağzal","official_city":"Zaqatala","official_verified":true,"operational_status":"AYNA avtovağzal/avtostansiya listesi ile isim/adres eşleşmesi","type":"avtovağzal/avtostansiya","verification_status":"OFFICIAL_VERIFIED"},"geometry":{"type":"Point","coordinates":[46.657963800000005,41.601867600000006]}},{"type":"Feature","properties":{"terminal_id":"OSM_BUS_5550566723","name":"ferid quba ev","official_city":"Quba","official_verified":true,"operational_status":"AYNA avtovağzal/avtostansiya listesi ile isim/adres eşleşmesi","type":"avtovağzal/avtostansiya","verification_status":"OFFICIAL_VERIFIED"},"geometry":{"type":"Point","coordinates":[48.5531079,41.3673246]}}]}