{"type":"FeatureCollection","features":[{"type":"Feature","properties":{"country_id":"AZE","name_az":"Azərbaycan","source_id":"dissolved geoBoundaries ADM2 cross-check"},"geometry":{"type":"MultiPolygon","coordinates":[[[[46.87452083900007,39.15523704900005],[46.866348756000036,39.14951045300006],[46.86062829900004,39.141450002000056],[46.85218381400006,39.13423723200003],[46.841287703000035,39.12426541100007],[46.83475003700005,39.117050866000056],[46.826305552000065,39.10877444100004],[46.81731626100003,39.10092154300003],[46.807237360000045,39.09582730000005],[46.80069969300007,39.088397530000066],[46.792527611000025,39.07565894500004],[46.78135909800005,39.06589112700004],[46.771552599000074,39.05845817900007],[46.76065648900004,39.04868796100004],[46.760384086000045,39.03318025300007],[46.75325053900008,39.02490718700005],[46.738779143000045,39.00963331300005],[46.72303085900006,39.00265935300007],[46.71026198000004,38.99668112000006],[46.695790583000075,38.98272993000006],[46.68131918700004,38.97475657800004],[46.67450911900005,38.96578547400003],[46.65535580000005,38.95249284500005],[46.640033145000075,38.942854116000035],[46.62130545500003,38.93221674500006],[46.615346645000045,38.92457014100006],[46.606408430000045,38.91226733800005],[46.589383258000055,38.898299388000055],[46.57789126700004,38.887655282000026],[46.56086609500005,38.88366332700008],[46.54001025900004,38.875013317000025],[46.53192330300004,38.87301700900008],[46.525538863000065,38.88432866900007],[46.51958005300003,38.89796678400006],[46.51617501800007,38.90794422100004],[46.51064183700004,38.92955715000005],[46.50638554400007,38.95315753600005],[46.51532376000006,38.968443699000034],[46.52383634600005,38.984058735000076],[46.52766701000007,38.99668112000006],[46.52766701000007,39.00963331300005],[46.53234893200005,39.03287484400005],[46.53490270700007,39.04913933300003],[46.53490270700007,39.062081840000076],[46.530646415000035,39.07336310000005],[46.52426197500006,39.08431082000004],[46.509790578000036,39.099900071000036],[46.49697062400003,39.110047801000064],[46.483078084000056,39.119385065000074],[46.46864073800003,39.13296431300006],[46.45910664200005,39.14314701600006],[46.442490074000034,39.15905451900005],[46.43568000500005,39.167324988000075],[46.42886993600007,39.18661893600006],[46.429142339000066,39.20039705900007],[46.435407603000044,39.20823877500004],[46.44875533700008,39.211417597000036],[46.463192683000045,39.21099376300003],[46.482260876000055,39.208662626000034],[46.49506380500003,39.205695612000056],[46.508411540000054,39.20103290700007],[46.51222517800005,39.18767888800005],[46.51821803900003,39.18110692400006],[46.52884174600007,39.174322311000026],[46.54709273100008,39.17538245000003],[46.55635442400006,39.178774788000055],[46.564798910000036,39.182590970000035],[46.56806774200004,39.19170656000006],[46.57106417300008,39.198913392000065],[46.57487781100008,39.20654334400007],[46.576784631000066,39.21184143000005],[46.582232686000054,39.21607960800003],[46.59122197700003,39.22010563900005],[46.59497490500007,39.22472761500006],[46.588532,39.22448898000005],[46.571506827000064,39.22945466700003],[46.56129172400006,39.238392013000066],[46.550650992000044,39.250306687000034],[46.53745648300003,39.25725597200005],[46.52043131200003,39.26949826100008],[46.517877535000025,39.28802303000003],[46.516600647000075,39.298275690000025],[46.52000568200003,39.31249461600004],[46.508513691000076,39.32009889200003],[46.47914526900007,39.325718909000045],[46.46722764800006,39.32902458800004],[46.44849995900006,39.33133847100004],[46.43275167500008,39.33497441500003],[46.41742902100003,39.343567707000034],[46.404898494000065,39.35727510900006],[46.39917803600008,39.362773170000025],[46.38909913400005,39.37588217000007],[46.38119945500006,39.38729766500006],[46.374661788000026,39.39849993200005],[46.36894133000004,39.41117955500005],[46.36703451100004,39.423856855000054],[46.36567249700005,39.441389955000034],[46.37139295600008,39.44772612600008],[46.385013093000055,39.45152754900005],[46.40380888300007,39.45300582400006],[46.42342188100008,39.45258346300005],[46.45120696200007,39.44899329000003],[46.46183066900005,39.45385053800004],[46.471092362000036,39.46461973900006],[46.48825373600005,39.47010927400004],[46.50323588700007,39.47538726100004],[46.51768037100004,39.482481962000065],[46.515165180000054,39.48420181600005],[46.51412687700008,39.49626945600005],[46.50374384100007,39.50785240400006],[46.50270553800004,39.516055814000026],[46.50997366200005,39.522328351000056],[46.52201798300007,39.52393660200005],[46.53157037400007,39.52683135900003],[46.54278405200006,39.53390692000005],[46.54942919500007,39.53985626200006],[46.55732030100006,39.54853816100007],[46.55192112300006,39.556093737000026],[46.540707446000056,39.560433801000045],[46.52471757200004,39.567184464000036],[46.50955834200005,39.569916689000024],[46.491907182000034,39.567505908000044],[46.474048362000076,39.56686302000003],[46.45411293500007,39.56557722400004],[46.438123061000056,39.56654157300005],[46.42337915200005,39.569916689000024],[46.41901827800007,39.57939826900008],[46.414657403000035,39.592734551000035],[46.42379447400003,39.60060656300004],[46.43729241900007,39.60751391300005],[46.44622182900008,39.60976266700004],[46.43438516900005,39.61939935300006],[46.42504043800005,39.624056600000074],[46.40240542200007,39.62646539600007],[46.38994578000006,39.63176445200003],[46.37727847800005,39.63256730300003],[46.36211924700007,39.63385184600003],[46.34509107000008,39.63369128000005],[46.335331017000044,39.62871353100007],[46.31892582300003,39.62389601000007],[46.31020407400007,39.61827514300006],[46.30044402100003,39.613938731000076],[46.28777671800003,39.60992329000004],[46.272202166000056,39.60526508400005],[46.258288899000036,39.601570421000076],[46.24022241900008,39.60092785100005],[46.22713979500003,39.60044591900004],[46.21094226000008,39.601249137000025],[46.19952092300008,39.60076720700005],[46.19412174400003,39.59450181600005],[46.18581531600006,39.58727180900007],[46.17667824600005,39.58502231800003],[46.17480930000005,39.59691165000004],[46.17397865700008,39.60671076800003],[46.17210971000003,39.617793333000066],[46.171071407000056,39.62196890700005],[46.16719074800005,39.62737871000007],[46.16070135100006,39.63841780000007],[46.145451269000034,39.64468921900004],[46.12728095800003,39.65447148800007],[46.115275574000066,39.664503136000064],[46.10002549200004,39.67302888200004],[46.08639775900008,39.67653917500007],[46.07666366400008,39.67678990300004],[46.06692956900008,39.68506342500007],[46.06692956900008,39.69910105200006],[46.06336040000008,39.71088041200005],[46.04713690800003,39.72416108800007],[46.03999857100007,39.73593613400004],[46.01988144200004,39.74971287100004],[46.00300901000003,39.76098268000004],[45.98451422900007,39.77174987300003],[45.967966268000055,39.78501872900006],[45.94071080100008,39.788022640000065],[45.92647077300006,39.796876316000066],[45.91780277700008,39.79480672300008],[45.90742804100006,39.79600717000005],[45.89342214700008,39.79860806900007],[45.878119412000046,39.800608692000026],[45.86826341300008,39.80460976200004],[45.85633246700007,39.810610928000074],[45.84803267800004,39.81801163800003],[45.84128910000004,39.82441160400003],[45.83791731100007,39.83561010000005],[45.83298931200005,39.84660683200008],[45.82391141700003,39.858801130000074],[45.81846468100008,39.867395800000054],[45.81483352300006,39.87279189700007],[45.807052472000066,39.88657998200006],[45.803161946000046,39.89776825800004],[45.803161946000046,39.90875495000006],[45.80523689300003,39.91754302700008],[45.79953078800003,39.92533150700007],[45.786303,39.93411743900003],[45.77151900200005,39.937911013000075],[45.75076952900008,39.94469898400007],[45.73857921500007,39.94689494800008],[45.72716700600006,39.95188550900008],[45.713420480000025,39.958272892000025],[45.696042798000065,39.96885067100004],[45.68048069400004,39.97084629400007],[45.663621748000025,39.97463781500005],[45.64987522400003,39.97503691000003],[45.63457248800006,39.97244275000003],[45.61952912100003,39.97144496900006],[45.60993249100005,39.97743143200006],[45.607338807000076,39.98880425400006],[45.598001544000056,39.999975696000035],[45.598001544000056,40.00356612500008],[45.601632702000074,40.00974919600003],[45.60993249100005,40.016330555000025],[45.615638595000064,40.02430710200008],[45.622900910000055,40.02689927700004],[45.63664743500004,40.029092579000064],[45.653247013000055,40.03088704500004],[45.67581206300008,40.03327959300003],[45.68929921900008,40.03327959300003],[45.70538006000004,40.033080218000066],[45.70927058600006,40.032282708000025],[45.73313247900006,40.03327959300003],[45.73935732000007,40.033080218000066],[45.74895395100003,40.029890125000065],[45.76244110700003,40.025702901000045],[45.77592826500006,40.02590229800006],[45.79278721000003,40.025702901000045],[45.80394005100004,40.01992011700003],[45.811721103000025,40.016729404000046],[45.81353668100007,40.01553284900007],[45.82391141700003,40.010148085000026],[45.82754257500005,40.004164512000045],[45.83817667900007,40.001371997000035],[45.85399815200003,39.99917779700007],[45.86670720300003,40.00077358600004],[45.870857097000055,40.005560726000056],[45.878119412000046,40.01154417600003],[45.88200993800007,40.01852419900007],[45.885122359000036,40.02709867100003],[45.89082846400004,40.03327959300003],[45.89549709500005,40.039858665000054],[45.90172193600006,40.04205154700003],[45.90431562100008,40.048231103000035],[45.90768740900006,40.05939274200006],[45.91131856700008,40.06537143300005],[45.913652882000065,40.074537734000046],[45.91650593500003,40.09107378200008],[45.91806214500008,40.09704967000005],[45.92662130200006,40.10959731500003],[45.93595856400003,40.11099135500007],[45.94711140600003,40.12234174100007],[45.958264247000045,40.126124779000065],[45.96137666800007,40.13408837600008],[45.96293287800006,40.141851978000034],[45.969157719000066,40.15160497900007],[45.97667940300005,40.15638144400003],[45.98394171800004,40.16075957400005],[45.98835098100005,40.168122149000055],[45.98990719100004,40.177473450000036],[45.990166559000045,40.185430980000035],[45.98627603300008,40.19000613400004],[45.98420108700003,40.19756440300006],[45.98186677000007,40.20631502200007],[45.98082929700007,40.21486566400006],[45.972270140000035,40.22301758900005],[45.95956108900003,40.23315640800007],[45.94918635300007,40.24329369800006],[45.94296151200007,40.24786491700007],[45.94062719600004,40.25700642100003],[45.94503645800006,40.26237150600008],[45.95178003600006,40.270517668000025],[45.94685203700004,40.276477647000036],[45.940367827000046,40.281046607000064],[45.93414298600004,40.287800151000056],[45.930438765000076,40.29377184900005],[45.92488917400004,40.29377184900005],[45.90706551400007,40.28967729400006],[45.88879626200003,40.29308944100006],[45.87854765700007,40.301960207000036],[45.86161517900007,40.30810081900006],[45.85965929300005,40.311694386000056],[45.84512829400006,40.31151202800004],[45.82596785800007,40.32038035700003],[45.80992656400008,40.323449889000074],[45.789874946000054,40.331975631000034],[45.76759537100003,40.34084125100003],[45.75021730200007,40.348682936000046],[45.727492134000045,40.35550104600003],[45.70699492500006,40.35993244500003],[45.69139922200003,40.36470439200008],[45.673575561000064,40.36811271800008],[45.65129598600004,40.37731432800007],[45.64817684500008,40.39094401800003],[45.639265015000035,40.39946116200008],[45.62500608700003,40.41308633400007],[45.60941038400006,40.42160065500008],[45.59948260500005,40.42604129400007],[45.58664956900003,40.43236120200004],[45.571249926000064,40.43454034200005],[45.55727617700006,40.43628360400004],[45.544443141000045,40.442166773000054],[45.52818796300005,40.452188755000066],[45.51792153500003,40.45959533900003],[45.51221796300007,40.46700110100005],[45.50052564200007,40.47222820200005],[45.48541117700006,40.47636603300003],[45.47172260600007,40.47941479600007],[45.46487832100007,40.48790704400005],[45.45261564200007,40.49770444700005],[45.44291957100006,40.509459427000024],[45.44377510700008,40.52099470300004],[45.44092332100007,40.53187520600005],[45.43949742800004,40.54340659600007],[45.44491582100005,40.552760781000075],[45.44463064200005,40.56233114400004],[45.44120850000007,40.57342233800006],[45.440352964000056,40.58059800600006],[45.42866064300006,40.58799030800003],[45.41867939300005,40.59690345900003],[45.40898332200004,40.604946006000034],[45.39215778600004,40.618855137000025],[45.38588385700007,40.631892297000036],[45.37903957200007,40.64427522400007],[45.37276564300004,40.65774174400008],[45.37248046500008,40.66729696800007],[45.37219528700007,40.67837061500006],[45.37704332200008,40.690744851000034],[45.38588385700007,40.69942714200005],[45.39985760700006,40.700512349000064],[45.402424214000064,40.70658917500003],[45.400713143000075,40.71613734400006],[45.400713143000075,40.72394845600007],[45.41040921500007,40.730457011000055],[45.41867939300005,40.73761568000003],[45.42580885700005,40.74477357300003],[45.43607528500007,40.74781002000003],[45.451189750000026,40.74889443200004],[45.47029671400003,40.75258129800005],[45.47717843000004,40.75097103000007],[45.47771135600004,40.75084632800008],[45.48244814000003,40.74789896400006],[45.48512599900005,40.74997882500003],[45.49225546300005,40.76168914300007],[45.50109599900003,40.76754352200004],[45.51849189100005,40.77187976400006],[45.53132492700007,40.77469816900003],[45.539595106000036,40.77968428200006],[45.54929117700004,40.78705436700005],[45.557561356000065,40.79333996400004],[45.56355010500005,40.80070852100005],[45.57239064100003,40.81002639900004],[45.577238676000036,40.815876486000036],[45.58351260500007,40.82150941100008],[45.58550885500006,40.83082434600004],[45.59559704700007,40.84457770900008],[45.593814681000026,40.867583797000066],[45.59292349700007,40.87773098200006],[45.58312048400006,40.882127609000065],[45.56663359800007,40.88618577200003],[45.560840909000035,40.89362508800008],[45.53633337600007,40.90241591900008],[45.520292081000036,40.911205573000075],[45.50603315300003,40.919318055000076],[45.48820949200007,40.92371189800008],[45.47796088700005,40.931146960000035],[45.47796088700005,40.94128432200006],[45.47305938100004,40.94567669300005],[45.460137227000075,40.95783864400005],[45.460137227000075,40.959449636000045],[45.45353962100006,40.961700267000026],[45.43747836400007,40.967649261000076],[45.42853516500003,40.97110772900004],[45.420139507000044,40.97484267100003],[45.41521162200007,40.97968394500003],[45.408458593000034,40.98452486000008],[45.41064876400003,40.991439832000026],[45.41429905000007,40.999460284000065],[45.41648922200005,41.00554411000007],[45.41721927800006,41.01176561800003],[45.41375150700003,41.017018876000066],[45.40681596400003,41.02199525700007],[45.38947710800005,41.01715711400004],[45.379438822000054,41.01549823900007],[45.376519822000034,41.01573725800006],[45.36899494900007,41.00234863600008],[45.35327844100004,41.00042820300007],[45.33147812400006,41.00158047000008],[45.314747648000036,41.00810959300003],[45.29852415700003,41.01962998700003],[45.277230823000025,41.031916169000056],[45.26100733100003,41.034987354000066],[45.24376987200003,41.03460346300005],[45.21892765000007,41.03652289100006],[45.204732094000065,41.04496770700007],[45.19256447500004,41.06108659400007],[45.17482003100008,41.06760977400006],[45.15048479400008,41.06492383700004],[45.136796222000044,41.06223779000004],[45.11499590500006,41.06300524300008],[45.089139715000044,41.06607496600003],[45.06531146100008,41.06607496600003],[45.045539080000026,41.07566691900007],[45.05060892200004,41.09523013100005],[45.058720667000046,41.10021589300004],[45.08153495300007,41.107885553000074],[45.09370257200004,41.11517089200004],[45.111954,41.12168866400003],[45.134768285000064,41.12168866400003],[45.15251273000007,41.12283879100005],[45.16163844400006,41.12552234300006],[45.17988987200005,41.12935579600003],[45.19205749100007,41.13817188200005],[45.19205749100007,41.14737000200006],[45.19205749100007,41.148519676000035],[45.19345676700004,41.16018388300006],[45.18826525000003,41.17023702700004],[45.17593539600006,41.178327453000065],[45.15873849500008,41.18617175400004],[45.14770652000004,41.19327983300008],[45.130509619000065,41.20332786000006],[45.11201483900004,41.205778362000046],[45.096440286000075,41.20675853700004],[45.084434902000055,41.20185751400004],[45.063019893000046,41.19597579800006],[45.04387617300006,41.19769135300004],[45.028301621000026,41.20063220000003],[45.01402494700005,41.204063020000035],[45.01240259800005,41.216314469000054],[45.01434941700006,41.23199295100005],[45.02116328400007,41.23787140400003],[45.02959949900003,41.248402302000045],[45.031221849000076,41.26089022000008],[45.031221849000076,41.27313094200008],[45.029275030000065,41.27876089700004],[45.01889199500005,41.292956004000075],[45.02246116400005,41.30323327600007],[45.03251972800007,41.31008388500004],[45.04517405100006,41.31619988700004],[45.06009966400006,41.32182609800003],[45.083785963000025,41.326473468000074],[45.09612282900008,41.332995002000075],[45.09742573700004,41.343142052000076],[45.10945670700005,41.35825156300007],[45.119705312000065,41.370336630000054],[45.13262746600003,41.380405790000054],[45.14243047900004,41.38879555700004],[45.158917365000036,41.40087490600007],[45.158917365000036,41.41429375200005],[45.158917365000036,41.42536219800007],[45.16916597000005,41.431734077000044],[45.19010877100004,41.436093421000066],[45.21194275500005,41.440452470000025],[45.22709286700007,41.450510688000065],[45.24135179500007,41.460902529000066],[45.25026362500006,41.46995212100006],[45.28100943900006,41.46660056800005],[45.32289504200003,41.461572913000055],[45.33849074400007,41.45855613100008],[45.35453203900005,41.44849917000005],[45.371018925000044,41.436764063000055],[45.38884258500008,41.43039268100006],[45.41290452700008,41.433410783000056],[45.43919442600003,41.441123066000046],[45.45835486100003,41.44984018900004],[45.47796088700005,41.45017543900008],[45.49667573100004,41.44145836300004],[45.511825843000054,41.433410783000056],[45.537670150000054,41.422343719000025],[45.55415703600005,41.41194565600006],[45.55905854300005,41.39852632100008],[45.56217768300007,41.39114449600004],[45.576882203000025,41.38376182800005],[45.591141132000075,41.38711769100007],[45.60762801800007,41.39684870800005],[45.63124436800007,41.39651317900007],[45.65085039500008,41.38980225600005],[45.67223878600004,41.37805645900005],[45.679813843000034,41.37235058700003],[45.69897427800004,41.368993956000054],[45.712787615000025,41.368993956000054],[45.72267974600004,41.37227003000004],[45.74150153100004,41.36818833800004],[45.75633081700005,41.35809041400006],[45.75461974500007,41.350784549000025],[45.73579796000007,41.34885050500003],[45.73237581700005,41.34390768500003],[45.71868724600006,41.33788983000005],[45.709276353000064,41.32735723400003],[45.70357278200004,41.32047787700003],[45.702432068000064,41.31252271000005],[45.693306353000025,41.30026553700003],[45.69729885400005,41.291447539000046],[45.70357278200004,41.28650033100007],[45.71868724600006,41.276174506000075],[45.732090639000035,41.26756839400008],[45.74577921000008,41.25960672300005],[45.76830831700005,41.248846154000034],[45.776863674000026,41.245187154000064],[45.79026706600007,41.23593111400004],[45.79149885900006,41.23497309000004],[45.79425956700004,41.23507002000008],[45.80937403000007,41.23270195200007],[45.82505885100005,41.22624314600006],[45.839317780000044,41.22193691800004],[45.85300635200008,41.22042967100003],[45.86983188700003,41.21633839500004],[45.88095385100007,41.21052403300007],[45.894072065000046,41.20363226300003],[45.902912600000036,41.20040149400006],[45.920878850000065,41.19286240800005],[45.925726886000064,41.195662742000025],[45.93884510000004,41.18769224300007],[45.95766688600003,41.18295256400006],[45.97135545700007,41.181444412000076],[45.991317956000046,41.18489156600003],[46.010139742000035,41.19200074300005],[46.02553938500006,41.19243157600005],[46.043790813000044,41.19630895600005],[46.05662384900006,41.19695516300004],[46.072879027000056,41.188984823000055],[46.08514170600006,41.18209076800008],[46.09569331200004,41.181228959000066],[46.106753222000066,41.182803222000075],[46.106981596000026,41.186253805000035],[46.10968702000008,41.193260741000074],[46.11509786600004,41.19734777100007],[46.13171689400008,41.20347783400007],[46.14949538900004,41.20347783400007],[46.16843335200008,41.201726447000055],[46.183119935000036,41.19793161100006],[46.19780651800005,41.198515446000044],[46.212493101000064,41.200266921000036],[46.22756617300007,41.200266921000036],[46.24263924500008,41.200266921000036],[46.256166361000055,41.198515446000044],[46.27085294500006,41.19559621800005],[46.288244950000035,41.18333402500008],[46.311047804000054,41.17106951900007],[46.320308080000075,41.159912648000045],[46.33020220000003,41.154117331000066],[46.336880730000075,41.148508467000056],[46.342322496000065,41.14159020200003],[46.347516909000035,41.135980258000075],[46.35493749800003,41.12906066200003],[46.36458426400003,41.122140330000036],[46.37596250000007,41.11147783900003],[46.38659867800004,41.10455563900007],[46.39921368000006,41.101936237000075],[46.407376329000044,41.102684648000036],[46.420238684000026,41.10605239400007],[46.43384309800007,41.10605239400007],[46.453136630000074,41.103807249000056],[46.46303074900004,41.09856827900006],[46.46500957200004,41.08977334600007],[46.47020398500007,41.074800519000064],[46.472924868000064,41.065066338000065],[46.48331369300007,41.065066338000065],[46.49766016500007,41.06750001900008],[46.502359873000046,41.075174881000066],[46.511511933000065,41.08079006200006],[46.516706345000046,41.08883764500007],[46.52437428800005,41.096322877000034],[46.531547524000075,41.10362015100003],[46.539957525000034,41.11166491600005],[46.54539929100008,41.11671577200008],[46.55504605700003,41.120456895000075],[46.571124,41.122327376000044],[46.58645988500007,41.12139214200005],[46.59907488600004,41.11615458500006],[46.61045312400006,41.109607047000054],[46.62133665500005,41.102684648000036],[46.627767832000075,41.101749133000055],[46.63642518700004,41.10680075800008],[46.64656665900003,41.114658063000036],[46.65486066700004,41.11907722300003],[46.65482479700006,41.12002661200006],[46.662638694000066,41.12962800500003],[46.65384806000003,41.14328908500005],[46.66019685100008,41.15473264700006],[46.66801074800003,41.16691229300005],[46.66947585300005,41.18351722500006],[46.666545642000074,41.19938019700004],[46.66996422300008,41.21560806700006],[46.67826648700003,41.227776308000045],[46.69194080700004,41.23773044500007],[46.69926633600005,41.24362847100008],[46.71098718200005,41.249894537000046],[46.725638238000045,41.25358017600007],[46.72954518600005,41.265741295000055],[46.73687071400008,41.28305774000006],[46.72954518600005,41.29594995600007],[46.710498812000026,41.30184268600004],[46.69340591400004,41.30920784500006],[46.692429176000076,41.32540824200004],[46.681196699000054,41.337555878000046],[46.667034012000045,41.34638908900007],[46.658243378000066,41.354117158000065],[46.65091784900005,41.36736312600004],[46.65146482200004,41.37457367700006],[46.65176909400003,41.37491173700005],[46.64083792200006,41.37504454200007],[46.63646214000005,41.37669254300005],[46.62427246000004,41.38281332100007],[46.61270789300005,41.389875036000035],[46.591141538000045,41.39387633200005],[46.57895185900003,41.39387633200005],[46.564261732000034,41.39505313600006],[46.549259050000046,41.395288494000056],[46.53706937100003,41.39717133000005],[46.527067584000065,41.40681999900005],[46.51769090700003,41.41152614300006],[46.50143800200004,41.41623194400006],[46.48018420200003,41.42658349700008],[46.46299362900004,41.433405202000074],[46.44986628200007,41.44939809200008],[46.44611561200003,41.45457141300005],[46.43830171500008,41.46139015400007],[46.42798737100003,41.46562211300005],[46.42173625400005,41.46938362100008],[46.412359577000075,41.47337998200004],[46.40204523300008,41.47432026600006],[46.39016811000005,41.47831632000003],[46.38360443600004,41.484192420000056],[46.366101307000065,41.48607265800007],[46.35859996700003,41.49124303100007],[46.34734795500003,41.49429805600005],[46.33890894600006,41.50064264300005],[46.33297038500007,41.51074569300005],[46.32859460200007,41.52084715500007],[46.32359370800003,41.52906810200005],[46.31671747900003,41.537757674000034],[46.311716585000056,41.54409797000005],[46.30827847100005,41.55184637100007],[46.30702824700006,41.562176116000046],[46.30796591500007,41.57015705300006],[46.32484393200008,41.575320659000056],[46.337971278000055,41.57344303200006],[46.33802061100005,41.57342995700003],[46.33677423100005,41.58125735300007],[46.333642507000036,41.59069648000008],[46.324028842000075,41.59496106100005],[46.315726131000076,41.59889734500007],[46.30625812800008,41.60316137900003],[46.29984901700004,41.60425467500005],[46.28673947400006,41.605347953000035],[46.27770845400005,41.608955637000065],[46.266929496000046,41.61518661300005],[46.25760715400003,41.615842470000075],[46.25148936700003,41.61059542600003],[46.24639121200005,41.605129299000055],[46.24012776300003,41.59966270500007],[46.22774652700008,41.59824131400006],[46.21900683200005,41.60250539200007],[46.21303470600003,41.60753445300003],[46.208664859000066,41.61813791700007],[46.204586334000055,41.62819318800007],[46.20400368700007,41.63955811300008],[46.20633427300004,41.64698793400004],[46.20502331800003,41.654526135000026],[46.205897288000074,41.65856799300008],[46.20516898000005,41.66468491300003],[46.20079913200004,41.66916300100007],[46.19526399200004,41.67495128500008],[46.19599173000006,41.68274808500007],[46.19243553900003,41.69154489700003],[46.184611919000076,41.704604594000045],[46.17749953600003,41.716062943000054],[46.178922012000044,41.73124874600006],[46.17856639400003,41.74589828500007],[46.17856639400003,41.75708293900004],[46.19848106400008,41.76826563000003],[46.215550783000026,41.77279139900003],[46.23582107300007,41.77944635700004],[46.25431326800003,41.78317283000007],[46.26178126900004,41.78476982300003],[46.28809708500006,41.792754186000025],[46.29769880200007,41.79727821400007],[46.31156794800006,41.80366453000005],[46.322236522000026,41.80951808900005],[46.33503881000007,41.81749934700008],[46.34712986000005,41.82148960000006],[46.35815405400007,41.831331153000065],[46.37842434400005,41.835320538000076],[46.38446986900004,41.844362216000036],[46.38767044100007,41.850212027000055],[46.39727215800008,41.861644194000064],[46.40323233400005,41.87399925400007],[46.404825508000044,41.88012272900005],[46.40892224100003,41.89049726700006],[46.41256378000003,41.90018997400006],[46.41279137600003,41.91107124800004],[46.41256378000003,41.917191143000025],[46.42075724500006,41.921440723000046],[46.44328927300006,41.92093078900007],[46.45785543300008,41.919400960000075],[46.46764207100006,41.917021154000054],[46.47560793900004,41.91192126900006],[46.48061505700008,41.90733102100006],[46.48539457800007,41.90359057300003],[46.49700198600004,41.89899972200004],[46.507243817000074,41.89763940600005],[46.52112718800004,41.89491868600004],[46.52454113200008,41.89219784900007],[46.53933488700005,41.88488502200005],[46.544569601000035,41.87570027800007],[46.54274883100004,41.86413241200006],[46.54047286900004,41.851541455000074],[46.539790080000046,41.838607602000025],[46.54525239000003,41.82550088200003],[46.550714699000025,41.81681831800006],[46.56050133800005,41.81460492600007],[46.57825384500006,41.81749934700008],[46.59623394800008,41.82652228200004],[46.60738616400005,41.83350141000005],[46.61649001400008,41.84030957600004],[46.645849929000065,41.84541522100005],[46.65722974100004,41.84286245000004],[46.67179590100005,41.838607602000025],[46.68886561900007,41.83724599100003],[46.70365937500003,41.84507485800003],[46.713218417000064,41.85647604600007],[46.72095668900005,41.86072969600008],[46.72755698000003,41.86583370100004],[46.74485429500004,41.86566357400005],[46.74627717300007,41.86064928600007],[46.74712645400007,41.861394579000034],[46.75494035100007,41.85482284100004],[46.765684459000056,41.833277373000044],[46.771056513000076,41.82085802100005],[46.772736501000054,41.80842162700003],[46.77054861000005,41.80210750900005],[46.77492439200006,41.794623297000044],[46.78617640300007,41.78643643400005],[46.792427522000025,41.778482471000075],[46.80461720000005,41.768655616000046],[46.82430822100008,41.76608166500006],[46.82680866800007,41.75648693200003],[46.83399745300005,41.74923141800008],[46.84399924100006,41.740336435000074],[46.85212569400005,41.734483795000074],[46.85181313700008,41.72863061900006],[46.86275259400003,41.72558675400006],[46.87025393400006,41.72160609700006],[46.87650505100004,41.723947690000045],[46.890570066000066,41.732376713000065],[46.905572748000054,41.73050369400005],[46.913074090000066,41.723947690000045],[46.92026287500005,41.71528336600005],[46.92838932700005,41.706617865000055],[46.92745166000003,41.69443733400004],[46.92713910400005,41.68412891500003],[46.934953,41.67850544000004],[46.942454342000076,41.67217843800006],[46.95339379700005,41.66538207200006],[46.965896032000046,41.65741299800004],[46.979648490000045,41.651552751000054],[46.99152561400007,41.64686416600006],[46.99965206600007,41.641706326000076],[47.007778519000055,41.63232736900005],[47.00684085200004,41.62153986900006],[47.00590318400003,41.61755272400006],[46.99996462300004,41.60863938500006],[47.001202344000035,41.59861743300007],[47.00800356000008,41.59306151800007],[47.018205383000065,41.58570294300006],[47.021806027000025,41.57729210800005],[47.02860724300007,41.566476556000055],[47.03680870900007,41.56302120400005],[47.050611177000064,41.558363694000036],[47.057390455000075,41.553744033000044],[47.06341346500005,41.55701145100005],[47.071214860000055,41.56347191200007],[47.082616898000026,41.57008194300005],[47.090818365000075,41.575339435000046],[47.105100605000075,41.585895952000044],[47.12170513600006,41.58259594300006],[47.13147250700007,41.56976096400007],[47.14221661500005,41.55802387500006],[47.149542144000065,41.54885278200004],[47.162728094000045,41.53527715600006],[47.172983834000036,41.519863507000025],[47.18665815400004,41.50334477700005],[47.20033247300006,41.48645457500004],[47.20961147500003,41.473967661000074],[47.20961147500003,41.45927407000005],[47.21046733900005,41.44832794300004],[47.21186532200005,41.44824703300003],[47.225144630000045,41.43870922800005],[47.22967166700005,41.43030570500008],[47.22786085200005,41.42167391900006],[47.22605003800004,41.41190497800005],[47.22605003800004,41.402816262000044],[47.233293297000046,41.39054446200004],[47.24989243200008,41.387362504000066],[47.25955011100007,41.383498486000065],[47.26528435900008,41.370995667000045],[47.26830238300005,41.35803564400004],[47.26830238300005,41.348939339000026],[47.270415,41.337112227000034],[47.275545643000044,41.32733048100005],[47.28580692600008,41.31959502900003],[47.29637001300006,41.31231375900006],[47.29853759700006,41.30751278900004],[47.313572753000074,41.303666186000044],[47.32956828400006,41.300707540000076],[47.347072827000034,41.28773342100004],[47.37121702400003,41.27908256300003],[47.38872156700006,41.27020285000003],[47.402431688000036,41.266461347000075],[47.40249043400007,41.26717053500005],[47.41815908600006,41.26376023600005],[47.43714225800005,41.26694318700004],[47.45130430900008,41.272626642000034],[47.45943995500005,41.26853460500007],[47.469383522000044,41.25693909700004],[47.47631388700006,41.26125923400008],[47.49137989700006,41.26807991800007],[47.49680366100006,41.267852574000074],[47.50162478400006,41.26421495200003],[47.505843267000046,41.253983048000066],[47.50644590700006,41.246706044000064],[47.50403534600008,41.23442424800004],[47.50403534600008,41.229192408000074],[47.517896076000056,41.21781738400006],[47.52633304200003,41.215087082000025],[47.53597528900008,41.20894348100006],[47.54260433300004,41.20143384800008],[47.56158750600008,41.200523530000055],[47.56188882600003,41.208033269000055],[47.57785879800008,41.214859552000064],[47.58599444300006,41.214859552000064],[47.59895121300008,41.21758986300006],[47.60437497600003,41.21645224700006],[47.61220930200005,41.223050142000034],[47.612811943000054,41.227600024000026],[47.621550228000046,41.234651711000026],[47.62757663300005,41.23169464500006],[47.643245284000045,41.22896492600006],[47.65228489000003,41.22350514500005],[47.66463901900005,41.22236763300003],[47.678499749000025,41.224415140000076],[47.694168399000034,41.228054995000036],[47.70531724700004,41.21895497600008],[47.72038325800003,41.20848837700004],[47.729121544000066,41.20507499100006],[47.742078313000036,41.189143483000066],[47.746193994000066,41.187554402000046],[47.74840603800004,41.18804178800008],[47.755734145000076,41.192412036000064],[47.761133803000064,41.189789923000035],[47.76769053100003,41.187022022000065],[47.773861569000076,41.18658497400003],[47.784252363000064,41.18734508500006],[47.786385073000076,41.18925453300005],[47.79009757000006,41.19253626400007],[47.79112443100007,41.19456488700007],[47.79167735600004,41.19730939500005],[47.79381006700004,41.20035208300004],[47.794520970000065,41.20291737600007],[47.796179745000074,41.20536325900008],[47.79933931700003,41.20715287100006],[47.80194596300004,41.209002084000076],[47.80621138400005,41.21031439800004],[47.80810712700003,41.21264070600006],[47.810397816000034,41.216875566000056],[47.81363637700008,41.21920164000005],[47.817427863000034,41.21955949000005],[47.82382599500005,41.22003662000003],[47.82967120200004,41.21944020700005],[47.83456853700005,41.218366649000075],[47.840413745000035,41.215980900000034],[47.84847065200006,41.21592125600006],[47.85110124800008,41.21578520300005],[47.849552696000046,41.21726402500008],[47.86304704300005,41.21964591400007],[47.87724239500005,41.21819032600007],[47.88688121400003,41.222292355000036],[47.892664506000074,41.22956951000003],[47.89879830000007,41.23327393000005],[47.899181662000046,41.24518782900003],[47.89945549200007,41.26006679400007],[47.89945549200007,41.271223778000035],[47.89945549200007,41.28630331200003],[47.89476752100006,41.29172282400003],[47.90142706900008,41.298992189000046],[47.91649867800004,41.300974601000064],[47.92210671700008,41.30665718000006],[47.93477957400006,41.31314858500008],[47.95915045300006,41.32202572500006],[47.963257904000045,41.32904399600005],[47.952030870000044,41.34101458400005],[47.950935550000054,41.350919601000044],[47.95887662300004,41.357315784000036],[47.96900833700005,41.35772842000006],[47.97640174900005,41.358553682000036],[47.98680729300003,41.36763087400004],[47.99392687500006,41.37278780200006],[48.000224967000065,41.38165675300007],[48.001046458000076,41.39299898500008],[48.001320287000055,41.40124662800008],[48.00460624800007,41.40598854600006],[48.00405858900007,41.414234529000055],[48.00405858900007,41.42371610500004],[48.00460624800007,41.430105076000075],[48.01419030200003,41.433196286000054],[48.03308457800006,41.435463080000034],[48.042668631000026,41.44329320600008],[48.05204731200007,41.45794638000007],[48.05033587500003,41.46985445400003],[48.06616667600008,41.487551574000065],[48.079430322000064,41.50041914800005],[48.08798751300003,41.49398568300006],[48.10253473600005,41.49623746900005],[48.12007697700005,41.508781690000035],[48.12906202700003,41.51360573900007],[48.158156475000055,41.51585683700006],[48.18511162400006,41.51585683700006],[48.207788178000044,41.518107858000064],[48.22019610500007,41.52936177400005],[48.24158908100003,41.54414963600004],[48.25656416400005,41.55443483500005],[48.27196710800007,41.56311169000003],[48.294643662000055,41.57242996600007],[48.30619586900008,41.57789177500007],[48.32205341300005,41.58945642200007],[48.358822590000045,41.60300608700004],[48.385563811000054,41.62859207900004],[48.401608543000066,41.63912451600004],[48.423670049000066,41.65266367100003],[48.43503506800005,41.66419476500005],[48.449742739000044,41.67873100500003],[48.463781880000056,41.69476715700006],[48.47314130700005,41.70829452800007],[48.48718044700007,41.72131817400003],[48.49988252700007,41.729832198000054],[48.50656783200003,41.734839917000045],[48.51110776400003,41.737220267000055],[48.508462131000044,41.73758580300006],[48.51818492700005,41.74606146700006],[48.52870467300005,41.75644560200004],[48.53794929800006,41.76861795100007],[48.552453797000055,41.78520201300006],[48.55436647800008,41.795460493000064],[48.559307570000044,41.800469847000045],[48.56950853700005,41.80583657500006],[48.576362311000025,41.81251453600004],[48.57620292100006,41.82634522500007],[48.58353486500005,41.83778903700005],[48.59430365800006,41.842735463000054],[48.61298218400003,41.82969811800007],[48.65133542600006,41.80398808600006],[48.68396058600007,41.772861317000036],[48.71334813400006,41.74526319100005],[48.738501883000026,41.720451972000035],[48.75468993900006,41.69955082600006],[48.77311941900007,41.678456123000046],[48.806989814000076,41.64801520700007],[48.820687400000054,41.633069575000036],[48.83250219000007,41.61940621300005],[48.847325469000054,41.61043524300004],[48.85704826500006,41.59655766600008],[48.87458117500006,41.58040325300004],[48.88557909100007,41.57011017000008],[48.90215566100005,41.55107558200007],[48.92255759200003,41.53455041800004],[48.93546819100004,41.52269278800003],[48.947804983000026,41.50903104300005],[48.96096423000006,41.49561085700003],[48.967492847000074,41.48916817300005],[48.979529987000035,41.47443961300007],[48.99105707900003,41.461242414000026],[49.00503240200004,41.446660966000024],[49.013569336000046,41.433870702000036],[49.02440786300008,41.42343415400006],[49.033493097000076,41.41215598300005],[49.047360035000054,41.39811550300004],[49.06138636400004,41.38095076600007],[49.07748476300003,41.359938756000076],[49.080194395000035,41.354534562000026],[49.07912446600005,41.354595791000065],[49.08337582100006,41.35095553600007],[49.09408683600003,41.33388878300008],[49.10255363700003,41.32035518200007],[49.11331764900007,41.30413371800006],[49.127264282000056,41.275393973000064],[49.13448664500004,41.25942193700007],[49.13896949200006,41.236866478000024],[49.13958314300004,41.22507858100005],[49.14254142400006,41.20751640200007],[49.14621377100008,41.18756061900007],[49.14992756100003,41.179314549000026],[49.14706711500003,41.18014086200003],[49.14841335400007,41.17437700200003],[49.152238717000046,41.16389852800006],[49.16004883200003,41.15064746500008],[49.16362514700006,41.142800961000034],[49.16711180500005,41.12133496200005],[49.17184369800003,41.103817983000056],[49.17758174100004,41.09243130700003],[49.18347917500006,41.081819033000045],[49.18937660900008,41.06444976900008],[49.19941818400008,41.04743788300004],[49.20356232600005,41.03766309300005],[49.20977854100005,41.026800500000036],[49.220776457000056,41.014366650000056],[49.22874596100007,41.003137937000076],[49.23634687600003,40.996541679000075],[49.24705589900003,40.989937207000025],[49.260753485000066,40.98031235500008],[49.27420202300004,40.96747701700008],[49.285658186000035,40.96143598700007],[49.299853866000035,40.95105166500008],[49.30807241800005,40.94123224700007],[49.31753620500007,40.92801147600005],[49.324260475000074,40.917621858000075],[49.33472045000008,40.90987579800003],[49.34941422300005,40.901372973000036],[49.36012324600006,40.89627074900005],[49.363177033000056,40.89234915700007],[49.36516730500006,40.89189802000004],[49.36810518300007,40.890956698000025],[49.370912488000045,40.888628107000045],[49.37404622500003,40.884912099000076],[49.38054510200004,40.87755920200004],[49.39324649900004,40.86527094500008],[49.40146505100006,40.85846415100008],[49.414913590000026,40.84787440500003],[49.43682972800008,40.84106581000003],[49.45276873700004,40.83822868800007],[49.46970393500004,40.83690465500007],[49.48464675500003,40.834634823000044],[49.49386149600008,40.831986587000074],[49.50631384600007,40.826122257000065],[49.51801905700006,40.81874380800008],[49.525739514000065,40.809472277000054],[49.53370901900007,40.80133496000008],[49.54391994700006,40.78960031400004],[49.54192757100003,40.78202846600004],[49.53221473600007,40.77313043300006],[49.523996185000044,40.763663121000036],[49.51652477400006,40.752300553000055],[49.51727191500004,40.74339850800004],[49.51503049200005,40.726159221000046],[49.512141547000056,40.71475987400004],[49.512141547000056,40.70699749200003],[49.51819837000005,40.69862765200003],[49.522501903000034,40.68831552300003],[49.522501903000034,40.676181547000056],[49.53286225900007,40.65736948500006],[49.53181652500007,40.65692892700008],[49.53540904100004,40.65019816900008],[49.53529470400008,40.64952567900008],[49.538248096000075,40.64822477600006],[49.545178461000035,40.638998007000055],[49.54957773500007,40.63555485300003],[49.55566440400003,40.631836047000036],[49.56325767300007,40.62802520100007],[49.570429094000076,40.62577532100005],[49.57766078000003,40.624214136000035],[49.58621827300004,40.621321254000065],[49.595197616000064,40.61939259500008],[49.59959689000004,40.61810679200005],[49.60646699100005,40.61787718200003],[49.61134837900005,40.61622396300004],[49.61851980000006,40.61567288200007],[49.62424488400006,40.61461662800008],[49.62767993400007,40.61346850900003],[49.63232026600008,40.613238882000076],[49.637261917000046,40.613101106000045],[49.64449360200007,40.61388183400004],[49.65425637700008,40.61241222000007],[49.66100595000006,40.612963329000024],[49.66661050500005,40.61291740300004],[49.675367624000046,40.60741184500006],[49.68252397900005,40.604469427000026],[49.685160531000065,40.60152687900006],[49.68365393100004,40.59686159600005],[49.68581966900007,40.590832129000034],[49.69137526000003,40.58602251900004],[49.69655420200007,40.581643316000054],[49.70568797000004,40.578484368000034],[49.71050461400006,40.575198331000024],[49.716149666000035,40.57532876700003],[49.72597656200003,40.57548819400006],[49.734169774000065,40.573128042000064],[49.74287776500006,40.573826997000026],[49.753653815000064,40.57375852200005],[49.76460946600008,40.57505953100008],[49.77430791200004,40.57670287500008],[49.78014494000007,40.57690829100005],[49.78777797500004,40.572594439000056],[49.79478240800006,40.57019773300004],[49.80412165200005,40.568280307000066],[49.81444870100006,40.56759549800006],[49.82755956200003,40.56786942300005],[49.840311221000036,40.56889662900005],[49.85108727200003,40.569581424000035],[49.856295697000064,40.57012925500004],[49.90640305900007,40.575666495000064],[49.937233588000026,40.58193508000005],[49.95881495700007,40.58559148100005],[49.98964548500004,40.59394821300003],[49.99889464300003,40.58794191900006],[50.021161136000046,40.58741960700007],[50.051649102000056,40.59368708200003],[50.06877717300006,40.59447047400005],[50.06295362900005,40.584807984000065],[50.06637924300003,40.57906205200004],[50.073230471000045,40.57174833000005],[50.082479629000034,40.563911304000044],[50.089673420000054,40.556073353000045],[50.09823745500006,40.54692790900003],[50.10474612200005,40.53490626700005],[50.11399528000004,40.528110465000054],[50.13112335200003,40.52288245200003],[50.14516836900003,40.517392596000036],[50.16263900200005,40.51425533200006],[50.183535249000045,40.51007208400006],[50.201691004000054,40.50798036100008],[50.21779139100005,40.50327374300008],[50.23012360100006,40.497520759000054],[50.24348349700006,40.488628806000065],[50.245196304000046,40.47790457700006],[50.25033472500007,40.46508555100007],[50.26403718300003,40.45304912000006],[50.275684271000046,40.44493638500006],[50.28185037600008,40.443627787000025],[50.284933429000034,40.43394336500006],[50.29658051700005,40.42478113100003],[50.31062553500004,40.41980681900003],[50.32398543100004,40.41614130000005],[50.33323458900003,40.408547799000075],[50.340085818000034,40.39964397400007],[50.34522423800007,40.38916736600004],[50.35002009900006,40.38078489700007],[50.359611819000065,40.370043321000026],[50.36680560800005,40.35825180200004],[50.363037433000045,40.344099234000055],[50.36235231000006,40.334400376000076],[50.36235231000006,40.32286477000008],[50.35687132700008,40.31211389400005],[50.356528766000054,40.30241040400006],[50.36098206400004,40.29034464600005],[50.36577792400004,40.28247450300006],[50.36695140200004,40.27886610200005],[50.36891578700005,40.27542710900008],[50.36582889700003,40.27048324800006],[50.36639015000003,40.26725879500003],[50.366811089000066,40.26306677500003],[50.36582889700003,40.25908948700004],[50.366942633000065,40.25153064800003],[50.36979274400005,40.24716293100005],[50.37571220500007,40.24413896100003],[50.37615068400004,40.23523425600007],[50.37615068400004,40.230025298000044],[50.37549296600008,40.228176861000065],[50.366942633000065,40.23220974900005],[50.364750240000035,40.239266721000035],[50.36233860700003,40.24632295300006],[50.36036545400003,40.25203459700003],[50.357296104000056,40.25774575600008],[50.357296104000056,40.26614363600004],[50.357296104000056,40.27840265400005],[50.352692078000075,40.28730163400007],[50.34545718100003,40.29619943300003],[50.33931848000003,40.30375324100004],[50.33383749800004,40.308117276000075],[50.32528716400003,40.31332017600005],[50.31322900200007,40.31902611900006],[50.30160931900008,40.325402774000054],[50.28363169600004,40.33127547200007],[50.27442364400008,40.33513439300003],[50.252499714000066,40.34234830100007],[50.24088003000003,40.34603883700004],[50.230673652000064,40.348575123000046],[50.21486877700005,40.35180425500005],[50.20526013300008,40.35345311300006],[50.194394282000076,40.35414012500007],[50.18658164400006,40.35475843000006],[50.182001823000064,40.35482712900006],[50.176793399000076,40.35736898700003],[50.17257277900006,40.35901770800007],[50.166556150000076,40.36039161000008],[50.16251513200007,40.36114724500004],[50.156678105000026,40.36183417800004],[50.15191868200003,40.36245241200004],[50.147698062000075,40.36375755300003],[50.14446524700003,40.36540611600003],[50.13808941700006,40.36698595200005],[50.13207278900006,40.36719201400007],[50.12659496300006,40.36767282500006],[50.116627117000064,40.367741512000066],[50.11141869200003,40.36691726400005],[50.10046304100007,40.365474806000066],[50.096242421000056,40.363894935000076],[50.08995639200003,40.361765486000024],[50.08645417500003,40.35881162000004],[50.08546637000006,40.356475913000054],[50.08492756800007,40.35317830500003],[50.08304175900008,40.34988053500007],[50.081784553000034,40.347338394000076],[50.07873133900006,40.35084240200007],[50.07801293500006,40.35269739100005],[50.07280451100007,40.35201036400008],[50.07100850200004,40.35036147100004],[50.070110499000066,40.348781243000076],[50.06930229500006,40.34836900300007],[50.06651848200005,40.35063628900008],[50.06499187500003,40.35310960400005],[50.06292646500003,40.35462102900004],[50.05511382900005,40.35475843000006],[50.04999520500007,40.355857624000066],[50.04739099200003,40.355857624000066],[50.04038655900007,40.353796620000026],[50.03320252600008,40.35352181400003],[50.02943090700006,40.34926218600003],[50.020630467000046,40.34823159000007],[50.014344437000034,40.34541454600003],[50.00958501500003,40.341841541000065],[50.005813397000054,40.340261112000064],[49.999347767000074,40.33895551200004],[49.995665950000046,40.33854321200005],[49.98578790300007,40.33909294500006],[49.97824466800006,40.33964267300007],[49.969803428000034,40.339573958000074],[49.96279899600006,40.337649887000055],[49.95750077100007,40.33744373300004],[49.95462715700006,40.340535972000055],[49.95094534000003,40.34603293200007],[49.94320566700003,40.34739421900008],[49.937031887000046,40.35362057200007],[49.93085810800005,40.35684087200008],[49.92412307700005,40.36016835300006],[49.91682679300004,40.364354304000074],[49.91037238800004,40.36650084400003],[49.90237453800006,40.36853999200008],[49.891570424000065,40.37068639700004],[49.88413382700003,40.372081524000066],[49.87624121200008,40.37294004900008],[49.869050162000065,40.37133030600006],[49.86256067900007,40.370257122000055],[49.85782511000008,40.37119615900008],[49.851160235000066,40.36945222300005],[49.84940632000007,40.36274435400003],[49.850107886000046,40.35603581200007],[49.858526675000064,40.34811886800003],[49.85905285000007,40.34476394700005],[49.851160235000066,40.34140885900007],[49.84572310000004,40.33859045500003],[49.84274144500006,40.33000030100004],[49.84256605300004,40.32463089500004],[49.83747970200005,40.31335374200006],[49.83572578800005,40.30852009500006],[49.829060913000035,40.30274611600004],[49.82099290600007,40.30234326200008],[49.810294027000054,40.30100039600006],[49.803979936000076,40.30462607100003],[49.79538575500004,40.30462607100003],[49.78644079000003,40.30341753500005],[49.77977591600006,40.30059753100005],[49.76855086300003,40.297508820000076],[49.758378159000074,40.29441996800006],[49.75416876400004,40.29012219600003],[49.74469762600006,40.28703300300003],[49.73557727100007,40.28421231100003],[49.73084170200008,40.28071986000003],[49.72119517200008,40.278301904000045],[49.71049629500004,40.27816757100004],[49.70120054800003,40.27883923500008],[49.690150886000026,40.277361564000046],[49.683135228000026,40.27319704300004],[49.67682113600006,40.26782308600008],[49.673488699000075,40.26352361000005],[49.666648432000045,40.25734263100003],[49.66015894900005,40.253714400000035],[49.652617117000034,40.24847327600003],[49.645601459000034,40.24645735000007],[49.63876119200006,40.24686054000006],[49.63157014300003,40.24457576400005],[49.62543144300008,40.24215650600007],[49.62034509000006,40.23946833800005],[49.603715789000034,40.233553991000065],[49.592753824000056,40.226202337000075],[49.57384443300003,40.21905996000004],[49.55794958300004,40.21233703000007],[49.54506927400007,40.20729439100006],[49.53684780000003,40.203302034000046],[49.520678900000064,40.19720797900004],[49.50999098400007,40.19195404000004],[49.50067331400004,40.18543858700008],[49.48971134800007,40.18270611100007],[49.48148987400003,40.17513868000003],[49.47217220300007,40.16357568300003],[49.47326840000005,40.15180041000008],[49.47655699000006,40.13960242200005],[49.48313416900004,40.129085143000054],[49.488801505000026,40.11865879800007],[49.49073081100005,40.11340714700003],[49.48476750200007,40.11327248400005],[49.47547175500006,40.11084850300006],[49.467754531000026,40.10828976100004],[49.45845878400007,40.10626963300007],[49.44951382100004,40.10371071800006],[49.43706102800007,40.09940074600007],[49.43074693600005,40.09387819400007],[49.428642239000055,40.08822047600006],[49.429869979000046,40.08175393300007],[49.42969458700003,40.071918210000035],[49.42951919600006,40.06612389600008],[49.433728590000044,40.055207676000066],[49.44274617700006,40.03580408300007],[49.462015258000065,40.02955004300003],[49.48470995100007,40.01736946500006],[49.49284578500004,40.00419880600003],[49.48385354800007,39.994648478000045],[49.46073065200005,39.990037493000045],[49.452166617000046,39.983779225000035],[49.44103337100006,39.976202654000076],[49.42947192300005,39.96005844100006],[49.421764290000056,39.950501892000034],[49.41491306200004,39.93896633400004],[49.41362845700007,39.92545075900006],[49.41362845700007,39.90962422800004],[49.423477097000045,39.89676245800007],[49.42861551900006,39.87664045100007],[49.43024268600004,39.86688738300006],[49.42887244000008,39.856750102000035],[49.420376917000056,39.848934917000065],[49.41023709900003,39.84386512900005],[49.407770656000025,39.83604846600008],[49.40009728000007,39.83013255800006],[49.399001084000076,39.81893318200008],[49.39324605300004,39.81111365900006],[49.38995746200004,39.80265911300006],[49.386548291000054,39.79120153000008],[49.38760064000007,39.77983506100003],[49.387776031000044,39.77090293500004],[49.389705337000066,39.76318788700007],[49.39128386100003,39.754388962000064],[49.39496708100006,39.739631297000074],[49.40215813000003,39.73218356000007],[49.40847222300005,39.71958826700006],[49.41373396600005,39.712409268000044],[49.421626580000066,39.70035227300008],[49.41250622500007,39.697100585000044],[49.40461361000007,39.694526222000036],[49.39496708100006,39.69086775100004],[49.38233889700007,39.68910619500008],[49.37269236700007,39.684227804000045],[49.36251966300006,39.67731615500003],[49.36159898900007,39.678383290000056],[49.35923834700003,39.676476251000054],[49.35551116500005,39.672699986000055],[49.350375936000034,39.66892351400003],[49.34350135600005,39.663034363000065],[49.340436784000076,39.65983352400008],[49.33455611900007,39.65355944800007],[49.33016632600004,39.647284798000044],[49.32701892800003,39.642738519000034],[49.32005052100004,39.63093594900005],[49.31499520700004,39.61748763500003],[49.31196201800003,39.606539388000044],[49.30832219200005,39.59089600900006],[49.30387351600007,39.58307298300008],[49.303266878000045,39.57337119600004],[49.296189438000056,39.56460711400007],[49.291740762000074,39.55584191600008],[49.29027047200003,39.55046140200005],[49.29433794600004,39.54043100200005],[49.296136828000044,39.52371519800005],[49.29838543200003,39.51117568300003],[49.30063403500003,39.490271420000056],[49.31457537700004,39.47493759900004],[49.325818396000045,39.457160043000044],[49.34020945900005,39.441121459000044],[49.35909772900004,39.42682306000006],[49.377536279000026,39.41287055200007],[49.40002231400007,39.401008707000074],[49.40538298600006,39.38788853300008],[49.406246450000026,39.375380181000025],[49.41113941100008,39.35996499700008],[49.41862276400008,39.34633422300004],[49.42754522300004,39.33180667900007],[49.44078500100005,39.315934653000056],[49.45287349400007,39.301177120000034],[49.44625360500004,39.28910044000003],[49.43675550300003,39.28015339900003],[49.42034969200006,39.280600778000064],[49.39847527500007,39.284403387000054],[49.37978488200008,39.289617656000075],[49.362695495000025,39.30254679500007],[49.34605582800003,39.31372681300007],[49.32536867500005,39.32944566600003],[49.30243291800008,39.336430680000035],[49.285793252000076,39.33154124400005],[49.27769827800006,39.32106272100003],[49.26285749400006,39.30114916700006],[49.25296363900003,39.285074415000054],[49.24891615200005,39.26130492300007],[49.24891615200005,39.24696939100005],[49.24891615200005,39.240325093000024],[49.24801671100005,39.22843371400006],[49.24576810700006,39.21584062800008],[49.246217828000056,39.189247746000035],[49.24711727000005,39.16509542000006],[49.245318387000054,39.15003974000007],[49.23857257600008,39.13147827200004],[49.22687983700007,39.10695556400003],[49.20979045000007,39.093289181000046],[49.20484352200003,39.09434053600006],[49.199446873000056,39.10275080800005],[49.20035026800008,39.10697404900003],[49.194103925000036,39.105875121000054],[49.18263543100005,39.11339931100008],[49.16905432000004,39.12750498500003],[49.15215338200005,39.12397883400007],[49.142495703000066,39.11669089000003],[49.118653308000034,39.110577834000026],[49.10114876500006,39.11198858700004],[49.09420730900007,39.12021740900008],[49.09933795000006,39.12915046200004],[49.105374,39.14583810500005],[49.09360370400003,39.15241805100004],[49.07368474100008,39.16017219100007],[49.07368474100008,39.16651584700003],[49.075797358000045,39.175208068000074],[49.07549555600008,39.18812693600006],[49.06372525900008,39.195172583000044],[49.052860371000065,39.196111949000056],[49.04078827200004,39.193998358000044],[49.02750896300006,39.187657201000036],[49.00940081500005,39.17873163300004],[48.99763051900004,39.17121447900007],[48.98404940800003,39.16557608200003],[48.968657482000026,39.15735260300005],[48.958094396000035,39.14959815000003],[48.945116890000065,39.13784733700004],[48.94104255700006,39.12034965000004],[48.94104255700006,39.110430879000035],[48.94104255700006,39.08507651700006],[48.93491219400005,39.06118356600007],[48.93491219400005,39.04463751500003],[48.93727002600008,39.02735191100004],[48.94151412300005,39.01079787200007],[48.93727002600008,38.99276791800003],[48.935383761000026,38.97142035600007],[48.93349749400005,38.95485312100004],[48.92925339700008,38.93607220200005],[48.922651468000026,38.919496636000076],[48.913691708000044,38.90660183000006],[48.903317248000064,38.88559666300006],[48.89860158500005,38.870115164000026],[48.889170258000036,38.854261536000024],[48.86370567400007,38.857948744000055],[48.858518444000026,38.86569125400007],[48.86370567400007,38.87785633900006],[48.86574284100004,38.896520132000035],[48.85578336000003,38.906896595000035],[48.86574284100004,38.91491372400003],[48.884152791000076,38.92104385400006],[48.89773390300007,38.93330251200007],[48.90497716200008,38.942495104000045],[48.91101321100007,38.95310044800004],[48.910711408000054,38.96770963500006],[48.91040960600003,38.97642657400007],[48.90437355700004,38.98443578000007],[48.89388934700003,38.98981280300006],[48.89283581400008,38.989581559000044],[48.880406023000035,38.986954285000024],[48.86771728100007,38.98068885400005],[48.86253820200005,38.97341216600006],[48.85658226100003,38.96613472400003],[48.85554644500007,38.95622810700007],[48.85295690600003,38.94773560900006],[48.84725991900007,38.93903984600007],[48.84104502400004,38.93014074400003],[48.83508908300007,38.92144280500003],[48.83273668100003,38.92217786300006],[48.83295990600004,38.912586436000026],[48.83295990600004,38.897118834000025],[48.83249954400003,38.88380678400006],[48.833880631000056,38.86617344100006],[48.83480135700006,38.84097530100007],[48.840786070000036,38.822610989000054],[48.84907259600004,38.80640321900006],[48.85827984800005,38.79199319000003],[48.86702673700006,38.78334576300006],[48.871630363000065,38.760280787000056],[48.86995114600006,38.753268322000054],[48.871818301000076,38.75235946400005],[48.87498039900004,38.73997789200007],[48.86826094000003,38.72945185400005],[48.86722709000003,38.728780854000036],[48.869328549000045,38.72170224000007],[48.871169999000074,38.71160345100003],[48.87439253700006,38.69969946000003],[48.87577362500008,38.69031915100004],[48.87577362500008,38.68021589400007],[48.87807543800005,38.66469737500006],[48.87807543800005,38.64881445100008],[48.875313263000066,38.637983148000046],[48.87231089800008,38.63641325700007],[48.87209072500008,38.62570567700004],[48.869328549000045,38.60006059300008],[48.87209072500008,38.57368347800008],[48.876694351000026,38.54585045500005],[48.88083761400003,38.52415485300003],[48.878535801000055,38.49811142500005],[48.87715471300004,38.47603942200004],[48.87991688900007,38.446720164000055],[48.88083761400003,38.43766858400005],[48.87179609300006,38.44283898700007],[48.865608820000034,38.44376585400005],[48.851466481000045,38.447241501000065],[48.841154360000075,38.44631467800008],[48.82730665400004,38.44376585400005],[48.817583797000054,38.43913139700004],[48.80609314700007,38.43310615400003],[48.79931660900007,38.42962982200004],[48.790477648000035,38.42198129700006],[48.78104942300007,38.41386833200005],[48.77456751700004,38.410391067000035],[48.76071981100006,38.40668179700003],[48.74451504900003,38.40644996100008],[48.728015654000046,38.406913632000055],[48.71505184400007,38.40644996100008],[48.70680214600003,38.40111753300005],[48.697079289000044,38.395552836000036],[48.68529400700004,38.39114714500005],[48.66614292400004,38.39068337300006],[48.64993816200007,38.391842799000074],[48.63196560700004,38.39601657700007],[48.61959106100005,38.403436029000034],[48.60338629900008,38.40992741800005],[48.59189564900004,38.415259191000075],[48.58394058400006,38.42453089600008],[48.572449934000076,38.44955850500003],[48.564789501000064,38.45836243400004],[48.55624517100006,38.46925000700003],[48.54946863400005,38.480135922000045],[48.547111578000056,38.487778234000075],[48.54121893700005,38.497272090000024],[48.534442399000056,38.50421801500005],[48.52854975900004,38.51347819600005],[48.52088932500004,38.52273717800006],[48.50998793900004,38.53199495900003],[48.51126545300008,38.535735067000076],[48.50607624400004,38.543183628000065],[48.498661586000026,38.55191789400004],[48.476726556000074,38.561621380000076],[48.46745823300006,38.57156608300005],[48.46436879200007,38.587571714000035],[48.458189910000044,38.59605809000004],[48.45015736400006,38.60599798700008],[48.43347438200004,38.605755567000074],[48.414010905000055,38.60236160000005],[48.39671003500007,38.59775524400004],[48.37879127800005,38.59242119500004],[48.36241724100006,38.589996496000026],[48.353148918000045,38.591451326000026],[48.34418954000006,38.59896747200003],[48.33430332900008,38.60478587800003],[48.320709788000045,38.61278541100006],[48.31236829800008,38.619329814000025],[48.29815687000007,38.629024120000054],[48.28765277000008,38.64089784300006],[48.284254385000054,38.64719738100007],[48.27282345400005,38.65470763900004],[48.26077463400003,38.661974875000055],[48.24162010100008,38.66803033700006],[48.23266072200005,38.674569656000074],[48.23729488400005,38.68449858100007],[48.254286808000074,38.69152064100007],[48.26139252300004,38.697331475000055],[48.25953885800004,38.70798343600006],[48.256449417000056,38.715487266000025],[48.24316482200004,38.72492643900006],[48.23482333100003,38.73146051600003],[48.22524606400003,38.73654215900007],[48.22510897600006,38.738152709000076],[48.20670941900005,38.74089756300003],[48.19311587800007,38.755413641000075],[48.17427028900005,38.75976788400004],[48.151099481000074,38.76508937400007],[48.13348966800004,38.76702436200003],[48.12020507200003,38.76750810000004],[48.10877414000004,38.77065232100006],[48.10043265100006,38.78226054100003],[48.10043265100006,38.79144903200006],[48.092709048000074,38.79314151800003],[48.07942445200007,38.79555928600007],[48.06892035300007,38.79918578200005],[48.04976581900007,38.80160334300007],[48.03709911200008,38.807888613000046],[48.02628606800005,38.81804056300007],[48.02134296300005,38.827466067000046],[48.01856246600005,38.83689031200004],[48.01516408100008,38.84969560500008],[48.01454619200007,38.85959999100004],[48.00836731000004,38.87312568800007],[48.00836731000004,38.88592440300005],[48.00836731000004,38.89775511000005],[48.01331041600008,38.90741135800005],[48.01423724800003,38.90741135800005],[48.03122917400003,38.90234199300005],[48.04667637800003,38.90692857700003],[48.05347314800008,38.911032109000075],[48.06706668900006,38.91875575700004],[48.07571712300006,38.930822259000024],[48.080660228000056,38.93975013900007],[48.09178221600007,38.94216288500007],[48.11402619000006,38.94312796000003],[48.13596122100006,38.94433428600007],[48.15357103400004,38.94698812900003],[48.17797761700007,38.955190283000036],[48.20114842500004,38.95494905700008],[48.221847679000064,38.95736128200008],[48.24563637400007,38.96459745800007],[48.25953885800004,38.96942116200006],[48.28209177700006,38.97400337500005],[48.286416994000035,38.976173792000054],[48.29599426100003,38.98268464100005],[48.30773413700007,38.998597509000035],[48.32009190000008,39.00534733400008],[48.32750655800004,39.01185547800003],[48.34110009900007,39.02559291100005],[48.33615699300003,39.03595445700006],[48.33615699300003,39.044927158000064],[48.33146979000003,39.05264310900003],[48.32338396400007,39.06007903900007],[48.31695676900006,39.076402984000026],[48.316542112000036,39.08739121900004],[48.31156621900004,39.09385408000003],[48.30804162800007,39.10290108300006],[48.30451703700004,39.10823180500006],[48.29539456600003,39.11501577300004],[48.289796687000035,39.121476081000026],[48.283991479000065,39.12890469900003],[48.27714962600004,39.13536372300007],[48.25600208100008,39.14166069800007],[48.24646495400003,39.143436665000024],[48.23423254900007,39.14714990500005],[48.22739069700003,39.148118544000056],[48.22080800500004,39.153042250000055],[48.20979365900007,39.16111314800003],[48.20266672900004,39.16842659200006],[48.19100448000006,39.177],[48.175778766000064,39.18632868700007],[48.16703207900008,39.19489989400006],[48.16087700400004,39.20473027500003],[48.15277822000007,39.21581929700005],[48.141439922000075,39.22438687700003],[48.13496089400007,39.23093784500003],[48.131721381000034,39.24126696500008],[48.13042557500006,39.25386137800007],[48.12848186700006,39.266453510000076],[48.13360434800006,39.280664141000045],[48.14170313200003,39.29325142000005],[48.144234003000065,39.29561128000006],[48.15385130900006,39.30269038200004],[48.16954270300005,39.30937553800004],[48.191308185000025,39.31999181400005],[48.210036623000065,39.33139267400003],[48.22572801600006,39.33650279600005],[48.24597497600007,39.339647298000045],[48.26470341500004,39.35261686700005],[48.28039480900003,39.36322652800004],[48.30064176900004,39.372655973000064],[48.31937020700008,39.37854872400004],[48.33253073100008,39.37737021400005],[48.33460715100006,39.37527522800008],[48.348078989000044,39.37960676800003],[48.372536498000045,39.380661248000024],[48.37457462300006,39.394895157000065],[48.358269618000065,39.40464633000005],[48.346720239000035,39.41281517400006],[48.33856773600007,39.420719588000054],[48.32599929300005,39.432837936000055],[48.25806176900005,39.49366099200006],[48.21899769300006,39.533916893000026],[48.15125124300005,39.589673867000045],[48.076413813000045,39.652885963000074],[48.03236057500004,39.69185141100007],[47.98618428800006,39.70702143200003],[47.984188344000074,39.70786583300003],[47.981453384000076,39.70078261400005],[47.97642902600006,39.691527018000045],[47.967153290000056,39.68525638700004],[47.948601816000064,39.67988110400006],[47.940099057000054,39.67570003600008],[47.92966385400007,39.66823321000004],[47.92000162800008,39.660466847000066],[47.89140144000004,39.660466847000066],[47.878260813000054,39.66823321000004],[47.86396071900003,39.66524625100004],[47.85352551500006,39.66435013800003],[47.83922542100004,39.664051431000075],[47.83072266200003,39.65986939900006],[47.81796852400004,39.65359587000006],[47.806704532000026,39.657078574000025],[47.794803338000065,39.64905840700004],[47.785745002000056,39.64438992200007],[47.76642055100007,39.63038256200008],[47.752531101000045,39.61590528500005],[47.73984943000005,39.60189211100004],[47.728375536000044,39.58787607800008],[47.68912274500008,39.55983543700006],[47.664967180000076,39.54581082900006],[47.65512334600004,39.549489909000044],[47.647870125000054,39.543267394000054],[47.63190902600007,39.53090865100006],[47.605972241000075,39.523698360000026],[47.56739958500003,39.51597221000003],[47.54545307500007,39.50515414600005],[47.52483665500006,39.496395421000045],[47.50954060300006,39.49072741900005],[47.49025427500004,39.482997573000034],[47.468972810000025,39.47887463500007],[47.445749412000055,39.46838064600007],[47.424042317000044,39.46508161600008],[47.41255032600003,39.457163302000026],[47.39680204200005,39.42845180200004],[47.38445879200003,39.41788824900004],[47.369987396000056,39.39972837200003],[47.35253659400007,39.390481512000065],[47.344024008000076,39.37925152300005],[47.325296319000074,39.366037437000045],[47.31431158500004,39.366037437000045],[47.30827114700003,39.35678607700004],[47.291671604000044,39.34753348300006],[47.27294391500004,39.333652276000066],[47.24527801000005,39.31414779100004],[47.22655032100005,39.31216397600008],[47.210802037000065,39.30555085300006],[47.18356176100008,39.298937101000035],[47.17164414100006,39.29463782300007],[47.16057777900005,39.28471539900005],[47.14185009000005,39.278099661000056],[47.12908121100003,39.27379909500007],[47.11460981500005,39.267844024000055],[47.10737411700006,39.25791777300003],[47.10184093600003,39.24765915800003],[47.09375397900004,39.237730026000065],[47.07970821200007,39.22349580000008],[47.07289814400008,39.21256988500005],[47.06693933300005,39.202635747000045],[47.06098052300007,39.18110692400006],[47.036719653000034,39.16553578600008],[47.03076084300005,39.15692047300007],[47.00947937800004,39.14465838500007],[46.99841301600003,39.13537753600008],[46.98053658600003,39.13438308600007],[46.964788301000056,39.13604049500003],[46.94818875900006,39.14101248400004],[46.94478372400005,39.15294381500007],[46.92520477700003,39.165204448000054],[46.91328715600008,39.16752378500007],[46.896032458000036,39.16881529300008],[46.888140977000035,39.161599383000066],[46.87452083900007,39.15523704900005]],[[46.81287965100006,40.97071473400007],[46.79717853400007,40.97208786500005],[46.77060741400004,40.980783694000024],[46.74162073600007,40.99130867800005],[46.72048461800006,41.00000195400003],[46.70176405500007,41.02927606800006],[46.672173489000045,41.04848008000005],[46.672173489000045,41.060365449000074],[46.67700460200007,41.08184504800005],[46.66673848700003,41.09874954500003],[46.661303485000076,41.09418119400004],[46.65707626100004,41.08915563800008],[46.64499848000003,41.07956032000004],[46.63473236500005,41.06904954300006],[46.62265458300004,41.060365449000074],[46.60816124400003,41.059908359000076],[46.584005680000075,41.05807996900006],[46.559850116000064,41.05579441000003],[46.53750621800003,41.05579441000003],[46.517577878000054,41.04939441600004],[46.50368842900008,41.04345100300003],[46.480181292000054,41.03889803900006],[46.48535435600007,41.025763866000034],[46.50661125200003,41.019909778000056],[46.523230280000064,41.016689805000055],[46.53675739600004,41.00410111900004],[46.541781753000066,40.99326705400006],[46.54641962100004,40.98243119500006],[46.54951153400003,40.967492339000046],[46.55376291300007,40.961633035000034],[46.55376291300007,40.95284309400006],[46.55492238000005,40.944638085000065],[46.534438462000026,40.93232864600003],[46.510862631000066,40.926466196000035],[46.50274636100005,40.925000501000056],[46.478397553000036,40.925879922000036],[46.461392035000074,40.93203553600006],[46.440521628000056,40.93350107300006],[46.40419165900005,40.93350107300006],[46.38795912000006,40.930569966000064],[46.37481849300008,40.92441421500007],[46.365929246000064,40.916498828000044],[46.38100231800007,40.906529946000035],[46.394142945000056,40.90359763300006],[46.410761972000046,40.900371938000035],[46.42119717600008,40.89831914000007],[46.43820269400004,40.895386461000044],[46.490765201000045,40.904770574000054],[46.50467880700006,40.90799605300003],[46.52477623600004,40.90858248600006],[46.54757908900007,40.909755338000025],[46.568063007000035,40.91473972400007],[46.58313607900004,40.919723730000044],[46.609859682000035,40.91762687500005],[46.64288486800007,40.90617372200006],[46.677797207000026,40.906889603000025],[46.69478158700008,40.90187827500006],[46.69780194200007,40.89528939400003],[46.699864441000045,40.89078968600006],[46.72430475200008,40.88225161200006],[46.78446099700005,40.86831281900004],[46.78945888000004,40.86575399600008],[46.789764545000025,40.86730096800005],[46.79033051300007,40.867484097000045],[46.801966726000046,40.87124909100004],[46.809368050000046,40.87276753700007],[46.821170159000076,40.87307122300007],[46.82977169700007,40.86973061000003],[46.84297405700005,40.862745145000076],[46.85217570300006,40.858644636000065],[46.859777062000035,40.857733376000056],[46.87037895600008,40.855758938000065],[46.879380566000066,40.85378444100007],[46.89058256800007,40.85105042300006],[46.899984249000056,40.847556791000045],[46.91738736000008,40.84072088700003],[46.92918947100003,40.83403620400003],[46.938591151000026,40.82704694600005],[46.947792796000044,40.82066480100008],[46.95859472700005,40.814130060000025],[46.969996766000065,40.806986693000056],[46.97724142900006,40.80237442600003],[46.97783816700007,40.80388592700007],[46.99144059900004,40.801818669000056],[47.00456294400004,40.79646781500003],[47.01384460400004,40.78917049700004],[47.02280620600004,40.78831909100006],[47.03096766500005,40.79111652800003],[47.04376995300004,40.79707588900004],[47.04985104000008,40.80108903200005],[47.05546194900006,40.79784478500005],[47.059412750000035,40.80014657400005],[47.07101482400003,40.79999456300004],[47.08521736300003,40.79969054000003],[47.10382068900003,40.799082491000036],[47.11782319200006,40.799082491000036],[47.13182569500003,40.79710629200008],[47.14722844800008,40.79117734000005],[47.17243295500003,40.787680529000056],[47.17603359800006,40.79117734000005],[47.17203288300004,40.79847443600005],[47.15242937900007,40.804706733000046],[47.13905198700007,40.80920008000004],[47.12748741900003,40.817748943000026],[47.10529595300005,40.83413116200006],[47.09185605000005,40.840777855000056],[47.076228256000036,40.84884793700007],[47.05716234700003,40.85620509100005],[47.031532766000055,40.863086843000076],[47.01059152200003,40.869018811000046],[46.99246328100003,40.87257773400006],[46.97120948200006,40.88325334700005],[46.951518461000035,40.89535027800008],[46.92432610000003,40.90886774000006],[46.90619786000008,40.91858910500008],[46.90025929900003,40.92285656700005],[46.88650684000004,40.933761040000036],[46.86900371100006,40.94750757400004],[46.846957393000025,40.96600382100007],[46.839173378000055,40.96972346100006],[46.83191452300008,40.97479783400007],[46.81287965100006,40.97071473400007]],[[45.477996535000045,40.68401529000005],[45.476000285000055,40.675330975000065],[45.476000285000055,40.665342603000056],[45.47612663600006,40.661782628000026],[45.47628546400006,40.657307383000045],[45.48056314200005,40.64731629000005],[45.49139992700003,40.63840991600006],[45.50594403500003,40.63276135000007],[45.51735117700008,40.631892297000036],[45.526762070000075,40.63363039200004],[45.532465642000034,40.642537409000056],[45.53417671300008,40.650574421000044],[45.53403591800003,40.650911447000055],[45.53218046300003,40.65535272300008],[45.527617606000035,40.66447397700006],[45.528634675000035,40.667959033000045],[45.50558756200007,40.67957829000005],[45.48920662000006,40.690240964000054],[45.48826296400006,40.68965948400006],[45.477996535000045,40.68401529000005]],[[45.93530811800008,40.993175689000054],[45.96380318100006,40.993175689000054],[45.98026699500008,40.988377668000055],[45.98659923100007,40.98453899800006],[45.98976534900004,40.97830067900003],[45.997997256000076,40.972061765000035],[46.00876205800006,40.96582225600008],[46.020793307000076,40.95766200200006],[46.03789034400006,40.95430160300003],[46.05435415900007,40.946620041000074],[46.06828507800003,40.94133844400005],[46.08664856400003,40.93701682200003],[46.10881139000003,40.93317514100005],[46.13034099300006,40.928852980000045],[46.16595349000005,40.92898745200006],[46.16838506900007,40.936363752000034],[46.169195595000076,40.95203563600006],[46.16514296400004,40.96094542700007],[46.14650086100005,40.97261849200004],[46.12461665200004,40.977839979000066],[46.10394823200005,40.981218367000054],[46.08368507700004,40.98091124800004],[46.05734297400005,40.98551788000003],[46.03870087100006,40.99411606000007],[46.03684918300007,41.00072975900008],[46.02354313500007,41.00302077300006],[46.00671759900007,41.00410098100008],[45.999302957000054,41.00842163100003],[45.977344207000044,41.01792605700007],[45.94511902900007,41.01425405600003],[45.93513777900006,41.02159785100008],[45.91831224300006,41.02699717400003],[45.90576438700003,41.03153226100005],[45.89122028000003,41.03757855300006],[45.87239849400004,41.04427201000004],[45.856428494000056,41.05226007700003],[45.839317780000044,41.06132642800003],[45.82705510200003,41.06240567200007],[45.81393688800006,41.064132424000036],[45.804811173000076,41.052044196000054],[45.82021081600004,41.038658190000035],[45.839317780000044,41.02829294500003],[45.85842474400005,41.020517933000065],[45.874109565000026,41.007989579000025],[45.888083315000074,40.99740340900007],[45.90319778000003,40.986815525000054],[45.90449583000003,40.979661607000025],[45.92074397400006,40.98405914800003],[45.93530811800008,40.993175689000054]]],[[[46.00125814900008,39.26468248300006],[46.00125814900008,39.25056408100005],[46.00125814900008,39.23879655700006],[45.99898812600003,39.215844160000074],[45.996718103000035,39.20112710700005],[46.00579819500007,39.18110692400006],[46.02244502900004,39.13869226600008],[46.02925509800008,39.10686435800005],[46.033038470000065,39.07561176100006],[46.04590193300004,39.06735402800007],[46.056495373000075,39.05201565200008],[46.07692558000008,39.03431335300007],[46.08373564900006,39.017787172000055],[46.086005672000056,38.998304888000064],[46.08751902100005,38.977635949000046],[46.104165856000066,38.95637012100008],[46.11702931800005,38.929187754000054],[46.13518950200006,38.902586144000054],[46.13518950200006,38.89430803700003],[46.14199957100004,38.85645287500006],[46.14247844200003,38.851271616000076],[46.142756245000044,38.84698590800008],[46.14199957100004,38.84521071100005],[46.12913610700008,38.85290291100006],[46.12686608400003,38.85349458400003],[46.114002621000054,38.85231123300008],[46.08222230000007,38.86828479600007],[46.05119865300003,38.87656596000005],[46.02849842400008,38.87301700900008],[46.00579819500007,38.883071907000044],[45.980827942000076,38.89549068300005],[45.962667759000055,38.90081234500008],[45.94299422600005,38.900221069000054],[45.92559071800008,38.88129761700003],[45.90213381400008,38.880706178000025],[45.89381039600005,38.885437557000046],[45.88170360700008,38.89371670600008],[45.86581344700005,38.90495113800006],[45.85294998300003,38.912045646000024],[45.82268301100004,38.906724832000066],[45.80830619900007,38.91736605800003],[45.77879590100008,38.92327715400006],[45.77908201000008,38.92443933100003],[45.77122170000007,38.92404319600007],[45.761303818000044,38.92621243000008],[45.75217936800004,38.927606902000036],[45.73095510100006,38.928536534000045],[45.71726842500004,38.933649295000066],[45.702391602000034,38.93550838900006],[45.69465565400003,38.93845185300006],[45.68434105800003,38.942944272000034],[45.67224124200004,38.94759129900007],[45.65914963800003,38.95022447800005],[45.65081861800007,38.95068914700005],[45.63435493500003,38.950069588000076],[45.625032126000065,38.953012443000034],[45.61332902500004,38.95719418300007],[45.60499800500003,38.96106594200006],[45.59388997800005,38.96400833700005],[45.58714581800007,38.970666986000026],[45.58198852000004,38.97577668300005],[45.58020330200003,38.97686051100004],[45.571277208000026,38.97577668300005],[45.56750841300004,38.972060577000036],[45.56056589600007,38.96834427300007],[45.555210240000065,38.96973791000005],[45.55515758700005,38.970053034000045],[45.54694120700003,38.96712481800006],[45.52834517800005,38.968818500000054],[45.51842729700007,38.97438316700004],[45.507579613000075,38.97704437300007],[45.49425246000004,38.98018930600006],[45.48278491000008,38.98285029200008],[45.46976769100007,38.98502738800005],[45.45644053700005,38.988171962000024],[45.448072325000055,38.99446069000004],[45.43722464200005,39.002925395000034],[45.43567497300006,39.012598093000065],[45.43567497300006,39.02347828400008],[45.43753457500003,39.033148149000056],[45.43784450900006,39.042816679000055],[45.42823656100006,39.05103388100008],[45.42079815000005,39.05659203100004],[45.402821990000064,39.06359950400008],[45.391354439000054,39.07423019300006],[45.37769798200003,39.089388212000074],[45.372855266000045,39.09504898000006],[45.35251586100003,39.11014212300006],[45.33944052800007,39.12183706900004],[45.33235805600003,39.13692443000008],[45.31873791900006,39.15047670100006],[45.30814447800003,39.15872462200008],[45.29301099300005,39.16814962400008],[45.271067437000056,39.17462857500004],[45.24988055600005,39.17580650100007],[45.23928711600007,39.18169583500003],[45.22566697800005,39.192295382000054],[45.20902014400008,39.19936085100005],[45.18556324000008,39.205248195000024],[45.16210633600008,39.20760299300008],[45.15680961600003,39.20995771100007],[45.141676130000064,39.21760999800006],[45.13259603800003,39.227615565000065],[45.129569340000046,39.23408899000003],[45.12729931800004,39.25115240500003],[45.12502929500005,39.268799811000065],[45.123515946000055,39.279386104000025],[45.10686911200003,39.28938278900006],[45.09703234600005,39.30290542800003],[45.098882927000034,39.30514192800007],[45.09660739800006,39.307263342000056],[45.08730938300005,39.31901250900006],[45.079561039000055,39.32864149000005],[45.06282461300003,39.34308245700004],[45.05879547400008,39.351023707000024],[45.05507626800005,39.35872344400008],[45.04453851900007,39.37147425200004],[45.04490264900005,39.37198566300003],[45.02873189500008,39.377969044000054],[45.015404742000044,39.38253908900003],[45.003937191000034,39.388070844000026],[44.993399443000044,39.39384263900007],[44.98441136200006,39.39889256500004],[44.975113348000036,39.40538478600007],[44.960236526000074,39.41283806600006],[44.95527758500003,39.41980976200006],[44.94783917400008,39.42557891000007],[44.93637162300007,39.433751046000054],[44.93544182200003,39.44817010500003],[44.93172261600006,39.45345633900007],[44.922734536000064,39.461625179000066],[44.91560605800004,39.47051369900004],[44.91095705200007,39.47868052100006],[44.91250672100006,39.48828730900004],[44.90909744900006,39.50413558400004],[44.90258883900003,39.51277856200005],[44.89031546100006,39.51913526200008],[44.88495980500005,39.52528015300004],[44.87881071900006,39.53495724700008],[44.87484356600004,39.541715046000036],[44.87127312800004,39.55814601600008],[44.87008298300003,39.56843257000003],[44.86849612100008,39.577796603000024],[44.870281340000076,39.58792674400007],[44.87161331300007,39.58841861500008],[44.870665658000064,39.59794989200003],[44.86849612100008,39.60538238400005],[44.856098770000074,39.61137574300005],[44.841841815000066,39.61640976100006],[44.82789479400003,39.615690638000046],[44.81363784000007,39.618087685000035],[44.79783121600008,39.62072433900005],[44.79132260500006,39.62767503400005],[44.79845108300003,39.638698831000056],[44.80929876600004,39.64756451400007],[44.81549744200004,39.65738731000005],[44.81766697900008,39.66672964000003],[44.814877574000036,39.67319666100008],[44.80464975900003,39.67966307200004],[44.79845108300003,39.683015786000055],[44.78450406200005,39.68469208100004],[44.77799545200003,39.68876291300006],[44.77272657800006,39.69355181700007],[44.76594522700003,39.700638781000066],[44.76535015400003,39.70799312500003],[44.765151796000055,39.71565306000008],[44.78082204900005,39.721474037000064],[44.79153336100006,39.72469068000004],[44.80720361300007,39.72698818900005],[44.821683721000056,39.730510888000026],[44.83179996000007,39.73311450400007],[44.84508992100007,39.73571802200007],[44.86135524700006,39.73924027100003],[44.87246327400004,39.74169042400007],[44.883571302000064,39.74444674100005],[44.89467932900004,39.74352798100006],[44.90162184600007,39.736790030000066],[44.90558899900003,39.73372710600006],[44.91967239000007,39.730357731000026],[44.933954140000026,39.72744768200005],[44.94962439200003,39.72836665800003],[44.96331106900004,39.73219559200004],[44.97600595700004,39.73832144100004],[44.98858360400004,39.740005878000034],[44.98889920400006,39.74077162700007],[44.99604007800008,39.74245607900008],[45.00675139000003,39.747968540000045],[45.01290047700007,39.75225570300006],[45.02381014700006,39.758992129000035],[45.028372372000035,39.76572789200003],[45.038686969000025,39.77399360100003],[45.04642291600004,39.781187017000036],[45.05772930100005,39.78654332200006],[45.067250468000054,39.789603879000026],[45.07895356800003,39.793123352000066],[45.09343367500003,39.79388843000004],[45.101566338000055,39.79281731700007],[45.10890557000005,39.789144805000035],[45.11941852500007,39.783941740000046],[45.12457582300004,39.77766692900008],[45.12973312100007,39.76986087100005],[45.12973312100007,39.76343168400007],[45.13171669800005,39.755930199000034],[45.13449370500007,39.74858100800003],[45.13608056600003,39.73862771900008],[45.138659215000075,39.72821349700007],[45.14421322900006,39.71902315900007],[45.151354103000074,39.71519348800007],[45.16008183900004,39.71304877800003],[45.16781778700005,39.710904001000074],[45.17376851600005,39.70630782400008],[45.17912417200006,39.699412980000034],[45.181702821000044,39.69297716700004],[45.17912417200006,39.68117660300004],[45.181107748000045,39.67106021700005],[45.18190117900008,39.66508165000005],[45.18209953600007,39.65664945200007],[45.18209953600007,39.648676238000064],[45.181702821000044,39.63947522400008],[45.17753731100004,39.62781883500003],[45.17674388000006,39.61462632300004],[45.17674388000006,39.60419324000003],[45.18606668800004,39.58823369400005],[45.19796814700004,39.58654544900003],[45.20828274300004,39.590228840000066],[45.21582033300007,39.59698121100007],[45.22593657300007,39.60726195800004],[45.23684624200007,39.612785305000045],[45.24696248200007,39.616620702000034],[45.25906229700007,39.619228650000025],[45.273344046000034,39.61999567400005],[45.284055358000046,39.61692752400006],[45.29873382300008,39.61309214500005],[45.30210590300004,39.598208844000055],[45.300295524000035,39.59330678300006],[45.30091575700004,39.59345164500007],[45.30091575700004,39.58623849000003],[45.30289933300003,39.579178074000026],[45.307064843000035,39.57196342100008],[45.31420571900003,39.56336625100005],[45.32947925600007,39.55737830100003],[45.331957964000026,39.550883905000035],[45.34476751500006,39.54380032600005],[45.36171702000007,39.540425811000034],[45.38641486900008,39.53967589700005],[45.39464748600005,39.53292629900005],[45.41401834800007,39.52917623500008],[45.42999931000003,39.524675890000026],[45.44355891400005,39.518299898000066],[45.45324434500003,39.504420699000036],[45.46341404800006,39.49954356100005],[45.46856386800005,39.49371221400003],[45.47565643300004,39.499573575000056],[45.48712398300006,39.50989769000006],[45.49797166600007,39.51805984900005],[45.510059084000034,39.527421136000044],[45.51935709800006,39.53270130100003],[45.53113458300004,39.542060597000045],[45.540742530000045,39.54518008000008],[45.551900147000026,39.55093875500006],[45.556239220000066,39.55909605100004],[45.56770677000003,39.56725238100006],[45.58413326200008,39.57109032000005],[45.60117962100003,39.57013085500006],[45.62101538400003,39.562454658000036],[45.638371677000066,39.572769351000034],[45.64612002200005,39.576367136000044],[45.65417830100006,39.58380196100006],[45.66936505600006,39.58739916900004],[45.67990280600003,39.592195153000034],[45.689510754000025,39.595791922000046],[45.708106781000026,39.59818966300003],[45.72112400100008,39.59962826700007],[45.73662069100004,39.599868032000074],[45.749018043000035,39.597710121000034],[45.76482466600004,39.59507258300005],[45.77691208400006,39.589797203000046],[45.79147897300004,39.586439932000076],[45.801086921000035,39.57924522800005],[45.81131473600004,39.57061058900007],[45.81906308100008,39.56461367500003],[45.819682949000025,39.556457031000036],[45.82309222100008,39.54518008000008],[45.82526175700008,39.53198130100003],[45.82650149300008,39.52262063500007],[45.82497661800005,39.50715114600007],[45.82398483000003,39.499928942000054],[45.82219961100003,39.49024692900008],[45.821802896000065,39.48087098700006],[45.82795198300005,39.47518331800006],[45.833307639000054,39.468418995000036],[45.83767150600005,39.45980889700007],[45.83350599600004,39.450582600000075],[45.822993041000075,39.44443105100004],[45.81862917400008,39.43674084400004],[45.81406694900005,39.43104954100005],[45.81009979500004,39.42397321200008],[45.80553757000007,39.417050016000076],[45.80097534500004,39.40858739000004],[45.798991768000064,39.39873866800008],[45.798396696000054,39.38657971900005],[45.798396696000054,39.37765153500004],[45.80593428600008,39.368722201000026],[45.808459638000045,39.36174367000007],[45.82650149300008,39.358242235000034],[45.838588911000045,39.35318934400004],[45.85470546800008,39.34813608500008],[45.87051209200007,39.34476704100007],[45.88197964300008,39.34067583800004],[45.89499686200003,39.33489961200007],[45.90460481000008,39.32767865200003],[45.92041143400007,39.32310498900006],[45.92846971200004,39.31901250900006],[45.94179686600006,39.30962296600006],[45.94311954700004,39.30448511600008],[45.943750901000044,39.30466905600008],[45.961911084000064,39.29585046700004],[45.986124663000055,39.29232271700005],[46.00125814900008,39.28232645500003],[46.00125814900008,39.26468248300006]]],[[[44.93177220600006,39.80092674900004],[44.94228516000004,39.803680677000045],[44.94863260500006,39.80398666200006],[44.96291435400008,39.802456723000034],[44.96727822200006,39.79740768000005],[44.97025358700006,39.788073618000055],[44.96965851300007,39.782105270000045],[44.96331106900004,39.77613640000004],[44.95517840600007,39.772462990000065],[44.94863260500006,39.77368748200007],[44.93950815300008,39.777973031000045],[44.93018534500004,39.78654332200006],[44.929193557000076,39.79526554900008],[44.93177220600006,39.80092674900004]]],[[[45.185669491000056,41.00747975400003],[45.19378123700005,41.013132735000056],[45.206760030000055,41.01583616200003],[45.218765415000064,41.01141231400004],[45.23077079900003,41.01018341400004],[45.23693572500008,41.00625078000007],[45.238882544000035,40.99863062800006],[45.23433996700004,40.992238848000056],[45.23239314800003,40.982895893000034],[45.22557928100008,40.98215823500004],[45.21260048700003,40.98560057000003],[45.19897275400007,40.98707580100006],[45.187940780000076,40.99494313900004],[45.185669491000056,41.00207209700005],[45.185669491000056,41.00747975400003]]],[[[45.02120384300008,41.07911967700005],[45.02728765200004,41.06876085500005],[45.02323177900007,41.05840038900004],[45.01562701700004,41.05149249700003],[44.99991051000006,41.04842208900004],[44.98977082700003,41.05494653400007],[44.98115209700006,41.067226075000065],[44.98115209700006,41.07413230100008],[44.990277811000055,41.082572252000034],[45.00599431900008,41.08525746200007],[45.02120384300008,41.07911967700005]]],[[[49.07459014800003,38.950508178000064],[49.06221624700004,38.96158357100006],[49.06161264200006,38.97242162800006],[49.07730637000003,38.978782317000025],[49.09541451900003,38.98467133100007],[49.10839202400007,38.99362168600004],[49.12227493800003,39.00469028400005],[49.13766686300005,39.01434444400007],[49.156680419000054,39.026116011000056],[49.16814891300004,39.034119549000025],[49.17810839400005,39.04118073500007],[49.18504985100003,39.04800587200003],[49.19693678200008,39.052396377000036],[49.20134718400004,39.061918854000055],[49.21030694500007,39.06081591700007],[49.21455104200004,39.04831475200007],[49.22020983800007,39.02735191100004],[49.21549417500006,39.01153369000008],[49.20653441400003,38.999759675000064],[49.19993248500003,38.98651154700008],[49.19521682100003,38.97215658700003],[49.18861489300008,38.96148048400005],[49.18106983100006,38.956325922000076],[49.17211007000003,38.95779869300003],[49.16957833200007,38.96219128100006],[49.163018271000055,38.95475002500007],[49.15094617200003,38.95404306800003],[49.134950642000035,38.952393475000065],[49.114428074000045,38.94838715900005],[49.09179288900003,38.94744446300007],[49.07459014800003,38.950508178000064]]],[[[50.54043912000003,40.325353723000035],[50.53350875500007,40.328582339000036],[50.527181030000065,40.33227199500004],[50.51934670500003,40.343570302000046],[50.52748235100006,40.352791997000054],[50.53953516000007,40.35555825700004],[50.555806450000034,40.35394461900006],[50.56635265800003,40.34887293200006],[50.58654111200008,40.33872840400005],[50.60823616700003,40.327890506000074],[50.62028897600004,40.31935731000004],[50.614563892000035,40.315205631000026],[50.58111734900007,40.30505600300006],[50.561832855000034,40.30113414400006],[50.54978004700007,40.295366286000046],[50.53622063700004,40.297904205000066],[50.53019423300003,40.308516276000034],[50.52898895200008,40.309669661000044],[50.52898895200008,40.31266836800006],[50.53652195700005,40.322355583000046],[50.54043912000003,40.325353723000035]]],[[[50.29968427100005,40.47301859000004],[50.30510803400006,40.477160473000026],[50.314750281000045,40.480611845000055],[50.324995168000044,40.487744115000055],[50.336445336000054,40.48337281500005],[50.34488230300008,40.47278847800004],[50.344279662000076,40.46013108400007],[50.344279662000076,40.45184494400007],[50.34608758300004,40.44309734500007],[50.344279662000076,40.437802188000035],[50.33524005600003,40.43665101100004],[50.327405730000066,40.43665101100004],[50.31957140500003,40.44747128700004],[50.31173707900007,40.462202459000025],[50.308723877000034,40.46542446900003],[50.30571067500006,40.47163790500008],[50.29968427100005,40.47301859000004]]]]}}]}