{"type":"FeatureCollection","features":[{"type":"Feature","properties":{"name":"Ağ Göl Milli Parkı"},"geometry":{"type":"MultiPolygon","coordinates":[[[[47.5737029,39.9893855],[47.5743493,39.9884196],[47.5751835,39.9887032],[47.57447,39.9896568],[47.5737029,39.9893855]]]]}},{"type":"Feature","properties":{"name":"Qobustan Dövlət Qoruğu"},"geometry":{"type":"MultiPolygon","coordinates":[[[[49.37743,40.1227044],[49.3744975,40.1196816],[49.3725866,40.1160728],[49.3711597,40.1098388],[49.3727901,40.1068189],[49.3775557,40.1029108],[49.381967,40.0965318],[49.3848995,40.0966479],[49.3841642,40.1003185],[49.3870747,40.1011481],[49.3873322,40.1013],[49.3875092,40.1014354],[49.3876111,40.1016241],[49.3876085,40.1017534],[49.3875414,40.1020016],[49.3875276,40.1021281],[49.3911018,40.112958],[49.3910551,40.1136251],[49.3875624,40.1197212],[49.3836735,40.1228272],[49.3805743,40.1234026],[49.37743,40.1227044]]]]}},{"type":"Feature","properties":{"name":"Qızıl Ağac Dövlət Təbiət Qoruqu"},"geometry":{"type":"MultiPolygon","coordinates":[[[[48.9296655,38.9604566],[48.9271357,38.960325],[48.9259762,38.9602222],[48.9236178,38.959827],[48.9231815,38.9597592],[48.9229351,38.9592401],[48.9218258,38.9594102],[48.9189768,38.9598324],[48.9180163,38.959996],[48.9163623,38.9604861],[48.9143944,38.9610273],[48.9136067,38.9611513],[48.9124279,38.9611521],[48.8275175,38.9632915],[48.8636773,39.0590716],[48.9093379,39.0566126],[48.9211828,39.0550739],[48.9356185,39.0460802],[48.9389009,39.0350429],[48.9460165,39.0130371],[48.9406619,38.9964828],[48.9438906,38.9825406],[48.940165,38.977043],[48.9330101,38.9712983],[48.9353247,38.9708328],[48.9367566,38.9687339],[48.9320889,38.9654034],[48.9296655,38.9604566]]]]}},{"type":"Feature","properties":{"name":"Türyançay Qoruğu"},"geometry":{"type":"MultiPolygon","coordinates":[[[[47.192974,40.8041945],[47.2340011,40.7952282],[47.2544288,40.7880802],[47.2655868,40.7867155],[47.2893619,40.7757969],[47.3109912,40.7702069],[47.3583697,40.7603258],[47.4003409,40.7486876],[47.4386213,40.7427052],[47.4597357,40.7329501],[47.5217055,40.7178593],[47.5361251,40.7099873],[47.545824,40.7148016],[47.5690841,40.7413395],[47.5870227,40.7514023],[47.59552,40.7625361],[47.6017856,40.7755369],[47.6065063,40.78886],[47.5967216,40.788795],[47.5891899,40.7764793],[47.5781821,40.7774868],[47.5695132,40.7733269],[47.5613808,40.7770806],[47.5369834,40.7667617],[47.4908064,40.7834012],[47.449436,40.7971775],[47.4107049,40.8186],[47.3974655,40.8175607],[47.3848056,40.8027652],[47.3735617,40.7992568],[47.3718666,40.7904521],[47.35219,40.7950657],[47.3091458,40.8013358],[47.273848,40.8166675],[47.2692775,40.8223509],[47.2611236,40.8240072],[47.2511672,40.8300473],[47.239387,40.8338626],[47.2336793,40.8304044],[47.2317052,40.8318819],[47.2216201,40.8291705],[47.2106551,40.821669],[47.1927165,40.8096517],[47.191472,40.8064034],[47.192974,40.8041945]]]]}},{"type":"Feature","properties":{"name":"Şah Dili Qoruğu"},"geometry":{"type":"MultiPolygon","coordinates":[[[[50.355281,40.2947687],[50.3520155,40.2938725],[50.3498644,40.2971084],[50.3477561,40.2959592],[50.3507933,40.2926239],[50.3531815,40.2895283],[50.3551895,40.285533],[50.3584688,40.2751786],[50.3602874,40.2696333],[50.3602153,40.2635444],[50.3598548,40.2606028],[50.3604652,40.2535693],[50.3613558,40.2497013],[50.364598,40.2399815],[50.3660475,40.2359512],[50.3667728,40.2355867],[50.36922,40.2284469],[50.3703069,40.2273091],[50.370809,40.2275778],[50.3703809,40.229954],[50.3699485,40.2309287],[50.3685516,40.2319124],[50.3674219,40.2362265],[50.3676568,40.2388096],[50.3677051,40.2398178],[50.3674423,40.2408906],[50.3670526,40.2414784],[50.3669927,40.2432975],[50.3663529,40.2449605],[50.3670526,40.2469045],[50.3681409,40.2465566],[50.3690919,40.2470077],[50.3695828,40.2481803],[50.3649843,40.2532715],[50.3644854,40.2543613],[50.364465,40.2587303],[50.3654134,40.2631564],[50.3657793,40.2671278],[50.3661602,40.269826],[50.3664779,40.2704888],[50.3683662,40.2727481],[50.3684572,40.2755692],[50.3677974,40.2774825],[50.3646256,40.285773],[50.3626431,40.2889447],[50.3614768,40.2905166],[50.3609004,40.2917805],[50.3598291,40.2935852],[50.3593101,40.2955905],[50.3575569,40.295314],[50.355281,40.2947687]]]]}},{"type":"Feature","properties":{"name":"Սև լիճ արգելավայր"},"geometry":{"type":"MultiPolygon","coordinates":[[[[46.2103844,39.6019246],[46.2119938,39.5953629],[46.2126126,39.5937016],[46.2130822,39.5928329],[46.213675,39.5920592],[46.2143552,39.5913034],[46.2151832,39.5905666],[46.2160605,39.5898677],[46.2170364,39.5892449],[46.2196612,39.5884588],[46.2225818,39.5879196],[46.2256257,39.5875134],[46.2286942,39.5874206],[46.230871,39.5874209],[46.2329246,39.587611],[46.2370564,39.5882858],[46.2405288,39.5889359],[46.2438534,39.5898139],[46.2464309,39.5906324],[46.2488604,39.5917548],[46.2503704,39.5925292],[46.2518065,39.5933985],[46.2535393,39.5947143],[46.2547804,39.5965038],[46.2552131,39.5981364],[46.2550516,39.5998795],[46.253166,39.6032937],[46.2525415,39.6026672],[46.2517709,39.6018942],[46.2495074,39.6008648],[46.2324329,39.6012658],[46.2103844,39.6019246]]]]}},{"type":"Feature","properties":{"name":"پارک جنگلی آزاد"},"geometry":{"type":"MultiPolygon","coordinates":[[[[47.7077798,39.584316],[47.7074441,39.5841864],[47.7067827,39.5842853],[47.706949,39.5847855],[47.7071636,39.5852775],[47.7074962,39.5853561],[47.708097,39.5854594],[47.7089339,39.5854305],[47.7091055,39.5852238],[47.7081797,39.5848678],[47.7078485,39.5846157],[47.7077798,39.584316]]]]}},{"type":"Feature","properties":{},"geometry":{"type":"MultiPolygon","coordinates":[[[[49.3561777,39.9794318],[49.3529892,39.9778929],[49.3520472,39.9766201],[49.3516251,39.9754348],[49.3515331,39.9736321],[49.3535355,39.971905],[49.3555622,39.970528],[49.357316,39.9685933],[49.3596196,39.9686679],[49.3624044,39.9700303],[49.3642145,39.9706379],[49.3656069,39.972696],[49.3658383,39.9753695],[49.3659067,39.9771201],[49.3650847,39.9783596],[49.3657658,39.9809269],[49.3661427,39.9826119],[49.3657994,39.9832531],[49.3643617,39.9823488],[49.3640828,39.9835819],[49.3633318,39.983993],[49.3616581,39.9839601],[49.3603277,39.9832695],[49.3594479,39.9822173],[49.3592119,39.9811979],[49.3594504,39.9802142],[49.3594607,39.9801535],[49.358169,39.9794937],[49.3561777,39.9794318]]]]}},{"type":"Feature","properties":{},"geometry":{"type":"MultiPolygon","coordinates":[[[[49.4026637,39.9977859],[49.4016766,39.9975064],[49.4010973,39.9970051],[49.4010544,39.9957393],[49.4016015,39.9951722],[49.4028139,39.9946544],[49.40364,39.9947037],[49.4045734,39.9951722],[49.4051421,39.9955503],[49.4053996,39.9953366],[49.4054747,39.9949831],[49.405657,39.9947448],[49.4066548,39.9944571],[49.4072664,39.994605],[49.4073737,39.9951146],[49.4070411,39.9954434],[49.4068265,39.9956736],[49.4069767,39.9959694],[49.4071269,39.9962571],[49.4069445,39.9965777],[49.4063866,39.9966927],[49.4059789,39.9968653],[49.4055765,39.9970051],[49.4050455,39.9970873],[49.404434,39.9971448],[49.4039512,39.9973831],[49.4034469,39.9976379],[49.4030499,39.9977612],[49.4026637,39.9977859]]]]}},{"type":"Feature","properties":{},"geometry":{"type":"MultiPolygon","coordinates":[[[[49.2881869,40.179857],[49.2829513,40.1774962],[49.2788314,40.1757912],[49.2758273,40.17284],[49.2741107,40.1684457],[49.2727374,40.1633953],[49.2747974,40.1577541],[49.2791747,40.1544741],[49.2846679,40.1512596],[49.2908477,40.1494227],[49.298315,40.1496195],[49.3080138,40.1530309],[49.311962,40.1580821],[49.311962,40.1610995],[49.3128203,40.1639856],[49.3171977,40.1664781],[49.3184852,40.1683146],[49.3189143,40.172053],[49.3165969,40.176447],[49.3115329,40.1808407],[49.3062972,40.182021],[49.2991733,40.1817587],[49.292221,40.1807751],[49.2881869,40.179857]]]]}},{"type":"Feature","properties":{},"geometry":{"type":"MultiPolygon","coordinates":[[[[49.2375067,40.186234],[49.2373484,40.1860188],[49.2372894,40.185816],[49.2374048,40.1856275],[49.237563,40.1855312],[49.2377856,40.1854963],[49.2380056,40.1855988],[49.2381236,40.1857832],[49.2382523,40.1859512],[49.2384964,40.1861111],[49.2385635,40.1861848],[49.2384964,40.1863324],[49.2382899,40.1864184],[49.238027,40.1864123],[49.237732,40.1863467],[49.2375067,40.186234]]]]}},{"type":"Feature","properties":{},"geometry":{"type":"MultiPolygon","coordinates":[[[[49.3104386,39.9901911],[49.3091297,39.9896979],[49.3090009,39.988843],[49.3095588,39.9877579],[49.310267,39.9867222],[49.3109536,39.9858837],[49.3115759,39.985522],[49.3132281,39.9853083],[49.3157387,39.9852425],[49.3166399,39.9857686],[49.3166613,39.9868537],[49.3144941,39.98761],[49.3130779,39.9883498],[49.3124127,39.989665],[49.3114257,39.990224],[49.3104386,39.9901911]]]]}}]}