{"type":"FeatureCollection","features":[{"type":"Feature","properties":{"station_id":"OSM_RAIL_13019532659","name":"Ağdam","ady_stop_name":"Ağdam","ady_routes":"ADY_R05","operational_status":"listed on ADY passenger route stop list; OSM geometry matched","official_verified":true,"verification_status":"OFFICIAL_VERIFIED"},"geometry":{"type":"Point","coordinates":[46.961722200000004,39.9941023]}},{"type":"Feature","properties":{"station_id":"OSM_RAIL_8755531346","name":"Ağdaş","ady_stop_name":"Ağdaş","ady_routes":"ADY_R02;ADY_R06","operational_status":"listed on ADY passenger route stop list; OSM geometry matched","official_verified":true,"verification_status":"OFFICIAL_VERIFIED"},"geometry":{"type":"Point","coordinates":[47.5577545,40.6409681]}},{"type":"Feature","properties":{"station_id":"OSM_RAIL_184604225","name":"Ağstafa Stansiyası","ady_stop_name":"Ağstafa","ady_routes":"ADY_R01","operational_status":"listed on ADY passenger route stop list; OSM geometry matched","official_verified":true,"verification_status":"OFFICIAL_VERIFIED"},"geometry":{"type":"Point","coordinates":[45.4514404,41.1154011]}},{"type":"Feature","properties":{"station_id":"OSM_RAIL_3950438053","name":"Bakı Dəmiryol Stansiyası","ady_stop_name":"Bakı","ady_routes":"ADY_R01;ADY_R02;ADY_R03;ADY_R04;ADY_R05","operational_status":"listed on ADY passenger route stop list; OSM geometry matched","official_verified":true,"verification_status":"OFFICIAL_VERIFIED"},"geometry":{"type":"Point","coordinates":[49.8498448,40.3805137]}},{"type":"Feature","properties":{"station_id":"OSM_RAIL_3532696464","name":"Bakıxanov Stansiyası","ady_stop_name":"Bakıxanov","ady_routes":"ADY_R03","operational_status":"listed on ADY passenger route stop list; OSM geometry matched","official_verified":true,"verification_status":"OFFICIAL_VERIFIED"},"geometry":{"type":"Point","coordinates":[49.9540048,40.431552100000005]}},{"type":"Feature","properties":{"station_id":"OSM_RAIL_2862987409","name":"Balakən stansiyası","ady_stop_name":"Balakən","ady_routes":"ADY_R04","operational_status":"listed on ADY passenger route stop list; OSM geometry matched","official_verified":true,"verification_status":"OFFICIAL_VERIFIED"},"geometry":{"type":"Point","coordinates":[46.411378400000004,41.6780686]}},{"type":"Feature","properties":{"station_id":"OSM_RAIL_226573633","name":"Biləcəri","ady_stop_name":"Biləcəri","ady_routes":"ADY_R01;ADY_R02;ADY_R03;ADY_R04;ADY_R05","operational_status":"listed on ADY passenger route stop list; OSM geometry matched","official_verified":true,"verification_status":"OFFICIAL_VERIFIED"},"geometry":{"type":"Point","coordinates":[49.803532600000004,40.4330015]}},{"type":"Feature","properties":{"station_id":"OSM_RAIL_4923927139","name":"Bərdə","ady_stop_name":"Bərdə","ady_routes":"ADY_R05","operational_status":"listed on ADY passenger route stop list; OSM geometry matched","official_verified":true,"verification_status":"OFFICIAL_VERIFIED"},"geometry":{"type":"Point","coordinates":[47.1119392,40.368216600000004]}},{"type":"Feature","properties":{"station_id":"OSM_RAIL_3072414461","name":"Dəllər Stansiyası","ady_stop_name":"Dəllər","ady_routes":"ADY_R01","operational_status":"listed on ADY passenger route stop list; OSM geometry matched","official_verified":true,"verification_status":"OFFICIAL_VERIFIED"},"geometry":{"type":"Point","coordinates":[46.036022300000006,40.8681945]}},{"type":"Feature","properties":{"station_id":"OSM_RAIL_3082734892","name":"Goradil Stansiyası","ady_stop_name":"Goradil","ady_routes":"ADY_R03","operational_status":"listed on ADY passenger route stop list; OSM geometry matched","official_verified":true,"verification_status":"OFFICIAL_VERIFIED"},"geometry":{"type":"Point","coordinates":[49.828082900000005,40.5526606]}},{"type":"Feature","properties":{"station_id":"OSM_RAIL_3078929442","name":"Goran Stansiyası","ady_stop_name":"Goran","ady_routes":"ADY_R01;ADY_R06","operational_status":"listed on ADY passenger route stop list; OSM geometry matched","official_verified":true,"verification_status":"OFFICIAL_VERIFIED"},"geometry":{"type":"Point","coordinates":[46.851865000000004,40.652966500000005]}},{"type":"Feature","properties":{"station_id":"OSM_RAIL_3078931804","name":"Göynük","ady_stop_name":"Göynük","ady_routes":"ADY_R04","operational_status":"listed on ADY passenger route stop list; OSM geometry matched","official_verified":true,"verification_status":"OFFICIAL_VERIFIED"},"geometry":{"type":"Point","coordinates":[46.9710179,41.2762468]}},{"type":"Feature","properties":{"station_id":"OSM_RAIL_3072419334","name":"Gəncə","ady_stop_name":"Gəncə","ady_routes":"ADY_R01","operational_status":"listed on ADY passenger route stop list; OSM geometry matched","official_verified":true,"verification_status":"OFFICIAL_VERIFIED"},"geometry":{"type":"Point","coordinates":[46.3670789,40.7142801]}},{"type":"Feature","properties":{"station_id":"OSM_RAIL_2556912678","name":"Keşlə dayanacağı","ady_stop_name":"Keşlə","ady_routes":"ADY_R03","operational_status":"listed on ADY passenger route stop list; OSM geometry matched","official_verified":true,"verification_status":"OFFICIAL_VERIFIED"},"geometry":{"type":"Point","coordinates":[49.8926871,40.397849]}},{"type":"Feature","properties":{"station_id":"OSM_RAIL_3080700077","name":"Keşlə stansiyası","ady_stop_name":"Keşlə","ady_routes":"ADY_R03","operational_status":"listed on ADY passenger route stop list; OSM geometry matched","official_verified":true,"verification_status":"OFFICIAL_VERIFIED"},"geometry":{"type":"Point","coordinates":[49.873779400000004,40.4127139]}},{"type":"Feature","properties":{"station_id":"OSM_RAIL_3576383753","name":"Koroğlu","ady_stop_name":"Koroğlu","ady_routes":"ADY_R03","operational_status":"listed on ADY passenger route stop list; OSM geometry matched","official_verified":true,"verification_status":"OFFICIAL_VERIFIED"},"geometry":{"type":"Point","coordinates":[49.919645100000004,40.4193413]}},{"type":"Feature","properties":{"station_id":"OSM_RAIL_3078738493","name":"Köçərli","ady_stop_name":"Köçərli","ady_routes":"ADY_R05","operational_status":"listed on ADY passenger route stop list; OSM geometry matched","official_verified":true,"verification_status":"OFFICIAL_VERIFIED"},"geometry":{"type":"Point","coordinates":[47.090852100000006,40.2608102]}},{"type":"Feature","properties":{"station_id":"OSM_RAIL_4933662971","name":"Ləki","ady_stop_name":"Ləki","ady_routes":"ADY_R01;ADY_R04;ADY_R05;ADY_R06","operational_status":"listed on ADY passenger route stop list; OSM geometry matched","official_verified":true,"verification_status":"OFFICIAL_VERIFIED"},"geometry":{"type":"Point","coordinates":[47.426019000000004,40.553927]}},{"type":"Feature","properties":{"station_id":"OSM_RAIL_229039385","name":"Məmmədli","ady_stop_name":"Məmmədli","ady_routes":"ADY_R03","operational_status":"listed on ADY passenger route stop list; OSM geometry matched","official_verified":true,"verification_status":"OFFICIAL_VERIFIED"},"geometry":{"type":"Point","coordinates":[49.9455067,40.513136200000005]}},{"type":"Feature","properties":{"station_id":"OSM_RAIL_6518326476","name":"Novxanı Stansiyası","ady_stop_name":"Novxanı","ady_routes":"ADY_R03","operational_status":"listed on ADY passenger route stop list; OSM geometry matched","official_verified":true,"verification_status":"OFFICIAL_VERIFIED"},"geometry":{"type":"Point","coordinates":[49.777974900000004,40.556300900000004]}},{"type":"Feature","properties":{"station_id":"OSM_RAIL_6005205325","name":"Pirşağı Stansiyası","ady_stop_name":"Pirşağı","ady_routes":"ADY_R03","operational_status":"listed on ADY passenger route stop list; OSM geometry matched","official_verified":true,"verification_status":"OFFICIAL_VERIFIED"},"geometry":{"type":"Point","coordinates":[49.8871491,40.553325900000004]}},{"type":"Feature","properties":{"station_id":"OSM_RAIL_3709948483","name":"Qax Stansiyası","ady_stop_name":"Qax","ady_routes":"ADY_R04","operational_status":"listed on ADY passenger route stop list; OSM geometry matched","official_verified":true,"verification_status":"OFFICIAL_VERIFIED"},"geometry":{"type":"Point","coordinates":[46.8702971,41.319076200000005]}},{"type":"Feature","properties":{"station_id":"OSM_RAIL_5853817181","name":"Qazax Stansiyası","ady_stop_name":"Qazax","ady_routes":"ADY_R01","operational_status":"listed on ADY passenger route stop list; OSM geometry matched","official_verified":true,"verification_status":"OFFICIAL_VERIFIED"},"geometry":{"type":"Point","coordinates":[45.336263200000005,41.0994928]}},{"type":"Feature","properties":{"station_id":"OSM_RAIL_3078969897","name":"Qorağan Stansiyası","ady_stop_name":"Qorağan","ady_routes":"ADY_R04","operational_status":"listed on ADY passenger route stop list; OSM geometry matched","official_verified":true,"verification_status":"OFFICIAL_VERIFIED"},"geometry":{"type":"Point","coordinates":[46.755131000000006,41.3929029]}},{"type":"Feature","properties":{"station_id":"OSM_RAIL_8755506302","name":"Qəbələ Stansiyası","ady_stop_name":"Qəbələ","ady_routes":"ADY_R02","operational_status":"listed on ADY passenger route stop list; OSM geometry matched","official_verified":true,"verification_status":"OFFICIAL_VERIFIED"},"geometry":{"type":"Point","coordinates":[47.6944906,40.822436]}},{"type":"Feature","properties":{"station_id":"OSM_RAIL_3079897187","name":"Sabunçu Stansiyası","ady_stop_name":"Sabunçu","ady_routes":"ADY_R03","operational_status":"listed on ADY passenger route stop list; OSM geometry matched","official_verified":true,"verification_status":"OFFICIAL_VERIFIED"},"geometry":{"type":"Point","coordinates":[49.946408700000006,40.446229900000006]}},{"type":"Feature","properties":{"station_id":"OSM_RAIL_7542580360","name":"Sumqayıt","ady_stop_name":"Sumqayıt","ady_routes":"ADY_R03","operational_status":"listed on ADY passenger route stop list; OSM geometry matched","official_verified":true,"verification_status":"OFFICIAL_VERIFIED"},"geometry":{"type":"Point","coordinates":[49.681302300000006,40.561145700000004]}},{"type":"Feature","properties":{"station_id":"OSM_RAIL_3072414560","name":"Tovuz Stansiyasi","ady_stop_name":"Tovuz","ady_routes":"ADY_R01","operational_status":"listed on ADY passenger route stop list; OSM geometry matched","official_verified":true,"verification_status":"OFFICIAL_VERIFIED"},"geometry":{"type":"Point","coordinates":[45.616973200000004,40.994066100000005]}},{"type":"Feature","properties":{"station_id":"OSM_RAIL_13019532655","name":"Təzəkənd","ady_stop_name":"Təzəkənd","ady_routes":"ADY_R05","operational_status":"listed on ADY passenger route stop list; OSM geometry matched","official_verified":true,"verification_status":"OFFICIAL_VERIFIED"},"geometry":{"type":"Point","coordinates":[47.0572067,40.207490400000005]}},{"type":"Feature","properties":{"station_id":"OSM_RAIL_9162634974","name":"Ucar Stansiyası","ady_stop_name":"Ucar","ady_routes":"ADY_R01;ADY_R04;ADY_R05","operational_status":"listed on ADY passenger route stop list; OSM geometry matched","official_verified":true,"verification_status":"OFFICIAL_VERIFIED"},"geometry":{"type":"Point","coordinates":[47.649786500000005,40.509058]}},{"type":"Feature","properties":{"station_id":"OSM_RAIL_8132034726","name":"Xırdalan","ady_stop_name":"Xırdalan","ady_routes":"ADY_R03","operational_status":"listed on ADY passenger route stop list; OSM geometry matched","official_verified":true,"verification_status":"OFFICIAL_VERIFIED"},"geometry":{"type":"Point","coordinates":[49.748699200000004,40.4461023]}},{"type":"Feature","properties":{"station_id":"OSM_RAIL_9335634741","name":"Yevlax Stansiyası","ady_stop_name":"Yevlax","ady_routes":"ADY_R01;ADY_R04;ADY_R05;ADY_R06","operational_status":"listed on ADY passenger route stop list; OSM geometry matched","official_verified":true,"verification_status":"OFFICIAL_VERIFIED"},"geometry":{"type":"Point","coordinates":[47.149350600000005,40.620211100000006]}},{"type":"Feature","properties":{"station_id":"OSM_RAIL_6518322492","name":"Zabrat 1 Stansiyası","ady_stop_name":"Zabrat-1","ady_routes":"ADY_R03","operational_status":"listed on ADY passenger route stop list; OSM geometry matched","official_verified":true,"verification_status":"OFFICIAL_VERIFIED"},"geometry":{"type":"Point","coordinates":[49.954647400000006,40.4712613]}},{"type":"Feature","properties":{"station_id":"OSM_RAIL_3374799262","name":"Zabrat 2 Stansiyası","ady_stop_name":"Zabrat-2","ady_routes":"ADY_R03","operational_status":"listed on ADY passenger route stop list; OSM geometry matched","official_verified":true,"verification_status":"OFFICIAL_VERIFIED"},"geometry":{"type":"Point","coordinates":[49.9592119,40.488269800000005]}},{"type":"Feature","properties":{"station_id":"OSM_RAIL_3078981460","name":"Şəki stansiyası","ady_stop_name":"Şəki","ady_routes":"ADY_R04","operational_status":"listed on ADY passenger route stop list; OSM geometry matched","official_verified":true,"verification_status":"OFFICIAL_VERIFIED"},"geometry":{"type":"Point","coordinates":[47.133262800000004,41.068683]}}]}