{"type":"FeatureCollection","features":[{"type":"Feature","properties":{"label":"Astara","name":"Astara","place":"town"},"geometry":{"type":"Point","coordinates":[48.8746961,38.4530541]}},{"type":"Feature","properties":{"label":"Bakı","name":"Bakı","place":"city"},"geometry":{"type":"Point","coordinates":[49.8328009,40.3755885]}},{"type":"Feature","properties":{"label":"Bakı","name":"Bakı","place":"yes"},"geometry":{"type":"Point","coordinates":[50.0441468,40.4065026]}},{"type":"Feature","properties":{"label":"Gəncə","name":"Gəncə","place":"city"},"geometry":{"type":"Point","coordinates":[46.359717800000006,40.679808300000005]}},{"type":"Feature","properties":{"label":"Lahıc","name":"Lahıc","place":"hamlet"},"geometry":{"type":"Point","coordinates":[48.3826301,40.845732600000005]}},{"type":"Feature","properties":{"label":"Lənkəran","name":"Lənkəran","place":"city"},"geometry":{"type":"Point","coordinates":[48.8539286,38.7537311]}},{"type":"Feature","properties":{"label":"Mingəçevir","name":"Mingəçevir","place":"city"},"geometry":{"type":"Point","coordinates":[47.052389000000005,40.7646918]}},{"type":"Feature","properties":{"label":"Naftalan","name":"Naftalan","place":"town"},"geometry":{"type":"Point","coordinates":[46.821245000000005,40.5064362]}},{"type":"Feature","properties":{"label":"Naxçıvan","name":"Naxçıvan","place":"city"},"geometry":{"type":"Point","coordinates":[45.4069671,39.217497]}},{"type":"Feature","properties":{"label":"Quba","name":"Quba","place":"town"},"geometry":{"type":"Point","coordinates":[48.514238500000005,41.3615456]}},{"type":"Feature","properties":{"label":"Qusar","name":"Qusar","place":"town"},"geometry":{"type":"Point","coordinates":[48.4327339,41.4303387]}},{"type":"Feature","properties":{"label":"Zaqatala","name":"Zaqatala","place":"town"},"geometry":{"type":"Point","coordinates":[46.6435449,41.630746900000005]}},{"type":"Feature","properties":{"label":"İsmayıllı","name":"İsmayıllı","place":"town"},"geometry":{"type":"Point","coordinates":[48.1482869,40.7879263]}},{"type":"Feature","properties":{"label":"Şamaxı","name":"Şamaxı","place":"town"},"geometry":{"type":"Point","coordinates":[48.6383419,40.634120800000005]}},{"type":"Feature","properties":{"label":"Şuşa","name":"Şuşa","place":"town"},"geometry":{"type":"Point","coordinates":[46.751150100000004,39.7632567]}},{"type":"Feature","properties":{"label":"Şəki","name":"Şəki","place":"city"},"geometry":{"type":"Point","coordinates":[47.1803267,41.2032217]}}]}