{
"type": "FeatureCollection",
"name": "aze_adminpoints",
"crs": { "type": "name", "properties": { "name": "urn:ogc:def:crs:OGC:1.3:CRS84" } },
"features": [
{ "type": "Feature", "properties": { "admin_level": 0, "name": "Azerbaijan", "name1": "Azərbaycan", "name2": null, "name3": null, "x_coord": 47.71109211, "y_coord": 40.14853478, "adm4_name": null, "adm4_name1": null, "adm4_name2": null, "adm4_name3": null, "adm4_pcode": null, "adm3_name": null, "adm3_name1": null, "adm3_name2": null, "adm3_name3": null, "adm3_pcode": null, "adm2_name": null, "adm2_name1": null, "adm2_name2": null, "adm2_name3": null, "adm2_pcode": null, "adm1_name": null, "adm1_name1": null, "adm1_name2": null, "adm1_name3": null, "adm1_pcode": null, "adm0_name": "Azerbaijan", "adm0_name1": null, "adm0_name2": null, "adm0_name3": null, "adm0_pcode": "AZ", "valid_on": "2023-10-17", "valid_to": null, "version": "v01", "lang": "en", "lang1": "az", "lang2": null, "lang3": null }, "geometry": { "type": "Point", "coordinates": [ 47.711092110000095, 40.14853477500003 ] } },
{ "type": "Feature", "properties": { "admin_level": 1, "name": "Sumgait", "name1": "Sumqayıt", "name2": null, "name3": null, "x_coord": 49.6053088, "y_coord": 40.60061264, "adm4_name": null, "adm4_name1": null, "adm4_name2": null, "adm4_name3": null, "adm4_pcode": null, "adm3_name": null, "adm3_name1": null, "adm3_name2": null, "adm3_name3": null, "adm3_pcode": null, "adm2_name": null, "adm2_name1": null, "adm2_name2": null, "adm2_name3": null, "adm2_pcode": null, "adm1_name": "Sumgait", "adm1_name1": "Sumqayıt", "adm1_name2": null, "adm1_name3": null, "adm1_pcode": "AZ30900002", "adm0_name": "Azerbaijan", "adm0_name1": null, "adm0_name2": null, "adm0_name3": null, "adm0_pcode": "AZ", "valid_on": "2023-10-17", "valid_to": null, "version": "v01", "lang": "en", "lang1": "az", "lang2": null, "lang3": null }, "geometry": { "type": "Point", "coordinates": [ 49.605308803000071, 40.600612641 ] } },
{ "type": "Feature", "properties": { "admin_level": 1, "name": "Absheron", "name1": "Abşeron", "name2": null, "name3": null, "x_coord": 49.18721405, "y_coord": 40.29485876, "adm4_name": null, "adm4_name1": null, "adm4_name2": null, "adm4_name3": null, "adm4_pcode": null, "adm3_name": null, "adm3_name1": null, "adm3_name2": null, "adm3_name3": null, "adm3_pcode": null, "adm2_name": null, "adm2_name1": null, "adm2_name2": null, "adm2_name3": null, "adm2_pcode": null, "adm1_name": "Absheron", "adm1_name1": "Abşeron", "adm1_name2": null, "adm1_name3": null, "adm1_pcode": "AZ30800001", "adm0_name": "Azerbaijan", "adm0_name1": null, "adm0_name2": null, "adm0_name3": null, "adm0_pcode": "AZ", "valid_on": "2023-10-17", "valid_to": null, "version": "v01", "lang": "en", "lang1": "az", "lang2": null, "lang3": null }, "geometry": { "type": "Point", "coordinates": [ 49.187214050000136, 40.294858762000104 ] } },
{ "type": "Feature", "properties": { "admin_level": 1, "name": "Khizy", "name1": "Xızı", "name2": null, "name3": null, "x_coord": 49.19051195, "y_coord": 40.74268532, "adm4_name": null, "adm4_name1": null, "adm4_name2": null, "adm4_name3": null, "adm4_pcode": null, "adm3_name": null, "adm3_name1": null, "adm3_name2": null, "adm3_name3": null, "adm3_pcode": null, "adm2_name": null, "adm2_name1": null, "adm2_name2": null, "adm2_name3": null, "adm2_pcode": null, "adm1_name": "Khizy", "adm1_name1": "Xızı", "adm1_name2": null, "adm1_name3": null, "adm1_pcode": "AZ30600001", "adm0_name": "Azerbaijan", "adm0_name1": null, "adm0_name2": null, "adm0_name3": null, "adm0_pcode": "AZ", "valid_on": "2023-10-17", "valid_to": null, "version": "v01", "lang": "en", "lang1": "az", "lang2": null, "lang3": null }, "geometry": { "type": "Point", "coordinates": [ 49.190511951000076, 40.742685318000042 ] } },
{ "type": "Feature", "properties": { "admin_level": 1, "name": "Beylagan", "name1": "Beyləqan", "name2": null, "name3": null, "x_coord": 47.6246958, "y_coord": 39.83485794, "adm4_name": null, "adm4_name1": null, "adm4_name2": null, "adm4_name3": null, "adm4_pcode": null, "adm3_name": null, "adm3_name1": null, "adm3_name2": null, "adm3_name3": null, "adm3_pcode": null, "adm2_name": null, "adm2_name1": null, "adm2_name2": null, "adm2_name3": null, "adm2_pcode": null, "adm1_name": "Beylagan", "adm1_name1": "Beyləqan", "adm1_name2": null, "adm1_name3": null, "adm1_pcode": "AZ60700001", "adm0_name": "Azerbaijan", "adm0_name1": null, "adm0_name2": null, "adm0_name3": null, "adm0_pcode": "AZ", "valid_on": "2023-10-17", "valid_to": null, "version": "v01", "lang": "en", "lang1": "az", "lang2": null, "lang3": null }, "geometry": { "type": "Point", "coordinates": [ 47.624695800000097, 39.834857941000109 ] } },
{ "type": "Feature", "properties": { "admin_level": 1, "name": "Neftchala", "name1": "Neftçala", "name2": null, "name3": null, "x_coord": 49.05408057, "y_coord": 39.33711433, "adm4_name": null, "adm4_name1": null, "adm4_name2": null, "adm4_name3": null, "adm4_pcode": null, "adm3_name": null, "adm3_name1": null, "adm3_name2": null, "adm3_name3": null, "adm3_pcode": null, "adm2_name": null, "adm2_name1": null, "adm2_name2": null, "adm2_name3": null, "adm2_pcode": null, "adm1_name": "Neftchala", "adm1_name1": "Neftçala", "adm1_name2": null, "adm1_name3": null, "adm1_pcode": "AZ80700001", "adm0_name": "Azerbaijan", "adm0_name1": null, "adm0_name2": null, "adm0_name3": null, "adm0_pcode": "AZ", "valid_on": "2023-10-17", "valid_to": null, "version": "v01", "lang": "en", "lang1": "az", "lang2": null, "lang3": null }, "geometry": { "type": "Point", "coordinates": [ 49.054080569000121, 39.337114335000194 ] } },
{ "type": "Feature", "properties": { "admin_level": 1, "name": "Ujar", "name1": "Ucar", "name2": null, "name3": null, "x_coord": 47.74431613, "y_coord": 40.41611481, "adm4_name": null, "adm4_name1": null, "adm4_name2": null, "adm4_name3": null, "adm4_pcode": null, "adm3_name": null, "adm3_name1": null, "adm3_name2": null, "adm3_name3": null, "adm3_pcode": null, "adm2_name": null, "adm2_name1": null, "adm2_name2": null, "adm2_name3": null, "adm2_pcode": null, "adm1_name": "Ujar", "adm1_name1": "Ucar", "adm1_name2": null, "adm1_name3": null, "adm1_pcode": "AZ90400001", "adm0_name": "Azerbaijan", "adm0_name1": null, "adm0_name2": null, "adm0_name3": null, "adm0_pcode": "AZ", "valid_on": "2023-10-17", "valid_to": null, "version": "v01", "lang": "en", "lang1": "az", "lang2": null, "lang3": null }, "geometry": { "type": "Point", "coordinates": [ 47.744316126000172, 40.416114807999975 ] } },
{ "type": "Feature", "properties": { "admin_level": 1, "name": "Saatly", "name1": "Saatlı", "name2": null, "name3": null, "x_coord": 48.45506604, "y_coord": 39.80771065, "adm4_name": null, "adm4_name1": null, "adm4_name2": null, "adm4_name3": null, "adm4_pcode": null, "adm3_name": null, "adm3_name1": null, "adm3_name2": null, "adm3_name3": null, "adm3_pcode": null, "adm2_name": null, "adm2_name1": null, "adm2_name2": null, "adm2_name3": null, "adm2_pcode": null, "adm1_name": "Saatly", "adm1_name1": "Saatlı", "adm1_name2": null, "adm1_name3": null, "adm1_pcode": "AZ90800001", "adm0_name": "Azerbaijan", "adm0_name1": null, "adm0_name2": null, "adm0_name3": null, "adm0_pcode": "AZ", "valid_on": "2023-10-17", "valid_to": null, "version": "v01", "lang": "en", "lang1": "az", "lang2": null, "lang3": null }, "geometry": { "type": "Point", "coordinates": [ 48.45506604000019, 39.807710648000068 ] } },
{ "type": "Feature", "properties": { "admin_level": 1, "name": "Barda", "name1": "Bərdə", "name2": null, "name3": null, "x_coord": 47.16991835, "y_coord": 40.34823799, "adm4_name": null, "adm4_name1": null, "adm4_name2": null, "adm4_name3": null, "adm4_pcode": null, "adm3_name": null, "adm3_name1": null, "adm3_name2": null, "adm3_name3": null, "adm3_pcode": null, "adm2_name": null, "adm2_name1": null, "adm2_name2": null, "adm2_name3": null, "adm2_pcode": null, "adm1_name": "Barda", "adm1_name1": "Bərdə", "adm1_name2": null, "adm1_name3": null, "adm1_pcode": "AZ61000001", "adm0_name": "Azerbaijan", "adm0_name1": null, "adm0_name2": null, "adm0_name3": null, "adm0_pcode": "AZ", "valid_on": "2023-10-17", "valid_to": null, "version": "v01", "lang": "en", "lang1": "az", "lang2": null, "lang3": null }, "geometry": { "type": "Point", "coordinates": [ 47.169918348000181, 40.348237992000122 ] } },
{ "type": "Feature", "properties": { "admin_level": 1, "name": "Agdash", "name1": "Ağdaş", "name2": null, "name3": null, "x_coord": 47.35508327, "y_coord": 40.53911591, "adm4_name": null, "adm4_name1": null, "adm4_name2": null, "adm4_name3": null, "adm4_pcode": null, "adm3_name": null, "adm3_name1": null, "adm3_name2": null, "adm3_name3": null, "adm3_pcode": null, "adm2_name": null, "adm2_name1": null, "adm2_name2": null, "adm2_name3": null, "adm2_pcode": null, "adm1_name": "Agdash", "adm1_name1": "Ağdaş", "adm1_name2": null, "adm1_name3": null, "adm1_pcode": "AZ90300001", "adm0_name": "Azerbaijan", "adm0_name1": null, "adm0_name2": null, "adm0_name3": null, "adm0_pcode": "AZ", "valid_on": "2023-10-17", "valid_to": null, "version": "v01", "lang": "en", "lang1": "az", "lang2": null, "lang3": null }, "geometry": { "type": "Point", "coordinates": [ 47.355083269000147, 40.539115906000063 ] } },
{ "type": "Feature", "properties": { "admin_level": 1, "name": "Zardab", "name1": "Zərdab", "name2": null, "name3": null, "x_coord": 47.69741351, "y_coord": 40.23783493, "adm4_name": null, "adm4_name1": null, "adm4_name2": null, "adm4_name3": null, "adm4_pcode": null, "adm3_name": null, "adm3_name1": null, "adm3_name2": null, "adm3_name3": null, "adm3_pcode": null, "adm2_name": null, "adm2_name1": null, "adm2_name2": null, "adm2_name3": null, "adm2_pcode": null, "adm1_name": "Zardab", "adm1_name1": "Zərdab", "adm1_name2": null, "adm1_name3": null, "adm1_pcode": "AZ90500001", "adm0_name": "Azerbaijan", "adm0_name1": null, "adm0_name2": null, "adm0_name3": null, "adm0_pcode": "AZ", "valid_on": "2023-10-17", "valid_to": null, "version": "v01", "lang": "en", "lang1": "az", "lang2": null, "lang3": null }, "geometry": { "type": "Point", "coordinates": [ 47.697413510000047, 40.237834931000179 ] } },
{ "type": "Feature", "properties": { "admin_level": 1, "name": "Mingechevir", "name1": "Mingəçevir", "name2": null, "name3": null, "x_coord": 46.98536868, "y_coord": 40.75158882, "adm4_name": null, "adm4_name1": null, "adm4_name2": null, "adm4_name3": null, "adm4_pcode": null, "adm3_name": null, "adm3_name1": null, "adm3_name2": null, "adm3_name3": null, "adm3_pcode": null, "adm2_name": null, "adm2_name1": null, "adm2_name2": null, "adm2_name3": null, "adm2_pcode": null, "adm1_name": "Mingechevir", "adm1_name1": "Mingəçevir", "adm1_name2": null, "adm1_name3": null, "adm1_pcode": "AZ90200002", "adm0_name": "Azerbaijan", "adm0_name1": null, "adm0_name2": null, "adm0_name3": null, "adm0_pcode": "AZ", "valid_on": "2023-10-17", "valid_to": null, "version": "v01", "lang": "en", "lang1": "az", "lang2": null, "lang3": null }, "geometry": { "type": "Point", "coordinates": [ 46.985368682000058, 40.751588822000087 ] } },
{ "type": "Feature", "properties": { "admin_level": 1, "name": "Shirvan", "name1": "Şirvan", "name2": null, "name3": null, "x_coord": 48.9220332, "y_coord": 39.94815445, "adm4_name": null, "adm4_name1": null, "adm4_name2": null, "adm4_name3": null, "adm4_pcode": null, "adm3_name": null, "adm3_name1": null, "adm3_name2": null, "adm3_name3": null, "adm3_pcode": null, "adm2_name": null, "adm2_name1": null, "adm2_name2": null, "adm2_name3": null, "adm2_pcode": null, "adm1_name": "Shirvan", "adm1_name1": "Şirvan", "adm1_name2": null, "adm1_name3": null, "adm1_pcode": "AZ91100002", "adm0_name": "Azerbaijan", "adm0_name1": null, "adm0_name2": null, "adm0_name3": null, "adm0_pcode": "AZ", "valid_on": "2023-10-17", "valid_to": null, "version": "v01", "lang": "en", "lang1": "az", "lang2": null, "lang3": null }, "geometry": { "type": "Point", "coordinates": [ 48.922033199000111, 39.94815445 ] } },
{ "type": "Feature", "properties": { "admin_level": 1, "name": "Sabirabad", "name1": "Sabirabad", "name2": null, "name3": null, "x_coord": 48.78585831, "y_coord": 39.86394501, "adm4_name": null, "adm4_name1": null, "adm4_name2": null, "adm4_name3": null, "adm4_pcode": null, "adm3_name": null, "adm3_name1": null, "adm3_name2": null, "adm3_name3": null, "adm3_pcode": null, "adm2_name": null, "adm2_name1": null, "adm2_name2": null, "adm2_name3": null, "adm2_pcode": null, "adm1_name": "Sabirabad", "adm1_name1": "Sabirabad", "adm1_name2": null, "adm1_name3": null, "adm1_pcode": "AZ90900001", "adm0_name": "Azerbaijan", "adm0_name1": null, "adm0_name2": null, "adm0_name3": null, "adm0_pcode": "AZ", "valid_on": "2023-10-17", "valid_to": null, "version": "v01", "lang": "en", "lang1": "az", "lang2": null, "lang3": null }, "geometry": { "type": "Point", "coordinates": [ 48.785858315000041, 39.863945006999984 ] } },
{ "type": "Feature", "properties": { "admin_level": 1, "name": "Bilasuvar", "name1": "Biləsuvar", "name2": null, "name3": null, "x_coord": 48.46171073, "y_coord": 39.50925636, "adm4_name": null, "adm4_name1": null, "adm4_name2": null, "adm4_name3": null, "adm4_pcode": null, "adm3_name": null, "adm3_name1": null, "adm3_name2": null, "adm3_name3": null, "adm3_pcode": null, "adm2_name": null, "adm2_name1": null, "adm2_name2": null, "adm2_name3": null, "adm2_pcode": null, "adm1_name": "Bilasuvar", "adm1_name1": "Biləsuvar", "adm1_name2": null, "adm1_name3": null, "adm1_pcode": "AZ80800001", "adm0_name": "Azerbaijan", "adm0_name1": null, "adm0_name2": null, "adm0_name3": null, "adm0_pcode": "AZ", "valid_on": "2023-10-17", "valid_to": null, "version": "v01", "lang": "en", "lang1": "az", "lang2": null, "lang3": null }, "geometry": { "type": "Point", "coordinates": [ 48.461710735000111, 39.509256363000134 ] } },
{ "type": "Feature", "properties": { "admin_level": 1, "name": "Agdjabadi", "name1": "Ağcabədi", "name2": null, "name3": null, "x_coord": 47.37980853, "y_coord": 39.9793911, "adm4_name": null, "adm4_name1": null, "adm4_name2": null, "adm4_name3": null, "adm4_pcode": null, "adm3_name": null, "adm3_name1": null, "adm3_name2": null, "adm3_name3": null, "adm3_pcode": null, "adm2_name": null, "adm2_name1": null, "adm2_name2": null, "adm2_name3": null, "adm2_pcode": null, "adm1_name": "Agdjabadi", "adm1_name1": "Ağcabədi", "adm1_name2": null, "adm1_name3": null, "adm1_pcode": "AZ60800001", "adm0_name": "Azerbaijan", "adm0_name1": null, "adm0_name2": null, "adm0_name3": null, "adm0_pcode": "AZ", "valid_on": "2023-10-17", "valid_to": null, "version": "v01", "lang": "en", "lang1": "az", "lang2": null, "lang3": null }, "geometry": { "type": "Point", "coordinates": [ 47.37980853300013, 39.979391098000121 ] } },
{ "type": "Feature", "properties": { "admin_level": 1, "name": "Salyan", "name1": "Salyan", "name2": null, "name3": null, "x_coord": 49.106668, "y_coord": 39.63236618, "adm4_name": null, "adm4_name1": null, "adm4_name2": null, "adm4_name3": null, "adm4_pcode": null, "adm3_name": null, "adm3_name1": null, "adm3_name2": null, "adm3_name3": null, "adm3_pcode": null, "adm2_name": null, "adm2_name1": null, "adm2_name2": null, "adm2_name3": null, "adm2_pcode": null, "adm1_name": "Salyan", "adm1_name1": "Salyan", "adm1_name2": null, "adm1_name3": null, "adm1_pcode": "AZ80900001", "adm0_name": "Azerbaijan", "adm0_name1": null, "adm0_name2": null, "adm0_name3": null, "adm0_pcode": "AZ", "valid_on": "2023-10-17", "valid_to": null, "version": "v01", "lang": "en", "lang1": "az", "lang2": null, "lang3": null }, "geometry": { "type": "Point", "coordinates": [ 49.106667999000194, 39.632366181000123 ] } },
{ "type": "Feature", "properties": { "admin_level": 1, "name": "Hajigabul", "name1": "Hacıqabul", "name2": null, "name3": null, "x_coord": 48.9285687, "y_coord": 40.07907677, "adm4_name": null, "adm4_name1": null, "adm4_name2": null, "adm4_name3": null, "adm4_pcode": null, "adm3_name": null, "adm3_name1": null, "adm3_name2": null, "adm3_name3": null, "adm3_pcode": null, "adm2_name": null, "adm2_name1": null, "adm2_name2": null, "adm2_name3": null, "adm2_pcode": null, "adm1_name": "Hajigabul", "adm1_name1": "Hacıqabul", "adm1_name2": null, "adm1_name3": null, "adm1_pcode": "AZ91000001", "adm0_name": "Azerbaijan", "adm0_name1": null, "adm0_name2": null, "adm0_name3": null, "adm0_pcode": "AZ", "valid_on": "2023-10-17", "valid_to": null, "version": "v01", "lang": "en", "lang1": "az", "lang2": null, "lang3": null }, "geometry": { "type": "Point", "coordinates": [ 48.928568697000117, 40.079076767000117 ] } },
{ "type": "Feature", "properties": { "admin_level": 1, "name": "Imishly", "name1": "İmişli", "name2": null, "name3": null, "x_coord": 47.98649418, "y_coord": 39.84840393, "adm4_name": null, "adm4_name1": null, "adm4_name2": null, "adm4_name3": null, "adm4_pcode": null, "adm3_name": null, "adm3_name1": null, "adm3_name2": null, "adm3_name3": null, "adm3_pcode": null, "adm2_name": null, "adm2_name1": null, "adm2_name2": null, "adm2_name3": null, "adm2_pcode": null, "adm1_name": "Imishly", "adm1_name1": "İmişli", "adm1_name2": null, "adm1_name3": null, "adm1_pcode": "AZ90700001", "adm0_name": "Azerbaijan", "adm0_name1": null, "adm0_name2": null, "adm0_name3": null, "adm0_pcode": "AZ", "valid_on": "2023-10-17", "valid_to": null, "version": "v01", "lang": "en", "lang1": "az", "lang2": null, "lang3": null }, "geometry": { "type": "Point", "coordinates": [ 47.986494176000065, 39.848403930000131 ] } },
{ "type": "Feature", "properties": { "admin_level": 1, "name": "Kurdamir", "name1": "Kürdəmir", "name2": null, "name3": null, "x_coord": 48.1934396, "y_coord": 40.24892616, "adm4_name": null, "adm4_name1": null, "adm4_name2": null, "adm4_name3": null, "adm4_pcode": null, "adm3_name": null, "adm3_name1": null, "adm3_name2": null, "adm3_name3": null, "adm3_pcode": null, "adm2_name": null, "adm2_name1": null, "adm2_name2": null, "adm2_name3": null, "adm2_pcode": null, "adm1_name": "Kurdamir", "adm1_name1": "Kürdəmir", "adm1_name2": null, "adm1_name3": null, "adm1_pcode": "AZ90600001", "adm0_name": "Azerbaijan", "adm0_name1": null, "adm0_name2": null, "adm0_name3": null, "adm0_pcode": "AZ", "valid_on": "2023-10-17", "valid_to": null, "version": "v01", "lang": "en", "lang1": "az", "lang2": null, "lang3": null }, "geometry": { "type": "Point", "coordinates": [ 48.193439597000065, 40.248926163000192 ] } },
{ "type": "Feature", "properties": { "admin_level": 1, "name": "Goychay", "name1": "Göyçay", "name2": null, "name3": null, "x_coord": 47.80977362, "y_coord": 40.56056976, "adm4_name": null, "adm4_name1": null, "adm4_name2": null, "adm4_name3": null, "adm4_pcode": null, "adm3_name": null, "adm3_name1": null, "adm3_name2": null, "adm3_name3": null, "adm3_pcode": null, "adm2_name": null, "adm2_name1": null, "adm2_name2": null, "adm2_name3": null, "adm2_pcode": null, "adm1_name": "Goychay", "adm1_name1": "Göyçay", "adm1_name2": null, "adm1_name3": null, "adm1_pcode": "AZ40800001", "adm0_name": "Azerbaijan", "adm0_name1": null, "adm0_name2": null, "adm0_name3": null, "adm0_pcode": "AZ", "valid_on": "2023-10-17", "valid_to": null, "version": "v01", "lang": "en", "lang1": "az", "lang2": null, "lang3": null }, "geometry": { "type": "Point", "coordinates": [ 47.809773622000023, 40.560569764000036 ] } },
{ "type": "Feature", "properties": { "admin_level": 1, "name": "Yevlakh", "name1": "Yevlax", "name2": null, "name3": null, "x_coord": 47.0186084, "y_coord": 40.69186974, "adm4_name": null, "adm4_name1": null, "adm4_name2": null, "adm4_name3": null, "adm4_pcode": null, "adm3_name": null, "adm3_name1": null, "adm3_name2": null, "adm3_name3": null, "adm3_pcode": null, "adm2_name": null, "adm2_name1": null, "adm2_name2": null, "adm2_name3": null, "adm2_pcode": null, "adm1_name": "Yevlakh", "adm1_name1": "Yevlax", "adm1_name2": null, "adm1_name3": null, "adm1_pcode": "AZ90101002", "adm0_name": "Azerbaijan", "adm0_name1": null, "adm0_name2": null, "adm0_name3": null, "adm0_pcode": "AZ", "valid_on": "2023-10-17", "valid_to": null, "version": "v01", "lang": "en", "lang1": "az", "lang2": null, "lang3": null }, "geometry": { "type": "Point", "coordinates": [ 47.018608396000161, 40.691869736000172 ] } },
{ "type": "Feature", "properties": { "admin_level": 1, "name": "Baku", "name1": "Bakı", "name2": null, "name3": null, "x_coord": 49.41941692, "y_coord": 40.12768555, "adm4_name": null, "adm4_name1": null, "adm4_name2": null, "adm4_name3": null, "adm4_pcode": null, "adm3_name": null, "adm3_name1": null, "adm3_name2": null, "adm3_name3": null, "adm3_pcode": null, "adm2_name": null, "adm2_name1": null, "adm2_name2": null, "adm2_name3": null, "adm2_pcode": null, "adm1_name": "Baku", "adm1_name1": "Bakı", "adm1_name2": null, "adm1_name3": null, "adm1_pcode": "AZ00000003", "adm0_name": "Azerbaijan", "adm0_name1": null, "adm0_name2": null, "adm0_name3": null, "adm0_pcode": "AZ", "valid_on": "2023-10-17", "valid_to": null, "version": "v01", "lang": "en", "lang1": "az", "lang2": null, "lang3": null }, "geometry": { "type": "Point", "coordinates": [ 49.419416915000056, 40.127685547000169 ] } },
{ "type": "Feature", "properties": { "admin_level": 1, "name": "Goygol", "name1": "Göygöl", "name2": null, "name3": null, "x_coord": 46.3470923, "y_coord": 40.55315399, "adm4_name": null, "adm4_name1": null, "adm4_name2": null, "adm4_name3": null, "adm4_pcode": null, "adm3_name": null, "adm3_name1": null, "adm3_name2": null, "adm3_name3": null, "adm3_pcode": null, "adm2_name": null, "adm2_name1": null, "adm2_name2": null, "adm2_name3": null, "adm2_pcode": null, "adm1_name": "Goygol", "adm1_name1": "Göygöl", "adm1_name2": null, "adm1_name3": null, "adm1_pcode": "AZ50800001", "adm0_name": "Azerbaijan", "adm0_name1": null, "adm0_name2": null, "adm0_name3": null, "adm0_pcode": "AZ", "valid_on": "2023-10-17", "valid_to": null, "version": "v01", "lang": "en", "lang1": "az", "lang2": null, "lang3": null }, "geometry": { "type": "Point", "coordinates": [ 46.347092304000057, 40.553153991999977 ] } },
{ "type": "Feature", "properties": { "admin_level": 1, "name": "Samukh", "name1": "Samux", "name2": null, "name3": null, "x_coord": 46.50391285, "y_coord": 40.93917465, "adm4_name": null, "adm4_name1": null, "adm4_name2": null, "adm4_name3": null, "adm4_pcode": null, "adm3_name": null, "adm3_name1": null, "adm3_name2": null, "adm3_name3": null, "adm3_pcode": null, "adm2_name": null, "adm2_name1": null, "adm2_name2": null, "adm2_name3": null, "adm2_pcode": null, "adm1_name": "Samukh", "adm1_name1": "Samux", "adm1_name2": null, "adm1_name3": null, "adm1_pcode": "AZ50700001", "adm0_name": "Azerbaijan", "adm0_name1": null, "adm0_name2": null, "adm0_name3": null, "adm0_pcode": "AZ", "valid_on": "2023-10-17", "valid_to": null, "version": "v01", "lang": "en", "lang1": "az", "lang2": null, "lang3": null }, "geometry": { "type": "Point", "coordinates": [ 46.503912852000099, 40.939174652000077 ] } },
{ "type": "Feature", "properties": { "admin_level": 1, "name": "Aghstafa", "name1": "Ağstafa", "name2": null, "name3": null, "x_coord": 45.56709434, "y_coord": 41.21771431, "adm4_name": null, "adm4_name1": null, "adm4_name2": null, "adm4_name3": null, "adm4_pcode": null, "adm3_name": null, "adm3_name1": null, "adm3_name2": null, "adm3_name3": null, "adm3_pcode": null, "adm2_name": null, "adm2_name1": null, "adm2_name2": null, "adm2_name3": null, "adm2_pcode": null, "adm1_name": "Aghstafa", "adm1_name1": "Ağstafa", "adm1_name2": null, "adm1_name3": null, "adm1_pcode": "AZ50200001", "adm0_name": "Azerbaijan", "adm0_name1": null, "adm0_name2": null, "adm0_name3": null, "adm0_pcode": "AZ", "valid_on": "2023-10-17", "valid_to": null, "version": "v01", "lang": "en", "lang1": "az", "lang2": null, "lang3": null }, "geometry": { "type": "Point", "coordinates": [ 45.567094342000132, 41.217714310000076 ] } },
{ "type": "Feature", "properties": { "admin_level": 1, "name": "Ganja", "name1": "Gəncə", "name2": null, "name3": null, "x_coord": 46.32221676, "y_coord": 40.68096924, "adm4_name": null, "adm4_name1": null, "adm4_name2": null, "adm4_name3": null, "adm4_pcode": null, "adm3_name": null, "adm3_name1": null, "adm3_name2": null, "adm3_name3": null, "adm3_pcode": null, "adm2_name": null, "adm2_name1": null, "adm2_name2": null, "adm2_name3": null, "adm2_pcode": null, "adm1_name": "Ganja", "adm1_name1": "Gəncə", "adm1_name2": null, "adm1_name3": null, "adm1_pcode": "AZ20000002", "adm0_name": "Azerbaijan", "adm0_name1": null, "adm0_name2": null, "adm0_name3": null, "adm0_pcode": "AZ", "valid_on": "2023-10-17", "valid_to": null, "version": "v01", "lang": "en", "lang1": "az", "lang2": null, "lang3": null }, "geometry": { "type": "Point", "coordinates": [ 46.322216760000117, 40.680969238000102 ] } },
{ "type": "Feature", "properties": { "admin_level": 1, "name": "Naftalan", "name1": "Naftalan", "name2": null, "name3": null, "x_coord": 46.77600098, "y_coord": 40.44048882, "adm4_name": null, "adm4_name1": null, "adm4_name2": null, "adm4_name3": null, "adm4_pcode": null, "adm3_name": null, "adm3_name1": null, "adm3_name2": null, "adm3_name3": null, "adm3_pcode": null, "adm2_name": null, "adm2_name1": null, "adm2_name2": null, "adm2_name3": null, "adm2_pcode": null, "adm1_name": "Naftalan", "adm1_name1": "Naftalan", "adm1_name2": null, "adm1_name3": null, "adm1_pcode": "AZ51000002", "adm0_name": "Azerbaijan", "adm0_name1": null, "adm0_name2": null, "adm0_name3": null, "adm0_pcode": "AZ", "valid_on": "2023-10-17", "valid_to": null, "version": "v01", "lang": "en", "lang1": "az", "lang2": null, "lang3": null }, "geometry": { "type": "Point", "coordinates": [ 46.776000977000194, 40.440488816000027 ] } },
{ "type": "Feature", "properties": { "admin_level": 1, "name": "Gazakh", "name1": "Qazax", "name2": null, "name3": null, "x_coord": 45.26843304, "y_coord": 41.17921873, "adm4_name": null, "adm4_name1": null, "adm4_name2": null, "adm4_name3": null, "adm4_pcode": null, "adm3_name": null, "adm3_name1": null, "adm3_name2": null, "adm3_name3": null, "adm3_pcode": null, "adm2_name": null, "adm2_name1": null, "adm2_name2": null, "adm2_name3": null, "adm2_pcode": null, "adm1_name": "Gazakh", "adm1_name1": "Qazax", "adm1_name2": null, "adm1_name3": null, "adm1_pcode": "AZ50100001", "adm0_name": "Azerbaijan", "adm0_name1": null, "adm0_name2": null, "adm0_name3": null, "adm0_pcode": "AZ", "valid_on": "2023-10-17", "valid_to": null, "version": "v01", "lang": "en", "lang1": "az", "lang2": null, "lang3": null }, "geometry": { "type": "Point", "coordinates": [ 45.268433040000048, 41.179218735000063 ] } },
{ "type": "Feature", "properties": { "admin_level": 1, "name": "Goranboy", "name1": "Goranboy", "name2": null, "name3": null, "x_coord": 46.69213369, "y_coord": 40.60539055, "adm4_name": null, "adm4_name1": null, "adm4_name2": null, "adm4_name3": null, "adm4_pcode": null, "adm3_name": null, "adm3_name1": null, "adm3_name2": null, "adm3_name3": null, "adm3_pcode": null, "adm2_name": null, "adm2_name1": null, "adm2_name2": null, "adm2_name3": null, "adm2_pcode": null, "adm1_name": "Goranboy", "adm1_name1": "Goranboy", "adm1_name2": null, "adm1_name3": null, "adm1_pcode": "AZ50900001", "adm0_name": "Azerbaijan", "adm0_name1": null, "adm0_name2": null, "adm0_name3": null, "adm0_pcode": "AZ", "valid_on": "2023-10-17", "valid_to": null, "version": "v01", "lang": "en", "lang1": "az", "lang2": null, "lang3": null }, "geometry": { "type": "Point", "coordinates": [ 46.692133688000013, 40.605390549000106 ] } },
{ "type": "Feature", "properties": { "admin_level": 1, "name": "Gadabay", "name1": "Gədəbəy", "name2": null, "name3": null, "x_coord": 45.67222121, "y_coord": 40.56821632, "adm4_name": null, "adm4_name1": null, "adm4_name2": null, "adm4_name3": null, "adm4_pcode": null, "adm3_name": null, "adm3_name1": null, "adm3_name2": null, "adm3_name3": null, "adm3_pcode": null, "adm2_name": null, "adm2_name1": null, "adm2_name2": null, "adm2_name3": null, "adm2_pcode": null, "adm1_name": "Gadabay", "adm1_name1": "Gədəbəy", "adm1_name2": null, "adm1_name3": null, "adm1_pcode": "AZ50500001", "adm0_name": "Azerbaijan", "adm0_name1": null, "adm0_name2": null, "adm0_name3": null, "adm0_pcode": "AZ", "valid_on": "2023-10-17", "valid_to": null, "version": "v01", "lang": "en", "lang1": "az", "lang2": null, "lang3": null }, "geometry": { "type": "Point", "coordinates": [ 45.672221208000053, 40.568216324000161 ] } },
{ "type": "Feature", "properties": { "admin_level": 1, "name": "Shamkir", "name1": "Şəmkir", "name2": null, "name3": null, "x_coord": 45.99836114, "y_coord": 40.84320641, "adm4_name": null, "adm4_name1": null, "adm4_name2": null, "adm4_name3": null, "adm4_pcode": null, "adm3_name": null, "adm3_name1": null, "adm3_name2": null, "adm3_name3": null, "adm3_pcode": null, "adm2_name": null, "adm2_name1": null, "adm2_name2": null, "adm2_name3": null, "adm2_pcode": null, "adm1_name": "Shamkir", "adm1_name1": "Şəmkir", "adm1_name2": null, "adm1_name3": null, "adm1_pcode": "AZ50400001", "adm0_name": "Azerbaijan", "adm0_name1": null, "adm0_name2": null, "adm0_name3": null, "adm0_pcode": "AZ", "valid_on": "2023-10-17", "valid_to": null, "version": "v01", "lang": "en", "lang1": "az", "lang2": null, "lang3": null }, "geometry": { "type": "Point", "coordinates": [ 45.998361138000178, 40.843206406000093 ] } },
{ "type": "Feature", "properties": { "admin_level": 1, "name": "Tovuz", "name1": "Tovuz", "name2": null, "name3": null, "x_coord": 45.66382319, "y_coord": 40.91559982, "adm4_name": null, "adm4_name1": null, "adm4_name2": null, "adm4_name3": null, "adm4_pcode": null, "adm3_name": null, "adm3_name1": null, "adm3_name2": null, "adm3_name3": null, "adm3_pcode": null, "adm2_name": null, "adm2_name1": null, "adm2_name2": null, "adm2_name3": null, "adm2_pcode": null, "adm1_name": "Tovuz", "adm1_name1": "Tovuz", "adm1_name2": null, "adm1_name3": null, "adm1_pcode": "AZ50300001", "adm0_name": "Azerbaijan", "adm0_name1": null, "adm0_name2": null, "adm0_name3": null, "adm0_pcode": "AZ", "valid_on": "2023-10-17", "valid_to": null, "version": "v01", "lang": "en", "lang1": "az", "lang2": null, "lang3": null }, "geometry": { "type": "Point", "coordinates": [ 45.663823185000012, 40.91559982299998 ] } },
{ "type": "Feature", "properties": { "admin_level": 1, "name": "Dashkasan", "name1": "Daşkəsən", "name2": null, "name3": null, "x_coord": 45.98645913, "y_coord": 40.47824287, "adm4_name": null, "adm4_name1": null, "adm4_name2": null, "adm4_name3": null, "adm4_pcode": null, "adm3_name": null, "adm3_name1": null, "adm3_name2": null, "adm3_name3": null, "adm3_pcode": null, "adm2_name": null, "adm2_name1": null, "adm2_name2": null, "adm2_name3": null, "adm2_pcode": null, "adm1_name": "Dashkasan", "adm1_name1": "Daşkəsən", "adm1_name2": null, "adm1_name3": null, "adm1_pcode": "AZ50600001", "adm0_name": "Azerbaijan", "adm0_name1": null, "adm0_name2": null, "adm0_name3": null, "adm0_pcode": "AZ", "valid_on": "2023-10-17", "valid_to": null, "version": "v01", "lang": "en", "lang1": "az", "lang2": null, "lang3": null }, "geometry": { "type": "Point", "coordinates": [ 45.986459125000124, 40.478242874000046 ] } },
{ "type": "Feature", "properties": { "admin_level": 1, "name": "Zangilan", "name1": "Zəngilan", "name2": null, "name3": null, "x_coord": 46.65684386, "y_coord": 39.05018234, "adm4_name": null, "adm4_name1": null, "adm4_name2": null, "adm4_name3": null, "adm4_pcode": null, "adm3_name": null, "adm3_name1": null, "adm3_name2": null, "adm3_name3": null, "adm3_pcode": null, "adm2_name": null, "adm2_name1": null, "adm2_name2": null, "adm2_name3": null, "adm2_pcode": null, "adm1_name": "Zangilan", "adm1_name1": "Zəngilan", "adm1_name2": null, "adm1_name3": null, "adm1_pcode": "AZ60400001", "adm0_name": "Azerbaijan", "adm0_name1": null, "adm0_name2": null, "adm0_name3": null, "adm0_pcode": "AZ", "valid_on": "2023-10-17", "valid_to": null, "version": "v01", "lang": "en", "lang1": "az", "lang2": null, "lang3": null }, "geometry": { "type": "Point", "coordinates": [ 46.656843860000095, 39.050182343000188 ] } },
{ "type": "Feature", "properties": { "admin_level": 1, "name": "Lachin", "name1": "Laçın", "name2": null, "name3": null, "x_coord": 46.31516697, "y_coord": 39.69772148, "adm4_name": null, "adm4_name1": null, "adm4_name2": null, "adm4_name3": null, "adm4_pcode": null, "adm3_name": null, "adm3_name1": null, "adm3_name2": null, "adm3_name3": null, "adm3_pcode": null, "adm2_name": null, "adm2_name1": null, "adm2_name2": null, "adm2_name3": null, "adm2_pcode": null, "adm1_name": "Lachin", "adm1_name1": "Laçın", "adm1_name2": null, "adm1_name3": null, "adm1_pcode": "AZ60200001", "adm0_name": "Azerbaijan", "adm0_name1": null, "adm0_name2": null, "adm0_name3": null, "adm0_pcode": "AZ", "valid_on": "2023-10-17", "valid_to": null, "version": "v01", "lang": "en", "lang1": "az", "lang2": null, "lang3": null }, "geometry": { "type": "Point", "coordinates": [ 46.315166968000028, 39.697721481000031 ] } },
{ "type": "Feature", "properties": { "admin_level": 1, "name": "Kalbajar", "name1": "Kəlbəcər", "name2": null, "name3": null, "x_coord": 46.31091771, "y_coord": 40.06149292, "adm4_name": null, "adm4_name1": null, "adm4_name2": null, "adm4_name3": null, "adm4_pcode": null, "adm3_name": null, "adm3_name1": null, "adm3_name2": null, "adm3_name3": null, "adm3_pcode": null, "adm2_name": null, "adm2_name1": null, "adm2_name2": null, "adm2_name3": null, "adm2_pcode": null, "adm1_name": "Kalbajar", "adm1_name1": "Kəlbəcər", "adm1_name2": null, "adm1_name3": null, "adm1_pcode": "AZ60100001", "adm0_name": "Azerbaijan", "adm0_name1": null, "adm0_name2": null, "adm0_name3": null, "adm0_pcode": "AZ", "valid_on": "2023-10-17", "valid_to": null, "version": "v01", "lang": "en", "lang1": "az", "lang2": null, "lang3": null }, "geometry": { "type": "Point", "coordinates": [ 46.310917707000044, 40.061492920000148 ] } },
{ "type": "Feature", "properties": { "admin_level": 1, "name": "Gubadly", "name1": "Qubadlı", "name2": null, "name3": null, "x_coord": 46.63685708, "y_coord": 39.30105591, "adm4_name": null, "adm4_name1": null, "adm4_name2": null, "adm4_name3": null, "adm4_pcode": null, "adm3_name": null, "adm3_name1": null, "adm3_name2": null, "adm3_name3": null, "adm3_pcode": null, "adm2_name": null, "adm2_name1": null, "adm2_name2": null, "adm2_name3": null, "adm2_pcode": null, "adm1_name": "Gubadly", "adm1_name1": "Qubadlı", "adm1_name2": null, "adm1_name3": null, "adm1_pcode": "AZ60300001", "adm0_name": "Azerbaijan", "adm0_name1": null, "adm0_name2": null, "adm0_name3": null, "adm0_pcode": "AZ", "valid_on": "2023-10-17", "valid_to": null, "version": "v01", "lang": "en", "lang1": "az", "lang2": null, "lang3": null }, "geometry": { "type": "Point", "coordinates": [ 46.636857083000109, 39.301055909000127 ] } },
{ "type": "Feature", "properties": { "admin_level": 1, "name": "Lankaran", "name1": "Lənkəran", "name2": null, "name3": null, "x_coord": 48.76665063, "y_coord": 38.73610497, "adm4_name": null, "adm4_name1": null, "adm4_name2": null, "adm4_name3": null, "adm4_pcode": null, "adm3_name": null, "adm3_name1": null, "adm3_name2": null, "adm3_name3": null, "adm3_pcode": null, "adm2_name": null, "adm2_name1": null, "adm2_name2": null, "adm2_name3": null, "adm2_pcode": null, "adm1_name": "Lankaran", "adm1_name1": "Lənkəran", "adm1_name2": null, "adm1_name3": null, "adm1_pcode": "AZ80201002", "adm0_name": "Azerbaijan", "adm0_name1": null, "adm0_name2": null, "adm0_name3": null, "adm0_pcode": "AZ", "valid_on": "2023-10-17", "valid_to": null, "version": "v01", "lang": "en", "lang1": "az", "lang2": null, "lang3": null }, "geometry": { "type": "Point", "coordinates": [ 48.766650635000076, 38.736104966000084 ] } },
{ "type": "Feature", "properties": { "admin_level": 1, "name": "Lerik", "name1": "Lerik", "name2": null, "name3": null, "x_coord": 48.46348894, "y_coord": 38.71626472, "adm4_name": null, "adm4_name1": null, "adm4_name2": null, "adm4_name3": null, "adm4_pcode": null, "adm3_name": null, "adm3_name1": null, "adm3_name2": null, "adm3_name3": null, "adm3_pcode": null, "adm2_name": null, "adm2_name1": null, "adm2_name2": null, "adm2_name3": null, "adm2_pcode": null, "adm1_name": "Lerik", "adm1_name1": "Lerik", "adm1_name2": null, "adm1_name3": null, "adm1_pcode": "AZ80300001", "adm0_name": "Azerbaijan", "adm0_name1": null, "adm0_name2": null, "adm0_name3": null, "adm0_pcode": "AZ", "valid_on": "2023-10-17", "valid_to": null, "version": "v01", "lang": "en", "lang1": "az", "lang2": null, "lang3": null }, "geometry": { "type": "Point", "coordinates": [ 48.463488939000115, 38.716264725000087 ] } },
{ "type": "Feature", "properties": { "admin_level": 1, "name": "Yardimly", "name1": "Yardımlı", "name2": null, "name3": null, "x_coord": 48.21448309, "y_coord": 38.87657547, "adm4_name": null, "adm4_name1": null, "adm4_name2": null, "adm4_name3": null, "adm4_pcode": null, "adm3_name": null, "adm3_name1": null, "adm3_name2": null, "adm3_name3": null, "adm3_pcode": null, "adm2_name": null, "adm2_name1": null, "adm2_name2": null, "adm2_name3": null, "adm2_pcode": null, "adm1_name": "Yardimly", "adm1_name1": "Yardımlı", "adm1_name2": null, "adm1_name3": null, "adm1_pcode": "AZ80400001", "adm0_name": "Azerbaijan", "adm0_name1": null, "adm0_name2": null, "adm0_name3": null, "adm0_pcode": "AZ", "valid_on": "2023-10-17", "valid_to": null, "version": "v01", "lang": "en", "lang1": "az", "lang2": null, "lang3": null }, "geometry": { "type": "Point", "coordinates": [ 48.214483093000183, 38.876575470000148 ] } },
{ "type": "Feature", "properties": { "admin_level": 1, "name": "Masally", "name1": "Masallı", "name2": null, "name3": null, "x_coord": 48.69669895, "y_coord": 38.99066734, "adm4_name": null, "adm4_name1": null, "adm4_name2": null, "adm4_name3": null, "adm4_pcode": null, "adm3_name": null, "adm3_name1": null, "adm3_name2": null, "adm3_name3": null, "adm3_pcode": null, "adm2_name": null, "adm2_name1": null, "adm2_name2": null, "adm2_name3": null, "adm2_pcode": null, "adm1_name": "Masally", "adm1_name1": "Masallı", "adm1_name2": null, "adm1_name3": null, "adm1_pcode": "AZ80500001", "adm0_name": "Azerbaijan", "adm0_name1": null, "adm0_name2": null, "adm0_name3": null, "adm0_pcode": "AZ", "valid_on": "2023-10-17", "valid_to": null, "version": "v01", "lang": "en", "lang1": "az", "lang2": null, "lang3": null }, "geometry": { "type": "Point", "coordinates": [ 48.696698952000077, 38.990667343000155 ] } },
{ "type": "Feature", "properties": { "admin_level": 1, "name": "Astara", "name1": "Astara", "name2": null, "name3": null, "x_coord": 48.71663375, "y_coord": 38.50061226, "adm4_name": null, "adm4_name1": null, "adm4_name2": null, "adm4_name3": null, "adm4_pcode": null, "adm3_name": null, "adm3_name1": null, "adm3_name2": null, "adm3_name3": null, "adm3_pcode": null, "adm2_name": null, "adm2_name1": null, "adm2_name2": null, "adm2_name3": null, "adm2_pcode": null, "adm1_name": "Astara", "adm1_name1": "Astara", "adm1_name2": null, "adm1_name3": null, "adm1_pcode": "AZ80100001", "adm0_name": "Azerbaijan", "adm0_name1": null, "adm0_name2": null, "adm0_name3": null, "adm0_pcode": "AZ", "valid_on": "2023-10-17", "valid_to": null, "version": "v01", "lang": "en", "lang1": "az", "lang2": null, "lang3": null }, "geometry": { "type": "Point", "coordinates": [ 48.71663374700006, 38.500612259000093 ] } },
{ "type": "Feature", "properties": { "admin_level": 1, "name": "Jalilabad", "name1": "Cəlilabad", "name2": null, "name3": null, "x_coord": 48.44800895, "y_coord": 39.20207787, "adm4_name": null, "adm4_name1": null, "adm4_name2": null, "adm4_name3": null, "adm4_pcode": null, "adm3_name": null, "adm3_name1": null, "adm3_name2": null, "adm3_name3": null, "adm3_pcode": null, "adm2_name": null, "adm2_name1": null, "adm2_name2": null, "adm2_name3": null, "adm2_pcode": null, "adm1_name": "Jalilabad", "adm1_name1": "Cəlilabad", "adm1_name2": null, "adm1_name3": null, "adm1_pcode": "AZ80600001", "adm0_name": "Azerbaijan", "adm0_name1": null, "adm0_name2": null, "adm0_name3": null, "adm0_pcode": "AZ", "valid_on": "2023-10-17", "valid_to": null, "version": "v01", "lang": "en", "lang1": "az", "lang2": null, "lang3": null }, "geometry": { "type": "Point", "coordinates": [ 48.448008954000159, 39.202077866000081 ] } },
{ "type": "Feature", "properties": { "admin_level": 1, "name": "Gobustan", "name1": "Qobustan", "name2": null, "name3": null, "x_coord": 48.96800972, "y_coord": 40.5248909, "adm4_name": null, "adm4_name1": null, "adm4_name2": null, "adm4_name3": null, "adm4_pcode": null, "adm3_name": null, "adm3_name1": null, "adm3_name2": null, "adm3_name3": null, "adm3_pcode": null, "adm2_name": null, "adm2_name1": null, "adm2_name2": null, "adm2_name3": null, "adm2_pcode": null, "adm1_name": "Gobustan", "adm1_name1": "Qobustan", "adm1_name2": null, "adm1_name3": null, "adm1_pcode": "AZ30700001", "adm0_name": "Azerbaijan", "adm0_name1": null, "adm0_name2": null, "adm0_name3": null, "adm0_pcode": "AZ", "valid_on": "2023-10-17", "valid_to": null, "version": "v01", "lang": "en", "lang1": "az", "lang2": null, "lang3": null }, "geometry": { "type": "Point", "coordinates": [ 48.96800972200009, 40.524890900000059 ] } },
{ "type": "Feature", "properties": { "admin_level": 1, "name": "Ismayilly", "name1": "İsmayıllı", "name2": null, "name3": null, "x_coord": 48.16224587, "y_coord": 40.7883358, "adm4_name": null, "adm4_name1": null, "adm4_name2": null, "adm4_name3": null, "adm4_pcode": null, "adm3_name": null, "adm3_name1": null, "adm3_name2": null, "adm3_name3": null, "adm3_pcode": null, "adm2_name": null, "adm2_name1": null, "adm2_name2": null, "adm2_name3": null, "adm2_pcode": null, "adm1_name": "Ismayilly", "adm1_name1": "İsmayıllı", "adm1_name2": null, "adm1_name3": null, "adm1_pcode": "AZ40700001", "adm0_name": "Azerbaijan", "adm0_name1": null, "adm0_name2": null, "adm0_name3": null, "adm0_pcode": "AZ", "valid_on": "2023-10-17", "valid_to": null, "version": "v01", "lang": "en", "lang1": "az", "lang2": null, "lang3": null }, "geometry": { "type": "Point", "coordinates": [ 48.162245873000131, 40.788335800000084 ] } },
{ "type": "Feature", "properties": { "admin_level": 1, "name": "Aghsu", "name1": "Ağsu", "name2": null, "name3": null, "x_coord": 48.30821356, "y_coord": 40.53562546, "adm4_name": null, "adm4_name1": null, "adm4_name2": null, "adm4_name3": null, "adm4_pcode": null, "adm3_name": null, "adm3_name1": null, "adm3_name2": null, "adm3_name3": null, "adm3_pcode": null, "adm2_name": null, "adm2_name1": null, "adm2_name2": null, "adm2_name3": null, "adm2_pcode": null, "adm1_name": "Aghsu", "adm1_name1": "Ağsu", "adm1_name2": null, "adm1_name3": null, "adm1_pcode": "AZ40900001", "adm0_name": "Azerbaijan", "adm0_name1": null, "adm0_name2": null, "adm0_name3": null, "adm0_pcode": "AZ", "valid_on": "2023-10-17", "valid_to": null, "version": "v01", "lang": "en", "lang1": "az", "lang2": null, "lang3": null }, "geometry": { "type": "Point", "coordinates": [ 48.308213560000183, 40.535625458000084 ] } },
{ "type": "Feature", "properties": { "admin_level": 1, "name": "Shamakhy", "name1": "Şamaxı", "name2": null, "name3": null, "x_coord": 48.56821403, "y_coord": 40.60501671, "adm4_name": null, "adm4_name1": null, "adm4_name2": null, "adm4_name3": null, "adm4_pcode": null, "adm3_name": null, "adm3_name1": null, "adm3_name2": null, "adm3_name3": null, "adm3_pcode": null, "adm2_name": null, "adm2_name1": null, "adm2_name2": null, "adm2_name3": null, "adm2_pcode": null, "adm1_name": "Shamakhy", "adm1_name1": "Şamaxı", "adm1_name2": null, "adm1_name3": null, "adm1_pcode": "AZ41000001", "adm0_name": "Azerbaijan", "adm0_name1": null, "adm0_name2": null, "adm0_name3": null, "adm0_pcode": "AZ", "valid_on": "2023-10-17", "valid_to": null, "version": "v01", "lang": "en", "lang1": "az", "lang2": null, "lang3": null }, "geometry": { "type": "Point", "coordinates": [ 48.568214030000149, 40.605016709000097 ] } },
{ "type": "Feature", "properties": { "admin_level": 1, "name": "Shahbuz", "name1": "Şahbuz", "name2": null, "name3": null, "x_coord": 45.59657844, "y_coord": 39.44592857, "adm4_name": null, "adm4_name1": null, "adm4_name2": null, "adm4_name3": null, "adm4_pcode": null, "adm3_name": null, "adm3_name1": null, "adm3_name2": null, "adm3_name3": null, "adm3_pcode": null, "adm2_name": null, "adm2_name1": null, "adm2_name2": null, "adm2_name3": null, "adm2_pcode": null, "adm1_name": "Shahbuz", "adm1_name1": "Şahbuz", "adm1_name2": null, "adm1_name3": null, "adm1_pcode": "AZ10500001", "adm0_name": "Azerbaijan", "adm0_name1": null, "adm0_name2": null, "adm0_name3": null, "adm0_pcode": "AZ", "valid_on": "2023-10-17", "valid_to": null, "version": "v01", "lang": "en", "lang1": "az", "lang2": null, "lang3": null }, "geometry": { "type": "Point", "coordinates": [ 45.596578437000062, 39.445928574000163 ] } },
{ "type": "Feature", "properties": { "admin_level": 1, "name": "Julfa", "name1": "Culfa", "name2": null, "name3": null, "x_coord": 45.66651252, "y_coord": 39.14943504, "adm4_name": null, "adm4_name1": null, "adm4_name2": null, "adm4_name3": null, "adm4_pcode": null, "adm3_name": null, "adm3_name1": null, "adm3_name2": null, "adm3_name3": null, "adm3_pcode": null, "adm2_name": null, "adm2_name1": null, "adm2_name2": null, "adm2_name3": null, "adm2_pcode": null, "adm1_name": "Julfa", "adm1_name1": "Culfa", "adm1_name2": null, "adm1_name3": null, "adm1_pcode": "AZ10600001", "adm0_name": "Azerbaijan", "adm0_name1": null, "adm0_name2": null, "adm0_name3": null, "adm0_pcode": "AZ", "valid_on": "2023-10-17", "valid_to": null, "version": "v01", "lang": "en", "lang1": "az", "lang2": null, "lang3": null }, "geometry": { "type": "Point", "coordinates": [ 45.666512524000041, 39.149435044000029 ] } },
{ "type": "Feature", "properties": { "admin_level": 1, "name": "Sadarak", "name1": "Sədərək", "name2": null, "name3": null, "x_coord": 44.83510866, "y_coord": 39.68015289, "adm4_name": null, "adm4_name1": null, "adm4_name2": null, "adm4_name3": null, "adm4_pcode": null, "adm3_name": null, "adm3_name1": null, "adm3_name2": null, "adm3_name3": null, "adm3_pcode": null, "adm2_name": null, "adm2_name1": null, "adm2_name2": null, "adm2_name3": null, "adm2_pcode": null, "adm1_name": "Sadarak", "adm1_name1": "Sədərək", "adm1_name2": null, "adm1_name3": null, "adm1_pcode": "AZ10100001", "adm0_name": "Azerbaijan", "adm0_name1": null, "adm0_name2": null, "adm0_name3": null, "adm0_pcode": "AZ", "valid_on": "2023-10-17", "valid_to": null, "version": "v01", "lang": "en", "lang1": "az", "lang2": null, "lang3": null }, "geometry": { "type": "Point", "coordinates": [ 44.835108658000081, 39.680152893000184 ] } },
{ "type": "Feature", "properties": { "admin_level": 1, "name": "Babek", "name1": "Babək", "name2": null, "name3": null, "x_coord": 45.41852686, "y_coord": 39.26157951, "adm4_name": null, "adm4_name1": null, "adm4_name2": null, "adm4_name3": null, "adm4_pcode": null, "adm3_name": null, "adm3_name1": null, "adm3_name2": null, "adm3_name3": null, "adm3_pcode": null, "adm2_name": null, "adm2_name1": null, "adm2_name2": null, "adm2_name3": null, "adm2_pcode": null, "adm1_name": "Babek", "adm1_name1": "Babək", "adm1_name2": null, "adm1_name3": null, "adm1_pcode": "AZ10300001", "adm0_name": "Azerbaijan", "adm0_name1": null, "adm0_name2": null, "adm0_name3": null, "adm0_pcode": "AZ", "valid_on": "2023-10-17", "valid_to": null, "version": "v01", "lang": "en", "lang1": "az", "lang2": null, "lang3": null }, "geometry": { "type": "Point", "coordinates": [ 45.418526858000178, 39.261579514000118 ] } },
{ "type": "Feature", "properties": { "admin_level": 1, "name": "Ordubad", "name1": "Ordubad", "name2": null, "name3": null, "x_coord": 45.90118141, "y_coord": 39.07317352, "adm4_name": null, "adm4_name1": null, "adm4_name2": null, "adm4_name3": null, "adm4_pcode": null, "adm3_name": null, "adm3_name1": null, "adm3_name2": null, "adm3_name3": null, "adm3_pcode": null, "adm2_name": null, "adm2_name1": null, "adm2_name2": null, "adm2_name3": null, "adm2_pcode": null, "adm1_name": "Ordubad", "adm1_name1": "Ordubad", "adm1_name2": null, "adm1_name3": null, "adm1_pcode": "AZ10700001", "adm0_name": "Azerbaijan", "adm0_name1": null, "adm0_name2": null, "adm0_name3": null, "adm0_pcode": "AZ", "valid_on": "2023-10-17", "valid_to": null, "version": "v01", "lang": "en", "lang1": "az", "lang2": null, "lang3": null }, "geometry": { "type": "Point", "coordinates": [ 45.90118141500011, 39.07317352299998 ] } },
{ "type": "Feature", "properties": { "admin_level": 1, "name": "Kengerli", "name1": "Kəngərli", "name2": null, "name3": null, "x_coord": 45.19251563, "y_coord": 39.40904282, "adm4_name": null, "adm4_name1": null, "adm4_name2": null, "adm4_name3": null, "adm4_pcode": null, "adm3_name": null, "adm3_name1": null, "adm3_name2": null, "adm3_name3": null, "adm3_pcode": null, "adm2_name": null, "adm2_name1": null, "adm2_name2": null, "adm2_name3": null, "adm2_pcode": null, "adm1_name": "Kengerli", "adm1_name1": "Kəngərli", "adm1_name2": null, "adm1_name3": null, "adm1_pcode": "AZ10800001", "adm0_name": "Azerbaijan", "adm0_name1": null, "adm0_name2": null, "adm0_name3": null, "adm0_pcode": "AZ", "valid_on": "2023-10-17", "valid_to": null, "version": "v01", "lang": "en", "lang1": "az", "lang2": null, "lang3": null }, "geometry": { "type": "Point", "coordinates": [ 45.192515627000034, 39.409042821000071 ] } },
{ "type": "Feature", "properties": { "admin_level": 1, "name": "Nakhchivan", "name1": "Naxçıvan", "name2": null, "name3": null, "x_coord": 45.38543981, "y_coord": 39.20995903, "adm4_name": null, "adm4_name1": null, "adm4_name2": null, "adm4_name3": null, "adm4_pcode": null, "adm3_name": null, "adm3_name1": null, "adm3_name2": null, "adm3_name3": null, "adm3_pcode": null, "adm2_name": null, "adm2_name1": null, "adm2_name2": null, "adm2_name3": null, "adm2_pcode": null, "adm1_name": "Nakhchivan", "adm1_name1": "Naxçıvan", "adm1_name2": null, "adm1_name3": null, "adm1_pcode": "AZ10400002", "adm0_name": "Azerbaijan", "adm0_name1": null, "adm0_name2": null, "adm0_name3": null, "adm0_pcode": "AZ", "valid_on": "2023-10-17", "valid_to": null, "version": "v01", "lang": "en", "lang1": "az", "lang2": null, "lang3": null }, "geometry": { "type": "Point", "coordinates": [ 45.385439815000154, 39.20995903000005 ] } },
{ "type": "Feature", "properties": { "admin_level": 1, "name": "Sharur", "name1": "Şərur", "name2": null, "name3": null, "x_coord": 45.0539247, "y_coord": 39.58425713, "adm4_name": null, "adm4_name1": null, "adm4_name2": null, "adm4_name3": null, "adm4_pcode": null, "adm3_name": null, "adm3_name1": null, "adm3_name2": null, "adm3_name3": null, "adm3_pcode": null, "adm2_name": null, "adm2_name1": null, "adm2_name2": null, "adm2_name3": null, "adm2_pcode": null, "adm1_name": "Sharur", "adm1_name1": "Şərur", "adm1_name2": null, "adm1_name3": null, "adm1_pcode": "AZ10200001", "adm0_name": "Azerbaijan", "adm0_name1": null, "adm0_name2": null, "adm0_name3": null, "adm0_pcode": "AZ", "valid_on": "2023-10-17", "valid_to": null, "version": "v01", "lang": "en", "lang1": "az", "lang2": null, "lang3": null }, "geometry": { "type": "Point", "coordinates": [ 45.053924701000085, 39.584257126000125 ] } },
{ "type": "Feature", "properties": { "admin_level": 1, "name": "Khachmaz", "name1": "Xaçmaz", "name2": null, "name3": null, "x_coord": 48.66311853, "y_coord": 41.61653519, "adm4_name": null, "adm4_name1": null, "adm4_name2": null, "adm4_name3": null, "adm4_pcode": null, "adm3_name": null, "adm3_name1": null, "adm3_name2": null, "adm3_name3": null, "adm3_pcode": null, "adm2_name": null, "adm2_name1": null, "adm2_name2": null, "adm2_name3": null, "adm2_pcode": null, "adm1_name": "Khachmaz", "adm1_name1": "Xaçmaz", "adm1_name2": null, "adm1_name3": null, "adm1_pcode": "AZ30200001", "adm0_name": "Azerbaijan", "adm0_name1": null, "adm0_name2": null, "adm0_name3": null, "adm0_pcode": "AZ", "valid_on": "2023-10-17", "valid_to": null, "version": "v01", "lang": "en", "lang1": "az", "lang2": null, "lang3": null }, "geometry": { "type": "Point", "coordinates": [ 48.663118531000123, 41.616535187000068 ] } },
{ "type": "Feature", "properties": { "admin_level": 1, "name": "Siyazan", "name1": "Siyəzən", "name2": null, "name3": null, "x_coord": 49.04911653, "y_coord": 41.02965927, "adm4_name": null, "adm4_name1": null, "adm4_name2": null, "adm4_name3": null, "adm4_pcode": null, "adm3_name": null, "adm3_name1": null, "adm3_name2": null, "adm3_name3": null, "adm3_pcode": null, "adm2_name": null, "adm2_name1": null, "adm2_name2": null, "adm2_name3": null, "adm2_pcode": null, "adm1_name": "Siyazan", "adm1_name1": "Siyəzən", "adm1_name2": null, "adm1_name3": null, "adm1_pcode": "AZ30500001", "adm0_name": "Azerbaijan", "adm0_name1": null, "adm0_name2": null, "adm0_name3": null, "adm0_pcode": "AZ", "valid_on": "2023-10-17", "valid_to": null, "version": "v01", "lang": "en", "lang1": "az", "lang2": null, "lang3": null }, "geometry": { "type": "Point", "coordinates": [ 49.049116526000148, 41.029659272000174 ] } },
{ "type": "Feature", "properties": { "admin_level": 1, "name": "Guba", "name1": "Quba", "name2": null, "name3": null, "x_coord": 48.32730783, "y_coord": 41.18961906, "adm4_name": null, "adm4_name1": null, "adm4_name2": null, "adm4_name3": null, "adm4_pcode": null, "adm3_name": null, "adm3_name1": null, "adm3_name2": null, "adm3_name3": null, "adm3_pcode": null, "adm2_name": null, "adm2_name1": null, "adm2_name2": null, "adm2_name3": null, "adm2_pcode": null, "adm1_name": "Guba", "adm1_name1": "Quba", "adm1_name2": null, "adm1_name3": null, "adm1_pcode": "AZ30300001", "adm0_name": "Azerbaijan", "adm0_name1": null, "adm0_name2": null, "adm0_name3": null, "adm0_pcode": "AZ", "valid_on": "2023-10-17", "valid_to": null, "version": "v01", "lang": "en", "lang1": "az", "lang2": null, "lang3": null }, "geometry": { "type": "Point", "coordinates": [ 48.327307829000063, 41.189619064 ] } },
{ "type": "Feature", "properties": { "admin_level": 1, "name": "Gusar", "name1": "Qusar", "name2": null, "name3": null, "x_coord": 48.23878351, "y_coord": 41.44210243, "adm4_name": null, "adm4_name1": null, "adm4_name2": null, "adm4_name3": null, "adm4_pcode": null, "adm3_name": null, "adm3_name1": null, "adm3_name2": null, "adm3_name3": null, "adm3_pcode": null, "adm2_name": null, "adm2_name1": null, "adm2_name2": null, "adm2_name3": null, "adm2_pcode": null, "adm1_name": "Gusar", "adm1_name1": "Qusar", "adm1_name2": null, "adm1_name3": null, "adm1_pcode": "AZ30100001", "adm0_name": "Azerbaijan", "adm0_name1": null, "adm0_name2": null, "adm0_name3": null, "adm0_pcode": "AZ", "valid_on": "2023-10-17", "valid_to": null, "version": "v01", "lang": "en", "lang1": "az", "lang2": null, "lang3": null }, "geometry": { "type": "Point", "coordinates": [ 48.238783508000097, 41.442102433000173 ] } },
{ "type": "Feature", "properties": { "admin_level": 1, "name": "Shabran", "name1": "Şabran", "name2": null, "name3": null, "x_coord": 48.79593343, "y_coord": 41.1127224, "adm4_name": null, "adm4_name1": null, "adm4_name2": null, "adm4_name3": null, "adm4_pcode": null, "adm3_name": null, "adm3_name1": null, "adm3_name2": null, "adm3_name3": null, "adm3_pcode": null, "adm2_name": null, "adm2_name1": null, "adm2_name2": null, "adm2_name3": null, "adm2_pcode": null, "adm1_name": "Shabran", "adm1_name1": "Şabran", "adm1_name2": null, "adm1_name3": null, "adm1_pcode": "AZ30400001", "adm0_name": "Azerbaijan", "adm0_name1": null, "adm0_name2": null, "adm0_name3": null, "adm0_pcode": "AZ", "valid_on": "2023-10-17", "valid_to": null, "version": "v01", "lang": "en", "lang1": "az", "lang2": null, "lang3": null }, "geometry": { "type": "Point", "coordinates": [ 48.795933432000083, 41.112722397000027 ] } },
{ "type": "Feature", "properties": { "admin_level": 1, "name": "Balakan", "name1": "Balakən", "name2": null, "name3": null, "x_coord": 46.45233255, "y_coord": 41.72828674, "adm4_name": null, "adm4_name1": null, "adm4_name2": null, "adm4_name3": null, "adm4_pcode": null, "adm3_name": null, "adm3_name1": null, "adm3_name2": null, "adm3_name3": null, "adm3_pcode": null, "adm2_name": null, "adm2_name1": null, "adm2_name2": null, "adm2_name3": null, "adm2_pcode": null, "adm1_name": "Balakan", "adm1_name1": "Balakən", "adm1_name2": null, "adm1_name3": null, "adm1_pcode": "AZ40100001", "adm0_name": "Azerbaijan", "adm0_name1": null, "adm0_name2": null, "adm0_name3": null, "adm0_pcode": "AZ", "valid_on": "2023-10-17", "valid_to": null, "version": "v01", "lang": "en", "lang1": "az", "lang2": null, "lang3": null }, "geometry": { "type": "Point", "coordinates": [ 46.452332550000165, 41.728286743000183 ] } },
{ "type": "Feature", "properties": { "admin_level": 1, "name": "Shaki", "name1": "Şəki", "name2": null, "name3": null, "x_coord": 47.07794039, "y_coord": 41.11964989, "adm4_name": null, "adm4_name1": null, "adm4_name2": null, "adm4_name3": null, "adm4_pcode": null, "adm3_name": null, "adm3_name1": null, "adm3_name2": null, "adm3_name3": null, "adm3_pcode": null, "adm2_name": null, "adm2_name1": null, "adm2_name2": null, "adm2_name3": null, "adm2_pcode": null, "adm1_name": "Shaki", "adm1_name1": "Şəki", "adm1_name2": null, "adm1_name3": null, "adm1_pcode": "AZ40401002", "adm0_name": "Azerbaijan", "adm0_name1": null, "adm0_name2": null, "adm0_name3": null, "adm0_pcode": "AZ", "valid_on": "2023-10-17", "valid_to": null, "version": "v01", "lang": "en", "lang1": "az", "lang2": null, "lang3": null }, "geometry": { "type": "Point", "coordinates": [ 47.077940387000069, 41.119649887000151 ] } },
{ "type": "Feature", "properties": { "admin_level": 1, "name": "Gabala", "name1": "Qəbələ", "name2": null, "name3": null, "x_coord": 47.78888332, "y_coord": 40.92881393, "adm4_name": null, "adm4_name1": null, "adm4_name2": null, "adm4_name3": null, "adm4_pcode": null, "adm3_name": null, "adm3_name1": null, "adm3_name2": null, "adm3_name3": null, "adm3_pcode": null, "adm2_name": null, "adm2_name1": null, "adm2_name2": null, "adm2_name3": null, "adm2_pcode": null, "adm1_name": "Gabala", "adm1_name1": "Qəbələ", "adm1_name2": null, "adm1_name3": null, "adm1_pcode": "AZ40600001", "adm0_name": "Azerbaijan", "adm0_name1": null, "adm0_name2": null, "adm0_name3": null, "adm0_pcode": "AZ", "valid_on": "2023-10-17", "valid_to": null, "version": "v01", "lang": "en", "lang1": "az", "lang2": null, "lang3": null }, "geometry": { "type": "Point", "coordinates": [ 47.788883317000057, 40.928813935000164 ] } },
{ "type": "Feature", "properties": { "admin_level": 1, "name": "Gakh", "name1": "Qax", "name2": null, "name3": null, "x_coord": 46.75897646, "y_coord": 41.24915123, "adm4_name": null, "adm4_name1": null, "adm4_name2": null, "adm4_name3": null, "adm4_pcode": null, "adm3_name": null, "adm3_name1": null, "adm3_name2": null, "adm3_name3": null, "adm3_pcode": null, "adm2_name": null, "adm2_name1": null, "adm2_name2": null, "adm2_name3": null, "adm2_pcode": null, "adm1_name": "Gakh", "adm1_name1": "Qax", "adm1_name2": null, "adm1_name3": null, "adm1_pcode": "AZ40300001", "adm0_name": "Azerbaijan", "adm0_name1": null, "adm0_name2": null, "adm0_name3": null, "adm0_pcode": "AZ", "valid_on": "2023-10-17", "valid_to": null, "version": "v01", "lang": "en", "lang1": "az", "lang2": null, "lang3": null }, "geometry": { "type": "Point", "coordinates": [ 46.758976462000135, 41.249151230000052 ] } },
{ "type": "Feature", "properties": { "admin_level": 1, "name": "Zagatala", "name1": "Zaqatala", "name2": null, "name3": null, "x_coord": 46.7631261, "y_coord": 41.61718369, "adm4_name": null, "adm4_name1": null, "adm4_name2": null, "adm4_name3": null, "adm4_pcode": null, "adm3_name": null, "adm3_name1": null, "adm3_name2": null, "adm3_name3": null, "adm3_pcode": null, "adm2_name": null, "adm2_name1": null, "adm2_name2": null, "adm2_name3": null, "adm2_pcode": null, "adm1_name": "Zagatala", "adm1_name1": "Zaqatala", "adm1_name2": null, "adm1_name3": null, "adm1_pcode": "AZ40200001", "adm0_name": "Azerbaijan", "adm0_name1": null, "adm0_name2": null, "adm0_name3": null, "adm0_pcode": "AZ", "valid_on": "2023-10-17", "valid_to": null, "version": "v01", "lang": "en", "lang1": "az", "lang2": null, "lang3": null }, "geometry": { "type": "Point", "coordinates": [ 46.763126099000033, 41.617183686000033 ] } },
{ "type": "Feature", "properties": { "admin_level": 1, "name": "Oghuz", "name1": "Oğuz", "name2": null, "name3": null, "x_coord": 47.46180493, "y_coord": 41.03735924, "adm4_name": null, "adm4_name1": null, "adm4_name2": null, "adm4_name3": null, "adm4_pcode": null, "adm3_name": null, "adm3_name1": null, "adm3_name2": null, "adm3_name3": null, "adm3_pcode": null, "adm2_name": null, "adm2_name1": null, "adm2_name2": null, "adm2_name3": null, "adm2_pcode": null, "adm1_name": "Oghuz", "adm1_name1": "Oğuz", "adm1_name2": null, "adm1_name3": null, "adm1_pcode": "AZ40500001", "adm0_name": "Azerbaijan", "adm0_name1": null, "adm0_name2": null, "adm0_name3": null, "adm0_pcode": "AZ", "valid_on": "2023-10-17", "valid_to": null, "version": "v01", "lang": "en", "lang1": "az", "lang2": null, "lang3": null }, "geometry": { "type": "Point", "coordinates": [ 47.461804929000095, 41.037359238000079 ] } },
{ "type": "Feature", "properties": { "admin_level": 1, "name": "Fuzuli", "name1": "Füzuli", "name2": null, "name3": null, "x_coord": 47.35500921, "y_coord": 39.54623222, "adm4_name": null, "adm4_name1": null, "adm4_name2": null, "adm4_name3": null, "adm4_pcode": null, "adm3_name": null, "adm3_name1": null, "adm3_name2": null, "adm3_name3": null, "adm3_pcode": null, "adm2_name": null, "adm2_name1": null, "adm2_name2": null, "adm2_name3": null, "adm2_pcode": null, "adm1_name": "Fuzuli", "adm1_name1": "Füzuli", "adm1_name2": null, "adm1_name3": null, "adm1_pcode": "AZ60600001", "adm0_name": "Azerbaijan", "adm0_name1": null, "adm0_name2": null, "adm0_name3": null, "adm0_pcode": "AZ", "valid_on": "2023-10-17", "valid_to": null, "version": "v01", "lang": "en", "lang1": "az", "lang2": null, "lang3": null }, "geometry": { "type": "Point", "coordinates": [ 47.355009209000059, 39.546232224 ] } },
{ "type": "Feature", "properties": { "admin_level": 1, "name": "Shusha", "name1": "Şuşa", "name2": null, "name3": null, "x_coord": 46.66496967, "y_coord": 39.67978478, "adm4_name": null, "adm4_name1": null, "adm4_name2": null, "adm4_name3": null, "adm4_pcode": null, "adm3_name": null, "adm3_name1": null, "adm3_name2": null, "adm3_name3": null, "adm3_pcode": null, "adm2_name": null, "adm2_name1": null, "adm2_name2": null, "adm2_name3": null, "adm2_pcode": null, "adm1_name": "Shusha", "adm1_name1": "Şuşa", "adm1_name2": null, "adm1_name3": null, "adm1_pcode": "AZ70200001", "adm0_name": "Azerbaijan", "adm0_name1": null, "adm0_name2": null, "adm0_name3": null, "adm0_pcode": "AZ", "valid_on": "2023-10-17", "valid_to": null, "version": "v01", "lang": "en", "lang1": "az", "lang2": null, "lang3": null }, "geometry": { "type": "Point", "coordinates": [ 46.664969672000097, 39.679784775000087 ] } },
{ "type": "Feature", "properties": { "admin_level": 1, "name": "Tartar", "name1": "Tərtər", "name2": null, "name3": null, "x_coord": 46.78884937, "y_coord": 40.25737953, "adm4_name": null, "adm4_name1": null, "adm4_name2": null, "adm4_name3": null, "adm4_pcode": null, "adm3_name": null, "adm3_name1": null, "adm3_name2": null, "adm3_name3": null, "adm3_pcode": null, "adm2_name": null, "adm2_name1": null, "adm2_name2": null, "adm2_name3": null, "adm2_pcode": null, "adm1_name": "Tartar", "adm1_name1": "Tərtər", "adm1_name2": null, "adm1_name3": null, "adm1_pcode": "AZ61100001", "adm0_name": "Azerbaijan", "adm0_name1": null, "adm0_name2": null, "adm0_name3": null, "adm0_pcode": "AZ", "valid_on": "2023-10-17", "valid_to": null, "version": "v01", "lang": "en", "lang1": "az", "lang2": null, "lang3": null }, "geometry": { "type": "Point", "coordinates": [ 46.788849374, 40.257379532000186 ] } },
{ "type": "Feature", "properties": { "admin_level": 1, "name": "Khojavand", "name1": "Xocavənd", "name2": null, "name3": null, "x_coord": 46.93434172, "y_coord": 39.6287384, "adm4_name": null, "adm4_name1": null, "adm4_name2": null, "adm4_name3": null, "adm4_pcode": null, "adm3_name": null, "adm3_name1": null, "adm3_name2": null, "adm3_name3": null, "adm3_pcode": null, "adm2_name": null, "adm2_name1": null, "adm2_name2": null, "adm2_name3": null, "adm2_pcode": null, "adm1_name": "Khojavand", "adm1_name1": "Xocavənd", "adm1_name2": null, "adm1_name3": null, "adm1_pcode": "AZ70300001", "adm0_name": "Azerbaijan", "adm0_name1": null, "adm0_name2": null, "adm0_name3": null, "adm0_pcode": "AZ", "valid_on": "2023-10-17", "valid_to": null, "version": "v01", "lang": "en", "lang1": "az", "lang2": null, "lang3": null }, "geometry": { "type": "Point", "coordinates": [ 46.934341718000098, 39.62873840300017 ] } },
{ "type": "Feature", "properties": { "admin_level": 1, "name": "Aghdam", "name1": "Ağdam", "name2": null, "name3": null, "x_coord": 46.90367933, "y_coord": 40.00849152, "adm4_name": null, "adm4_name1": null, "adm4_name2": null, "adm4_name3": null, "adm4_pcode": null, "adm3_name": null, "adm3_name1": null, "adm3_name2": null, "adm3_name3": null, "adm3_pcode": null, "adm2_name": null, "adm2_name1": null, "adm2_name2": null, "adm2_name3": null, "adm2_pcode": null, "adm1_name": "Aghdam", "adm1_name1": "Ağdam", "adm1_name2": null, "adm1_name3": null, "adm1_pcode": "AZ60900001", "adm0_name": "Azerbaijan", "adm0_name1": null, "adm0_name2": null, "adm0_name3": null, "adm0_pcode": "AZ", "valid_on": "2023-10-17", "valid_to": null, "version": "v01", "lang": "en", "lang1": "az", "lang2": null, "lang3": null }, "geometry": { "type": "Point", "coordinates": [ 46.903679330000045, 40.008491516000049 ] } },
{ "type": "Feature", "properties": { "admin_level": 1, "name": "Khojaly", "name1": "Xocalı", "name2": null, "name3": null, "x_coord": 46.63095362, "y_coord": 39.8242054, "adm4_name": null, "adm4_name1": null, "adm4_name2": null, "adm4_name3": null, "adm4_pcode": null, "adm3_name": null, "adm3_name1": null, "adm3_name2": null, "adm3_name3": null, "adm3_pcode": null, "adm2_name": null, "adm2_name1": null, "adm2_name2": null, "adm2_name3": null, "adm2_pcode": null, "adm1_name": "Khojaly", "adm1_name1": "Xocalı", "adm1_name2": null, "adm1_name3": null, "adm1_pcode": "AZ70100001", "adm0_name": "Azerbaijan", "adm0_name1": null, "adm0_name2": null, "adm0_name3": null, "adm0_pcode": "AZ", "valid_on": "2023-10-17", "valid_to": null, "version": "v01", "lang": "en", "lang1": "az", "lang2": null, "lang3": null }, "geometry": { "type": "Point", "coordinates": [ 46.63095362200005, 39.824205399000164 ] } },
{ "type": "Feature", "properties": { "admin_level": 1, "name": "Jabrayil", "name1": "Cəbrayıl", "name2": null, "name3": null, "x_coord": 46.96354895, "y_coord": 39.3076973, "adm4_name": null, "adm4_name1": null, "adm4_name2": null, "adm4_name3": null, "adm4_pcode": null, "adm3_name": null, "adm3_name1": null, "adm3_name2": null, "adm3_name3": null, "adm3_pcode": null, "adm2_name": null, "adm2_name1": null, "adm2_name2": null, "adm2_name3": null, "adm2_pcode": null, "adm1_name": "Jabrayil", "adm1_name1": "Cəbrayıl", "adm1_name2": null, "adm1_name3": null, "adm1_pcode": "AZ60500001", "adm0_name": "Azerbaijan", "adm0_name1": null, "adm0_name2": null, "adm0_name3": null, "adm0_pcode": "AZ", "valid_on": "2023-10-17", "valid_to": null, "version": "v01", "lang": "en", "lang1": "az", "lang2": null, "lang3": null }, "geometry": { "type": "Point", "coordinates": [ 46.963548946000174, 39.307697297 ] } },
{ "type": "Feature", "properties": { "admin_level": 1, "name": "Khankendi", "name1": "Xankəndi", "name2": null, "name3": null, "x_coord": 46.77769821, "y_coord": 39.82747078, "adm4_name": null, "adm4_name1": null, "adm4_name2": null, "adm4_name3": null, "adm4_pcode": null, "adm3_name": null, "adm3_name1": null, "adm3_name2": null, "adm3_name3": null, "adm3_pcode": null, "adm2_name": null, "adm2_name1": null, "adm2_name2": null, "adm2_name3": null, "adm2_pcode": null, "adm1_name": "Khankendi", "adm1_name1": "Xankəndi", "adm1_name2": null, "adm1_name3": null, "adm1_pcode": "AZ70400002", "adm0_name": "Azerbaijan", "adm0_name1": null, "adm0_name2": null, "adm0_name3": null, "adm0_pcode": "AZ", "valid_on": "2023-10-17", "valid_to": null, "version": "v01", "lang": "en", "lang1": "az", "lang2": null, "lang3": null }, "geometry": { "type": "Point", "coordinates": [ 46.777698206000025, 39.827470780000056 ] } }
]
}
